{"type": "FeatureCollection", "name": "ejes_calles_int", "crs": {"type": "name", "properties": {"name": "urn:ogc:def:crs:OGC:1.3:CRS84"}}, "features": [{"type": "Feature", "properties": {"FID": 3, "Tipo": "Calle", "Barrio": "Campito", "Nombre": "campito", "LongTramo": 239, "CalleNum": null}, "geometry": {"type": "MultiLineString", "coordinates": [[[-64.72616945, -32.19652942], [-64.72609642, -32.19671016], [-64.72607926, -32.19683054], [-64.72600305, -32.19693616], [-64.72590086, -32.19701964], [-64.72582835, -32.197114], [-64.7258443, -32.19717932], [-64.72583066, -32.19725184], [-64.72586002, -32.19738031], [-64.72602472, -32.19748356], [-64.72597721, -32.19755009], [-64.72579738, -32.19759733], [-64.72577378, -32.19769575], [-64.7259094, -32.19773426], [-64.72594371, -32.19778794], [-64.72587921, -32.19783348], [-64.72539678, -32.19787873], [-64.72539196, -32.19790995]]]}}, {"type": "Feature", "properties": {"FID": 5, "Tipo": "Entrada", "Barrio": "Espinillos", "Nombre": "Irina y Flor", "LongTramo": 248, "CalleNum": null}, "geometry": {"type": "MultiLineString", "coordinates": [[[-64.74202833, -32.19432946], [-64.74212471, -32.19436374], [-64.74225003, -32.19434675], [-64.74225378, -32.19422969], [-64.74216762, -32.19410369], [-64.74211744, -32.19398228], [-64.74199077, -32.19392807], [-64.74178818, -32.19397156], [-64.74168776, -32.19403908], [-64.74156622, -32.19414995], [-64.74130803, -32.19438742], [-64.74130463, -32.19439108], [-64.74130109, -32.19439464], [-64.7412974, -32.19439809], [-64.74129357, -32.19440143], [-64.74128961, -32.19440465], [-64.74128552, -32.19440776], [-64.7412813, -32.19441074], [-64.74127696, -32.19441359], [-64.74127251, -32.19441632], [-64.74126795, -32.19441891], [-64.74126328, -32.19442136], [-64.74125852, -32.19442367], [-64.74125367, -32.19442584], [-64.74124873, -32.19442786], [-64.74124371, -32.19442974], [-64.74123861, -32.19443147], [-64.74123345, -32.19443304], [-64.74122823, -32.19443446], [-64.74122295, -32.19443573], [-64.74121762, -32.19443683], [-64.74121225, -32.19443778], [-64.74120684, -32.19443857], [-64.74120141, -32.1944392], [-64.74119595, -32.19443966], [-64.74119048, -32.19443997], [-64.741185, -32.19444011], [-64.74117952, -32.19444009], [-64.74117404, -32.1944399], [-64.74116857, -32.19443955], [-64.74116311, -32.19443904], [-64.74115769, -32.19443837], [-64.74115229, -32.19443754], [-64.74114693, -32.19443655], [-64.74114162, -32.1944354], [-64.74113635, -32.1944341], [-64.74113115, -32.19443263], [-64.741126, -32.19443102], [-64.74112318, -32.19443004]]]}}, {"type": "Feature", "properties": {"FID": 6, "Tipo": "Calle", "Barrio": "Espinillos", "Nombre": "Pasaje Aromitos", "LongTramo": 499, "CalleNum": 12}, "geometry": {"type": "MultiLineString", "coordinates": [[[-64.73922423, -32.196216], [-64.73922135, -32.19620801], [-64.7392188, -32.19619994], [-64.73921657, -32.1961918], [-64.73921469, -32.1961836], [-64.73921314, -32.19617534], [-64.73921193, -32.19616705], [-64.73921107, -32.19615872], [-64.73921054, -32.19615038], [-64.73921036, -32.19614202], [-64.73921052, -32.19613366], [-64.73921103, -32.19612532], [-64.73921187, -32.19611699], [-64.73921306, -32.19610869], [-64.73921459, -32.19610044], [-64.73921645, -32.19609223], [-64.73921865, -32.19608408], [-64.73922119, -32.19607601], [-64.73922405, -32.19606801], [-64.73922724, -32.19606011], [-64.73923076, -32.1960523], [-64.73923459, -32.1960446], [-64.73923873, -32.19603703], [-64.73924318, -32.19602958], [-64.73924794, -32.19602226], [-64.73925299, -32.19601509], [-64.73925834, -32.19600808], [-64.73926397, -32.19600123], [-64.73926988, -32.19599455], [-64.73927605, -32.19598805], [-64.73928249, -32.19598173], [-64.73928919, -32.19597561], [-64.73929613, -32.1959697], [-64.73930332, -32.19596399], [-64.73931073, -32.1959585], [-64.73931836, -32.19595323], [-64.7393262, -32.1959482], [-64.73933425, -32.1959434], [-64.73934249, -32.19593884], [-64.73935091, -32.19593452], [-64.7393595, -32.19593046], [-64.73936825, -32.19592666], [-64.73937716, -32.19592312], [-64.7393792, -32.19592236], [-64.73966996, -32.19582256], [-64.73969977, -32.19581322], [-64.73972994, -32.19580477], [-64.73976043, -32.19579722], [-64.73979122, -32.19579058], [-64.73982227, -32.19578485], [-64.73985353, -32.19578006], [-64.73988496, -32.19577619], [-64.73991654, -32.19577326], [-64.73994822, -32.19577126], [-64.73997996, -32.19577021], [-64.74001172, -32.1957701], [-64.74004347, -32.19577093], [-64.74004864, -32.19577116], [-64.74005631, -32.19576959], [-64.74007556, -32.19576524], [-64.74009462, -32.19576031], [-64.74011347, -32.19575482], [-64.74013208, -32.19574878], [-64.74015043, -32.19574219], [-64.7401685, -32.19573505], [-64.74018627, -32.19572739], [-64.74020371, -32.1957192], [-64.7402208, -32.1957105], [-64.74023753, -32.1957013], [-64.74025387, -32.1956916], [-64.7402698, -32.19568143], [-64.7402853, -32.19567079], [-64.74030036, -32.1956597], [-64.74031495, -32.19564817], [-64.74032906, -32.19563621], [-64.74034268, -32.19562384], [-64.74035577, -32.19561108], [-64.74036833, -32.19559793], [-64.74038035, -32.19558442], [-64.74039181, -32.19557056], [-64.74040268, -32.19555637], [-64.74041297, -32.19554186], [-64.74042266, -32.19552706], [-64.74043174, -32.19551198], [-64.74044019, -32.19549664], [-64.740448, -32.19548105], [-64.74045517, -32.19546525], [-64.74046169, -32.19544924], [-64.74046755, -32.19543305], [-64.74047273, -32.19541669], [-64.74047725, -32.19540019], [-64.74048108, -32.19538357], [-64.74048423, -32.19536684], [-64.74048669, -32.19535003], [-64.74048846, -32.19533316], [-64.74048954, -32.19531625], [-64.74048992, -32.19529931], [-64.74048961, -32.19528237], [-64.7404886, -32.19526545], [-64.7404869, -32.19524857], [-64.7404845, -32.19523176], [-64.74048142, -32.19521502], [-64.74047765, -32.19519839], [-64.7404732, -32.19518187], [-64.74046808, -32.1951655], [-64.74046229, -32.1951493], [-64.74045583, -32.19513327], [-64.74044872, -32.19511744], [-64.74044097, -32.19510184], [-64.74043258, -32.19508647], [-64.74042357, -32.19507137], [-64.74041394, -32.19505654], [-64.74040371, -32.195042], [-64.74039288, -32.19502778], [-64.74038149, -32.19501389], [-64.74036952, -32.19500034], [-64.74035701, -32.19498716], [-64.74034397, -32.19497435], [-64.74033041, -32.19496195], [-64.74017008, -32.19437911], [-64.74016945, -32.19437129], [-64.74016914, -32.19436346], [-64.74016915, -32.19435562], [-64.74016948, -32.19434779], [-64.74017014, -32.19433997], [-64.74017111, -32.19433218], [-64.74017241, -32.19432442], [-64.74017402, -32.19431671], [-64.74017595, -32.19430905], [-64.74017819, -32.19430145], [-64.74018074, -32.19429392], [-64.7401836, -32.19428647], [-64.74018676, -32.19427911], [-64.74019022, -32.19427185], [-64.74019398, -32.19426469], [-64.74019803, -32.19425765], [-64.74020237, -32.19425074], [-64.74020699, -32.19424396], [-64.74021188, -32.19423732], [-64.74021704, -32.19423083], [-64.74022247, -32.19422449], [-64.74022815, -32.19421833], [-64.74023408, -32.19421233], [-64.74024026, -32.19420651], [-64.74024667, -32.19420088], [-64.7402533, -32.19419545], [-64.74026016, -32.19419021], [-64.74026723, -32.19418518], [-64.74027449, -32.19418037], [-64.74028196, -32.19417577], [-64.7402896, -32.19417139], [-64.74029742, -32.19416725], [-64.74030541, -32.19416334], [-64.74031355, -32.19415967], [-64.74032184, -32.19415625], [-64.74033026, -32.19415307], [-64.74033881, -32.19415014], [-64.74034748, -32.19414747], [-64.74035624, -32.19414506], [-64.7403651, -32.19414291], [-64.74037405, -32.19414102], [-64.74038306, -32.1941394], [-64.74039214, -32.19413805], [-64.74040127, -32.19413697], [-64.74041043, -32.19413616], [-64.74041963, -32.19413563], [-64.74042884, -32.19413536], [-64.74043805, -32.19413537], [-64.74044726, -32.19413566], [-64.74045645, -32.19413621], [-64.74046562, -32.19413704], [-64.74047474, -32.19413814], [-64.74048381, -32.19413951], [-64.74049282, -32.19414115], [-64.74050176, -32.19414306], [-64.74051062, -32.19414523], [-64.74051938, -32.19414766], [-64.74052803, -32.19415035], [-64.74053657, -32.19415329], [-64.74054499, -32.19415649], [-64.74055326, -32.19415993], [-64.7405614, -32.19416362], [-64.74056937, -32.19416755], [-64.74057718, -32.19417171], [-64.74058481, -32.1941761], [-64.74059226, -32.19418071], [-64.74059951, -32.19418554], [-64.74060657, -32.19419059], [-64.74061341, -32.19419584], [-64.74062003, -32.19420129], [-64.74062642, -32.19420693], [-64.74063258, -32.19421276], [-64.74063849, -32.19421877], [-64.74064155, -32.19422205], [-64.74064231, -32.19422272], [-64.74064723, -32.19422687], [-64.74065233, -32.19423087], [-64.74065758, -32.19423471], [-64.74066299, -32.1942384], [-64.74066855, -32.19424193], [-64.74067424, -32.19424529], [-64.74068008, -32.19424848], [-64.74068604, -32.19425149], [-64.74069212, -32.19425432], [-64.74069831, -32.19425698], [-64.74070461, -32.19425944], [-64.740711, -32.19426172], [-64.74071749, -32.19426381], [-64.74072405, -32.1942657], [-64.74073069, -32.1942674], [-64.7407374, -32.1942689], [-64.74074416, -32.1942702], [-64.74075097, -32.19427129], [-64.74075783, -32.19427219], [-64.74076471, -32.19427288], [-64.74077162, -32.19427337], [-64.74077855, -32.19427365], [-64.74078548, -32.19427372], [-64.74079241, -32.19427359], [-64.74079933, -32.19427326], [-64.74080624, -32.19427272], [-64.74081312, -32.19427197], [-64.74081996, -32.19427102], [-64.74082676, -32.19426987], [-64.74083351, -32.19426852], [-64.7408402, -32.19426696], [-64.74084682, -32.19426521], [-64.74085336, -32.19426327], [-64.74085982, -32.19426113], [-64.74086619, -32.1942588], [-64.74087246, -32.19425628], [-64.74087863, -32.19425358], [-64.74088467, -32.1942507], [-64.7408906, -32.19424764], [-64.7408964, -32.19424441], [-64.74090206, -32.194241], [-64.74090758, -32.19423743], [-64.74091294, -32.1942337], [-64.74091815, -32.19422981], [-64.7409232, -32.19422577], [-64.74092808, -32.19422158], [-64.74093279, -32.19421725], [-64.74093731, -32.19421278], [-64.74094165, -32.19420818], [-64.7409458, -32.19420346], [-64.74094975, -32.19419861], [-64.7409535, -32.19419365], [-64.74095704, -32.19418859], [-64.74096037, -32.19418342], [-64.74096349, -32.19417815], [-64.74096639, -32.1941728], [-64.74096907, -32.19416736], [-64.74097153, -32.19416184], [-64.74097375, -32.19415626], [-64.74097575, -32.19415061], [-64.74097751, -32.19414491], [-64.74097904, -32.19413916], [-64.74098033, -32.19413337], [-64.74098138, -32.19412754], [-64.7409822, -32.19412169], [-64.74098277, -32.19411581], [-64.7409831, -32.19410992], [-64.74098319, -32.19410403], [-64.74098303, -32.19409813], [-64.74098264, -32.19409225], [-64.740982, -32.19408638], [-64.74098112, -32.19408053], [-64.74098001, -32.19407471], [-64.74097865, -32.19406893], [-64.74097706, -32.19406319], [-64.74097524, -32.1940575], [-64.74097318, -32.19405187], [-64.74099793, -32.19367044], [-64.74100073, -32.19366191], [-64.74100388, -32.19365347], [-64.74100738, -32.19364513], [-64.74101121, -32.1936369], [-64.74101538, -32.19362879], [-64.74101988, -32.19362081], [-64.74102471, -32.19361296], [-64.74102985, -32.19360527], [-64.74103531, -32.19359773], [-64.74104107, -32.19359035], [-64.74104713, -32.19358316], [-64.74105349, -32.19357614], [-64.74106012, -32.19356932], [-64.74106704, -32.1935627], [-64.74107422, -32.19355629], [-64.74108166, -32.1935501], [-64.74108935, -32.19354413], [-64.74109728, -32.19353839], [-64.74110544, -32.1935329], [-64.74111382, -32.19352764], [-64.74112241, -32.19352264], [-64.7411312, -32.1935179], [-64.74114018, -32.19351342], [-64.74114934, -32.19350921], [-64.74115866, -32.19350528], [-64.74116815, -32.19350162], [-64.74117777, -32.19349825], [-64.74118753, -32.19349516], [-64.74119456, -32.19349315], [-64.74147877, -32.19339701]]]}}, {"type": "Feature", "properties": {"FID": 7, "Tipo": "Calle", "Barrio": "Castaños", "Nombre": "Pasiflora", "LongTramo": 179, "CalleNum": 35}, "geometry": {"type": "MultiLineString", "coordinates": [[[-64.75400933, -32.19353768], [-64.75409614, -32.19351761], [-64.75411909, -32.19346642], [-64.75411743, -32.19337995], [-64.75411626, -32.19331892], [-64.75413921, -32.19326773], [-64.75425149, -32.19319495], [-64.75432258, -32.19315835], [-64.7544476, -32.19312609], [-64.75450653, -32.19307948], [-64.75456537, -32.19302779], [-64.75464793, -32.1929656], [-64.7546951, -32.19292933], [-64.75474805, -32.19288281], [-64.75477022, -32.19279093], [-64.75476905, -32.19272989], [-64.75479798, -32.19267862], [-64.75486338, -32.19265736], [-64.75496487, -32.19264578], [-64.75504919, -32.19267513], [-64.75505998, -32.19261393], [-64.75503449, -32.19253289], [-64.75502175, -32.19249237]]]}}, {"type": "Feature", "properties": {"FID": 8, "Tipo": "Entrada", "Barrio": "Castaños", "Nombre": "Cauce", "LongTramo": 105, "CalleNum": null}, "geometry": {"type": "MultiLineString", "coordinates": [[[-64.75407948, -32.19452006], [-64.7541285, -32.19458043], [-64.75417743, -32.19463572], [-64.75424959, -32.19465506], [-64.75433275, -32.19462339], [-64.75445227, -32.19461664], [-64.75463171, -32.19461415], [-64.75480517, -32.19461174], [-64.75493696, -32.19462009], [-64.75498962, -32.19455831], [-64.7549704, -32.19449244]]]}}, {"type": "Feature", "properties": {"FID": 9, "Tipo": "Calle", "Barrio": "Pje. Gauchos", "Nombre": null, "LongTramo": 1570, "CalleNum": null}, "geometry": {"type": "MultiLineString", "coordinates": [[[-64.75404955, -32.19478106], [-64.75411583, -32.19485533], [-64.7542179, -32.19487426], [-64.75426241, -32.19501101], [-64.75432593, -32.19520345], [-64.75441055, -32.19524806], [-64.75450027, -32.19524681], [-64.75463754, -32.19522965], [-64.75477443, -32.19519213], [-64.75488691, -32.19512952], [-64.75505243, -32.19502548], [-64.75530218, -32.1949457], [-64.75557076, -32.19491145], [-64.75573215, -32.19490412], [-64.75585041, -32.19483125], [-64.75594426, -32.19473329], [-64.75603222, -32.19464049], [-64.75615675, -32.1945828], [-64.75630099, -32.19461641], [-64.75638609, -32.19468645], [-64.75651278, -32.19474065], [-64.75668123, -32.19478918], [-64.75693313, -32.1948213], [-64.75704011, -32.1947842], [-64.75717651, -32.19472125], [-64.75734889, -32.1946629], [-64.75751068, -32.19467591], [-64.75761942, -32.19473036], [-64.75775718, -32.19473862], [-64.75794299, -32.19475638], [-64.75809223, -32.19473905], [-64.7582903, -32.1947719], [-64.75846611, -32.19489156], [-64.7586172, -32.19497085], [-64.75876281, -32.19507566], [-64.75893303, -32.19521574], [-64.75904971, -32.19537183], [-64.75915374, -32.19549248], [-64.75943692, -32.19559538], [-64.7597201, -32.19569827], [-64.75985218, -32.19572187], [-64.76004388, -32.19573446], [-64.76024273, -32.19580801], [-64.76038089, -32.19583661], [-64.76049356, -32.19578416], [-64.76050983, -32.19569745], [-64.76049562, -32.19558064], [-64.76051219, -32.19550918], [-64.76057152, -32.19548292], [-64.76068536, -32.19549151], [-64.7607585, -32.19556171], [-64.76080792, -32.19564243], [-64.76089205, -32.1956616], [-64.7609754, -32.19564009], [-64.7610461, -32.19558315], [-64.76108071, -32.19551653], [-64.76113906, -32.1954394], [-64.76123996, -32.1953973], [-64.76142626, -32.19544049], [-64.76153402, -32.19544408], [-64.76164777, -32.19544758], [-64.76177239, -32.19539497], [-64.76187967, -32.19537312], [-64.76202165, -32.19528975], [-64.76214069, -32.19525756], [-64.76228944, -32.19521479], [-64.76240181, -32.19514709], [-64.76256124, -32.19503803], [-64.76268646, -32.19501593], [-64.76280579, -32.19499901], [-64.76294424, -32.19504286], [-64.76307103, -32.19510214], [-64.76322791, -32.19517118], [-64.76331911, -32.19524622], [-64.76342285, -32.19535161], [-64.76351512, -32.19548259], [-64.76358258, -32.19556814], [-64.76366309, -32.19570946], [-64.76374938, -32.19584053], [-64.76380547, -32.19595676], [-64.76386215, -32.1961035], [-64.76384685, -32.19624108], [-64.76374046, -32.1963087], [-64.76364035, -32.19639149], [-64.76355102, -32.19641309], [-64.76345071, -32.19648571], [-64.76335079, -32.19657868], [-64.76332883, -32.19668073], [-64.76341983, -32.1967456], [-64.76357642, -32.19679938], [-64.76366173, -32.19687959], [-64.76373626, -32.19702099], [-64.76384736, -32.1971975], [-64.7641132, -32.19764149], [-64.76415831, -32.19780874], [-64.76421646, -32.19803178], [-64.76429854, -32.19825448], [-64.7644475, -32.19853221], [-64.76452575, -32.19855655], [-64.76473618, -32.19860958], [-64.76524015, -32.19868139]]]}}, {"type": "Feature", "properties": {"FID": 11, "Tipo": "Calle", "Barrio": "Nogales Alto", "Nombre": "Las Liebres", "LongTramo": 255, "CalleNum": 33}, "geometry": {"type": "MultiLineString", "coordinates": [[[-64.75372568, -32.19701145], [-64.75293247, -32.19729972], [-64.75282524, -32.1973241], [-64.75275655, -32.19733014], [-64.7526934, -32.19731321], [-64.75262687, -32.19727597], [-64.75247607, -32.19721193], [-64.75226275, -32.19716401], [-64.75211895, -32.19715328], [-64.75202055, -32.19716991], [-64.75195587, -32.19722931], [-64.75190007, -32.1972835], [-64.75170245, -32.1975864], [-64.75164038, -32.19762542], [-64.75152957, -32.19761932], [-64.75142426, -32.19758771]]]}}, {"type": "Feature", "properties": {"FID": 12, "Tipo": "Calle", "Barrio": "Nogales Alto", "Nombre": "Sen de Campo", "LongTramo": 1034, "CalleNum": 30}, "geometry": {"type": "MultiLineString", "coordinates": [[[-64.75398006, -32.19405467], [-64.75366935, -32.19407552], [-64.75350325, -32.19407146], [-64.75333823, -32.19404577], [-64.75320953, -32.19404247], [-64.75311427, -32.19406668], [-64.75300464, -32.19412162], [-64.7527666, -32.19426609], [-64.75231488, -32.1945776], [-64.75224089, -32.19461933], [-64.75216801, -32.19464069], [-64.75206812, -32.19465733], [-64.75196984, -32.19468032], [-64.75188235, -32.19471969], [-64.7515989, -32.19491439], [-64.75150782, -32.19500087], [-64.7514568, -32.19507025], [-64.75138028, -32.19513618], [-64.75130953, -32.19519058], [-64.75121838, -32.19527324], [-64.751154, -32.1953479], [-64.75109932, -32.19546058], [-64.7510677, -32.19552779], [-64.75083188, -32.19586683], [-64.75076441, -32.19593644], [-64.75070273, -32.1959958], [-64.75062869, -32.19603498], [-64.75054548, -32.19606411], [-64.75041669, -32.19605572], [-64.75032634, -32.19602391], [-64.75019951, -32.19596207], [-64.75009092, -32.19591524], [-64.74999394, -32.19590652], [-64.74991224, -32.19590566], [-64.74985156, -32.19591347], [-64.74976784, -32.1959464], [-64.74971579, -32.19598321], [-64.74957187, -32.19616555], [-64.74953527, -32.19620525], [-64.7494204, -32.19630541], [-64.74935032, -32.1967255], [-64.74933979, -32.19702721], [-64.74899698, -32.19755766], [-64.74896198, -32.19772637], [-64.74893708, -32.19795229], [-64.74881814, -32.19819862], [-64.74854978, -32.1985082], [-64.74846789, -32.19863454], [-64.74832467, -32.19884585], [-64.74823533, -32.19899428], [-64.74809437, -32.19914725], [-64.74799749, -32.19925373], [-64.7479453, -32.19934621], [-64.74787034, -32.19942371], [-64.74773175, -32.19946577], [-64.74729912, -32.19953293], [-64.74700008, -32.19953132], [-64.7468705, -32.19945665]]]}}, {"type": "Feature", "properties": {"FID": 13, "Tipo": "Calle", "Barrio": "Nogales Alto", "Nombre": "Conexion", "LongTramo": 619, "CalleNum": 32}, "geometry": {"type": "MultiLineString", "coordinates": [[[-64.7499409, -32.19589188], [-64.74997854, -32.19598293], [-64.75001652, -32.19609179], [-64.75004125, -32.19615166], [-64.75007464, -32.19624599], [-64.75012691, -32.19635576], [-64.75025024, -32.19657187], [-64.75033183, -32.19667899], [-64.75046893, -32.19680171], [-64.75059214, -32.19688886], [-64.75072776, -32.19694569], [-64.75084356, -32.19691977], [-64.75094115, -32.19685489], [-64.75104161, -32.19681197], [-64.75114569, -32.19681493], [-64.75119975, -32.19688972], [-64.75118061, -32.1969719], [-64.75121745, -32.19714979], [-64.75135048, -32.19740915], [-64.75142426, -32.19758771], [-64.7513748, -32.19764732], [-64.75136711, -32.19790476], [-64.75138633, -32.19798515], [-64.7514005, -32.19803068], [-64.75144287, -32.19809993], [-64.75159805, -32.19821661], [-64.75176232, -32.19833122], [-64.75185839, -32.19839074], [-64.75195228, -32.19848185], [-64.75196915, -32.19857141], [-64.75193926, -32.19865122], [-64.75187068, -32.19872448], [-64.75181287, -32.19876257], [-64.75166478, -32.19884767], [-64.75137042, -32.19899322], [-64.75132948, -32.19901237], [-64.75125796, -32.19907372], [-64.75123548, -32.19913245], [-64.75113302, -32.19940605], [-64.75113444, -32.1994798], [-64.75116576, -32.19955313], [-64.75124783, -32.19962068], [-64.75132548, -32.19965572], [-64.75149155, -32.19966006], [-64.75152795, -32.19971215], [-64.75157815, -32.19975824], [-64.75162591, -32.19984876]]]}}, {"type": "Feature", "properties": {"FID": 14, "Tipo": "Entrada", "Barrio": "Castaños", "Nombre": "Cosecha", "LongTramo": 109, "CalleNum": null}, "geometry": {"type": "MultiLineString", "coordinates": [[[-64.75246495, -32.19167775], [-64.75252635, -32.19168183], [-64.75264517, -32.19163821], [-64.75278735, -32.19156502], [-64.75291924, -32.19150087], [-64.75308885, -32.191454], [-64.75326316, -32.19141852], [-64.75339904, -32.19140646], [-64.75355136, -32.19139417]]]}}, {"type": "Feature", "properties": {"FID": 15, "Tipo": "Entrada", "Barrio": "Nogales Altos", "Nombre": "Bavali", "LongTramo": 49, "CalleNum": null}, "geometry": {"type": "MultiLineString", "coordinates": [[[-64.7538282, -32.19581592], [-64.75379432, -32.19576551], [-64.75378261, -32.19570081], [-64.75377953, -32.19561818], [-64.75375611, -32.19548878], [-64.75372131, -32.19539005]]]}}, {"type": "Feature", "properties": {"FID": 16, "Tipo": "Calle", "Barrio": "Nogales Bajo", "Nombre": "Arroyo", "LongTramo": 187, "CalleNum": 24}, "geometry": {"type": "MultiLineString", "coordinates": [[[-64.74551332, -32.19333687], [-64.74532487, -32.19315204], [-64.74526958, -32.19307649], [-64.74527323, -32.19295434], [-64.74524639, -32.19280209], [-64.74519466, -32.1925993], [-64.74518489, -32.19240103], [-64.74516924, -32.19220792], [-64.74528972, -32.19208553], [-64.74544935, -32.19197108], [-64.74554291, -32.19174166]]]}}, {"type": "Feature", "properties": {"FID": 17, "Tipo": "Calle", "Barrio": "Nogales Bajo", "Nombre": "Mangalam", "LongTramo": 341, "CalleNum": 23}, "geometry": {"type": "MultiLineString", "coordinates": [[[-64.74162487, -32.19332897], [-64.74156173, -32.19307674], [-64.74155989, -32.19298011], [-64.74159481, -32.19292875], [-64.74167777, -32.19288691], [-64.74176151, -32.19288576], [-64.74183445, -32.1929458], [-64.74191915, -32.19299551], [-64.74200936, -32.1930197], [-64.74236196, -32.19299958], [-64.74245611, -32.19291688], [-64.74249006, -32.19281467], [-64.74273797, -32.19263828], [-64.74277192, -32.19253606], [-64.74270959, -32.19240465], [-64.74266058, -32.19234427], [-64.74270089, -32.19226232], [-64.74279022, -32.19224074], [-64.7429222, -32.19225927], [-64.74304221, -32.19227796], [-64.74313791, -32.19227664], [-64.74320813, -32.19219428], [-64.74315333, -32.19214416], [-64.74306862, -32.19209445], [-64.74304864, -32.19198789], [-64.74311298, -32.19191069], [-64.74327156, -32.19175588]]]}}, {"type": "Feature", "properties": {"FID": 18, "Tipo": "Calle", "Barrio": "Acacias", "Nombre": "Encantada", "LongTramo": 397, "CalleNum": 20}, "geometry": {"type": "MultiLineString", "coordinates": [[[-64.73576313, -32.19301108], [-64.73550618, -32.19302774], [-64.73547917, -32.19286531], [-64.7355604, -32.19273192], [-64.73567655, -32.19254718], [-64.73584151, -32.19241264], [-64.73605509, -32.19231813], [-64.73626907, -32.19224397], [-64.73644928, -32.1922822], [-64.73661868, -32.19238162], [-64.73665882, -32.19260492], [-64.73673291, -32.192726], [-64.73685293, -32.1927447], [-64.73692277, -32.19264199], [-64.73693086, -32.19243838], [-64.73690385, -32.19227595], [-64.73688821, -32.19208284], [-64.73688493, -32.19190992], [-64.73696557, -32.19174601], [-64.73709387, -32.19157127], [-64.73721002, -32.19138653]]]}}, {"type": "Feature", "properties": {"FID": 19, "Tipo": "Calle", "Barrio": "Acacias", "Nombre": "Pineal", "LongTramo": 698, "CalleNum": 21}, "geometry": {"type": "MultiLineString", "coordinates": [[[-64.73550618, -32.19302774], [-64.73530475, -32.19313225], [-64.73518648, -32.1932051], [-64.73501997, -32.19325826], [-64.73483918, -32.19318952], [-64.73473942, -32.19297721], [-64.73478264, -32.19273242], [-64.73486175, -32.19248714], [-64.73537785, -32.19130994], [-64.73537264, -32.19103529], [-64.73544229, -32.19092241], [-64.73562982, -32.19071634], [-64.73569812, -32.19053225], [-64.7357176, -32.19029796], [-64.73578648, -32.19014439], [-64.73579458, -32.18994078], [-64.73587755, -32.18971838], [-64.73587104, -32.18959988], [-64.7358873, -32.1895028], [-64.73593747, -32.18945413], [-64.73602937, -32.18947278], [-64.73610293, -32.18942198], [-64.7361317, -32.18936727], [-64.73613218, -32.18928036], [-64.73616074, -32.18921479], [-64.73624718, -32.18917015], [-64.73638152, -32.18918098], [-64.73650216, -32.18914311], [-64.73665641, -32.18908124], [-64.73675556, -32.18903281], [-64.73688852, -32.18897123], [-64.73697833, -32.18887947], [-64.73698498, -32.18878161], [-64.73692126, -32.18867748], [-64.73682815, -32.18859547], [-64.73671239, -32.18855361], [-64.73670459, -32.18847948]]]}}, {"type": "Feature", "properties": {"FID": 20, "Tipo": "Calle", "Barrio": "Aldea", "Nombre": "Alegría", "LongTramo": 1315, "CalleNum": 6}, "geometry": {"type": "MultiLineString", "coordinates": [[[-64.73536742, -32.20109145], [-64.73517353, -32.20134774], [-64.73493696, -32.20149343], [-64.73456782, -32.20159007], [-64.73433809, -32.20173436], [-64.73413405, -32.20206407], [-64.73402059, -32.20239122], [-64.7339187, -32.20269787], [-64.73379096, -32.20290312], [-64.73367383, -32.203037], [-64.73350319, -32.20311359], [-64.73339609, -32.20316485], [-64.7332134, -32.20338462], [-64.73306981, -32.20344815], [-64.73294523, -32.20350417], [-64.73286547, -32.20356501], [-64.73280139, -32.20366728], [-64.73268297, -32.20371055], [-64.73251334, -32.20374908], [-64.73225719, -32.20394089], [-64.73214951, -32.20410169], [-64.7320923, -32.20422921], [-64.73195649, -32.20436686], [-64.73177086, -32.20479669], [-64.73165228, -32.2052256], [-64.73133582, -32.20560653], [-64.73128877, -32.20593307], [-64.73134646, -32.20605539], [-64.73145201, -32.20600687], [-64.73170577, -32.20580062], [-64.73191444, -32.20579957], [-64.73200519, -32.20631795], [-64.73194986, -32.20660115], [-64.7319533, -32.20678215], [-64.73195652, -32.2069523], [-64.73196263, -32.20704998], [-64.73203934, -32.20705255], [-64.73208419, -32.20694693], [-64.73210699, -32.20680177], [-64.73213007, -32.2066711], [-64.73218776, -32.20656892], [-64.73230533, -32.20653653], [-64.7331636, -32.20676556], [-64.73329131, -32.20687426], [-64.7334722, -32.20709266], [-64.73361989, -32.20713228], [-64.73381719, -32.20698111], [-64.7339451, -32.20698841], [-64.73423743, -32.20769231], [-64.7341862, -32.20791028], [-64.73398419, -32.20815023]]]}}, {"type": "Feature", "properties": {"FID": 22, "Tipo": "Entrada", "Barrio": "Aldea", "Nombre": "Jorge E", "LongTramo": 207, "CalleNum": 10}, "geometry": {"type": "MultiLineString", "coordinates": [[[-64.73128561, -32.20593492], [-64.73124825, -32.20598613], [-64.73116716, -32.20603341], [-64.73104178, -32.20593464], [-64.73094233, -32.20585543], [-64.73080227, -32.20576863], [-64.73065331, -32.20566204], [-64.73055255, -32.20557018], [-64.73048518, -32.20549868], [-64.73045586, -32.2054683], [-64.73038883, -32.20547103], [-64.73030016, -32.20545504], [-64.73019689, -32.20539943], [-64.73016161, -32.20533563], [-64.73017176, -32.20525312], [-64.73018773, -32.20514064], [-64.73019182, -32.20507541], [-64.73019488, -32.205012], [-64.73019258, -32.20494685], [-64.73017172, -32.20491364], [-64.73008945, -32.20489847], [-64.73003018, -32.20491739], [-64.72999646, -32.20493596]]]}}, {"type": "Feature", "properties": {"FID": 24, "Tipo": "Entrada", "Barrio": "Aldea", "Nombre": null, "LongTramo": 126, "CalleNum": null}, "geometry": {"type": "MultiLineString", "coordinates": [[[-64.73669899, -32.20404244], [-64.73677793, -32.2040504], [-64.73690618, -32.20418805], [-64.73696051, -32.20424524], [-64.73708154, -32.20422729], [-64.73732702, -32.20414606], [-64.73734966, -32.2036569]]]}}, {"type": "Feature", "properties": {"FID": 25, "Tipo": "Calle", "Barrio": "Aldea", "Nombre": "Los Cuarzos", "LongTramo": 761, "CalleNum": 5}, "geometry": {"type": "MultiLineString", "coordinates": [[[-64.73666191, -32.20309966], [-64.73689979, -32.20306742], [-64.73718794, -32.20299104], [-64.73740906, -32.20297352], [-64.73768183, -32.20298425], [-64.73807409, -32.20300783], [-64.73833204, -32.20313464], [-64.73847193, -32.20321238], [-64.73866981, -32.20331648], [-64.73903436, -32.20322637], [-64.73921896, -32.20330349], [-64.73948597, -32.2035714], [-64.73950352, -32.20359832], [-64.73994985, -32.2034419], [-64.74022927, -32.20324252], [-64.74037644, -32.20325497], [-64.74043564, -32.20379189], [-64.7408481, -32.20431669], [-64.74124135, -32.20428049], [-64.74133336, -32.20408007], [-64.741498, -32.20400357], [-64.741543, -32.20379474], [-64.74171354, -32.20369281], [-64.74167232, -32.20354129], [-64.74272569, -32.20350505]]]}}, {"type": "Feature", "properties": {"FID": 26, "Tipo": "Calle", "Barrio": "Aldea", "Nombre": "y Escuche", "LongTramo": 303, "CalleNum": 3}, "geometry": {"type": "MultiLineString", "coordinates": [[[-64.73761634, -32.20726705], [-64.7376829, -32.20718376], [-64.7376949, -32.20708673], [-64.7377888, -32.20648163], [-64.73778574, -32.20637666], [-64.73769898, -32.20629366], [-64.73753615, -32.20624159], [-64.73745143, -32.20609791], [-64.73747125, -32.20607591], [-64.73751877, -32.20605534], [-64.73797714, -32.20597119], [-64.73828634, -32.20588184], [-64.73833161, -32.20585497], [-64.73842026, -32.20586914], [-64.7385047, -32.20594221], [-64.73852173, -32.20605422], [-64.73860436, -32.20614361], [-64.73862649, -32.20618767], [-64.73861015, -32.20633636]]]}}, {"type": "Feature", "properties": {"FID": 27, "Tipo": "Calle", "Barrio": "Aldea", "Nombre": "Casco Historico", "LongTramo": 205, "CalleNum": 2}, "geometry": {"type": "MultiLineString", "coordinates": [[[-64.73732236, -32.2084932], [-64.73712834, -32.20836913], [-64.73671297, -32.20802722], [-64.73634075, -32.20816269], [-64.73615827, -32.20842792], [-64.7362115, -32.208626], [-64.73627749, -32.20878567], [-64.73632021, -32.2089036]]]}}, {"type": "Feature", "properties": {"FID": 28, "Tipo": "Calle", "Barrio": "Aldea", "Nombre": "Escondida", "LongTramo": 77, "CalleNum": 4}, "geometry": {"type": "MultiLineString", "coordinates": [[[-64.73644798, -32.20596142], [-64.73633103, -32.20597027], [-64.73623231, -32.20592999], [-64.73613901, -32.20595118], [-64.73581058, -32.20626167]]]}}, {"type": "Feature", "properties": {"FID": 29, "Tipo": "Calle", "Barrio": "Aldea", "Nombre": "Paraiso", "LongTramo": 136, "CalleNum": 7}, "geometry": {"type": "MultiLineString", "coordinates": [[[-64.73456782, -32.20159007], [-64.73449161, -32.20156244], [-64.73437866, -32.20150153], [-64.73430071, -32.2014338], [-64.73403131, -32.20137594], [-64.7337396, -32.20126406], [-64.73378506, -32.20119102], [-64.73363391, -32.20085633]]]}}, {"type": "Feature", "properties": {"FID": 30, "Tipo": "Calle", "Barrio": "Aldea", "Nombre": "Bajada Club", "LongTramo": 1192, "CalleNum": 8}, "geometry": {"type": "MultiLineString", "coordinates": [[[-64.73280139, -32.20366728], [-64.73257228, -32.20371297], [-64.73236372, -32.20371945], [-64.73213778, -32.20370806], [-64.73197146, -32.20369586], [-64.73189757, -32.2036172], [-64.7318618, -32.20352762], [-64.73171882, -32.20339922], [-64.73180027, -32.20320257], [-64.73197031, -32.20296125], [-64.73232752, -32.2024838], [-64.73237486, -32.20239761], [-64.73246036, -32.20230229], [-64.73257793, -32.20221377], [-64.73269175, -32.20215246], [-64.73275088, -32.20212631], [-64.73279792, -32.20213652], [-64.73288768, -32.2021534], [-64.73295384, -32.20216155], [-64.73300284, -32.20216268], [-64.73308727, -32.20212351], [-64.73312861, -32.20205776], [-64.73316728, -32.20196308], [-64.73319863, -32.20181962], [-64.7332033, -32.20172903], [-64.73318932, -32.20166585], [-64.73314517, -32.20158317], [-64.73310606, -32.20154207], [-64.73302458, -32.20151241], [-64.73294125, -32.20149725], [-64.73282213, -32.20150432], [-64.73268991, -32.20149346], [-64.73257835, -32.20144972], [-64.73251095, -32.20137641], [-64.73250522, -32.20129864], [-64.73248674, -32.20122285], [-64.7325002, -32.20114662], [-64.73250086, -32.20106876], [-64.73242793, -32.20081629], [-64.73243748, -32.20075822], [-64.73245104, -32.20068742], [-64.73245396, -32.20061677], [-64.73241705, -32.20057926], [-64.73236778, -32.20056364], [-64.73231501, -32.2005879], [-64.73227322, -32.20063011], [-64.73219782, -32.20069632], [-64.73212695, -32.20077696], [-64.73210267, -32.20084428], [-64.73205659, -32.20088474], [-64.73198222, -32.200893], [-64.73195376, -32.20085175], [-64.73182892, -32.20055654], [-64.73183153, -32.20046959], [-64.73185299, -32.2003661], [-64.73189794, -32.20026591], [-64.73197701, -32.20016886], [-64.73203738, -32.20009562], [-64.73205973, -32.20003918], [-64.73205661, -32.19998672], [-64.73201132, -32.19995656], [-64.73195134, -32.19993747], [-64.73184833, -32.19989543], [-64.73174708, -32.19983344], [-64.73168208, -32.19977459], [-64.73167841, -32.19969316], [-64.73170475, -32.19962219], [-64.73174574, -32.19953835], [-64.7318184, -32.19943958], [-64.73185294, -32.1993522], [-64.73187736, -32.19929212], [-64.73192539, -32.19913033], [-64.73196399, -32.19903203], [-64.73203915, -32.19895314], [-64.73211239, -32.19888515], [-64.73217515, -32.19882635], [-64.73223754, -32.19874765], [-64.73225358, -32.19869492], [-64.73224623, -32.19864433], [-64.73218827, -32.19861977], [-64.73203109, -32.19864003], [-64.73185292, -32.19867687], [-64.73171428, -32.19866429], [-64.73156056, -32.19864286], [-64.73096678, -32.19854598], [-64.73086031, -32.19854563], [-64.73073897, -32.19854729], [-64.73062281, -32.19848551], [-64.7305149, -32.19840913], [-64.73037657, -32.19830058], [-64.73025644, -32.19825334], [-64.73017417, -32.19818205], [-64.73009624, -32.19811431], [-64.72979478, -32.19804964], [-64.72957926, -32.19802543], [-64.72948292, -32.19799778], [-64.72942212, -32.19793524]]]}}, {"type": "Feature", "properties": {"FID": 31, "Tipo": "Calle", "Barrio": "Arroyo del Sauce", "Nombre": "Los Zorritos", "LongTramo": 2001, "CalleNum": 42}, "geometry": {"type": "MultiLineString", "coordinates": [[[-64.74628084, -32.17781528], [-64.74654026, -32.18025229], [-64.7468355, -32.18144317], [-64.74676209, -32.18183525], [-64.74633914, -32.18220682], [-64.74584628, -32.1829306], [-64.74589765, -32.18472956], [-64.74598452, -32.18481888], [-64.74709233, -32.1848579], [-64.74724157, -32.18464581], [-64.74759679, -32.18451779], [-64.7478621, -32.18473521], [-64.74794883, -32.18468622], [-64.74795212, -32.18372711], [-64.74860406, -32.18263902], [-64.74916758, -32.18249363], [-64.74934425, -32.18260343], [-64.74957059, -32.18286102], [-64.7497074, -32.1831126], [-64.74973965, -32.1834634], [-64.74989709, -32.1834576], [-64.75004462, -32.18337951], [-64.75025538, -32.18326796], [-64.75037996, -32.18310329], [-64.75050794, -32.183116], [-64.75059159, -32.18325969], [-64.75058381, -32.18352051], [-64.7506531, -32.18358111], [-64.75098357, -32.18371776], [-64.75128162, -32.18371725], [-64.75156087, -32.18384736], [-64.75193267, -32.18391825], [-64.75206972, -32.18395981], [-64.75219659, -32.1839146], [-64.75217316, -32.18380267], [-64.75212055, -32.18372373], [-64.75216242, -32.18368694], [-64.75226445, -32.18367829], [-64.75232941, -32.18373532], [-64.75258324, -32.18409391], [-64.75260066, -32.18433628], [-64.75263589, -32.18439735], [-64.75273283, -32.18434531], [-64.75283312, -32.18424615], [-64.75296899, -32.18422616], [-64.75308887, -32.18426071], [-64.75320332, -32.18423378], [-64.75330368, -32.18413824], [-64.75341214, -32.18402086], [-64.75347453, -32.18394396], [-64.75355898, -32.18391313], [-64.75369595, -32.18394451]]]}}, {"type": "Feature", "properties": {"FID": 32, "Tipo": "Calle", "Barrio": "7 Lomas", "Nombre": "Condor", "LongTramo": 603, "CalleNum": 41}, "geometry": {"type": "MultiLineString", "coordinates": [[[-64.753686, -32.186816], [-64.75358887, -32.18668417], [-64.75350126, -32.18667024], [-64.75345893, -32.1866835], [-64.75343409, -32.18672005], [-64.75338506, -32.18684089], [-64.75335546, -32.18687953], [-64.75330299, -32.18689842], [-64.75319596, -32.1868263], [-64.75311509, -32.18673896], [-64.75276109, -32.18626408], [-64.75270485, -32.18621779], [-64.75263245, -32.18621698], [-64.75255617, -32.18623614], [-64.75253163, -32.18628899], [-64.75254174, -32.18637213], [-64.75256266, -32.18657462], [-64.75254949, -32.18666533], [-64.75251376, -32.18668936], [-64.75243978, -32.18671754], [-64.75192023, -32.18671388], [-64.7517717, -32.18678726], [-64.75161991, -32.18684289], [-64.75146599, -32.18678767], [-64.75135194, -32.18670132], [-64.75128203, -32.18657229], [-64.75120733, -32.18642804], [-64.75113227, -32.18626468], [-64.75107665, -32.18617752], [-64.75098205, -32.18616736], [-64.75089709, -32.18619147], [-64.75066461, -32.18625969], [-64.75054738, -32.18624219], [-64.7504698, -32.18618209], [-64.75041861, -32.18609104], [-64.75038031, -32.18596923], [-64.7503468, -32.18586264], [-64.75028957, -32.18569138], [-64.75026932, -32.18557314], [-64.75028828, -32.18538936], [-64.75029515, -32.18527839], [-64.75027984, -32.18518302], [-64.75036136, -32.18497926]]]}}, {"type": "Feature", "properties": {"FID": 33, "Tipo": "Entrada", "Barrio": "Aldea", "Nombre": null, "LongTramo": 89, "CalleNum": null}, "geometry": {"type": "MultiLineString", "coordinates": [[[-64.73752086, -32.2060535], [-64.73752021, -32.20601911], [-64.73757896, -32.20597304], [-64.73767191, -32.20593374], [-64.73773917, -32.20588755], [-64.73780695, -32.20586852], [-64.73789743, -32.20581115], [-64.73797829, -32.20569597], [-64.73804616, -32.20545786]]]}}, {"type": "Feature", "properties": {"FID": 34, "Tipo": "Entrada", "Barrio": "Aldea", "Nombre": "Entrada NatiTevelez", "LongTramo": 145, "CalleNum": null}, "geometry": {"type": "MultiLineString", "coordinates": [[[-64.73833585, -32.205854], [-64.73836935, -32.20582367], [-64.73843419, -32.20581825], [-64.7384909, -32.20583286], [-64.7385688, -32.20584175], [-64.73862461, -32.20580929], [-64.73867517, -32.20572441], [-64.73870239, -32.20564437], [-64.73874749, -32.20555232], [-64.73880368, -32.20548365], [-64.73887718, -32.20542923], [-64.73895018, -32.20540469], [-64.73946211, -32.2051143]]]}}, {"type": "Feature", "properties": {"FID": 35, "Tipo": "Entrada", "Barrio": "Aldea", "Nombre": "Cielo", "LongTramo": 178, "CalleNum": null}, "geometry": {"type": "MultiLineString", "coordinates": [[[-64.73723498, -32.20871348], [-64.73729481, -32.2086683], [-64.73762665, -32.20842475], [-64.73774947, -32.2082764], [-64.73784994, -32.2081845], [-64.73799645, -32.20793806], [-64.73808232, -32.20786265], [-64.73816837, -32.20779629], [-64.73820459, -32.20768535], [-64.73823906, -32.20759435], [-64.73834063, -32.20744811]]]}}, {"type": "Feature", "properties": {"FID": 36, "Tipo": "Entrada", "Barrio": "Aldea", "Nombre": "NatiyDamo", "LongTramo": 40, "CalleNum": null}, "geometry": {"type": "MultiLineString", "coordinates": [[[-64.7372525, -32.20845886], [-64.7371979, -32.20844331], [-64.73714244, -32.20843864], [-64.73710706, -32.20848168], [-64.73704769, -32.20855129], [-64.73692457, -32.20862812]]]}}, {"type": "Feature", "properties": {"FID": 37, "Tipo": "Entrada", "Barrio": "Aldea", "Nombre": "MaruyEze", "LongTramo": 85, "CalleNum": null}, "geometry": {"type": "MultiLineString", "coordinates": [[[-64.73617783, -32.20283835], [-64.73612231, -32.20294231], [-64.73595444, -32.20307317], [-64.73580896, -32.20326165], [-64.73567231, -32.2034663]]]}}, {"type": "Feature", "properties": {"FID": 38, "Tipo": "Entrada", "Barrio": "Aldea", "Nombre": "Bata", "LongTramo": 115, "CalleNum": null}, "geometry": {"type": "MultiLineString", "coordinates": [[[-64.7357725, -32.20055722], [-64.73590327, -32.2006034], [-64.73624726, -32.20072089], [-64.73631497, -32.20075436], [-64.73640236, -32.20075859], [-64.73645702, -32.20072163], [-64.73651147, -32.20067381], [-64.73658545, -32.2005886], [-64.73661928, -32.20052024], [-64.73663152, -32.20043588], [-64.73668048, -32.20037908]]]}}, {"type": "Feature", "properties": {"FID": 39, "Tipo": "Calle", "Barrio": "El Campito", "Nombre": "Bajada Club", "LongTramo": 186, "CalleNum": null}, "geometry": {"type": "MultiLineString", "coordinates": [[[-64.72867802, -32.19646183], [-64.72865029, -32.19652996], [-64.72865487, -32.19660323], [-64.72871616, -32.19669201], [-64.72876955, -32.19681258], [-64.72881617, -32.19691334], [-64.72884336, -32.19699987], [-64.72887861, -32.19706276], [-64.72893959, -32.19713434], [-64.72902875, -32.1972327], [-64.729032, -32.19734853], [-64.72900822, -32.1974421], [-64.72905356, -32.1975311], [-64.72911318, -32.19758732], [-64.7291816, -32.19765881], [-64.72925816, -32.19776639], [-64.72932326, -32.19783068], [-64.72942212, -32.19793524]]]}}, {"type": "Feature", "properties": {"FID": 40, "Tipo": "Entrada", "Barrio": "Aldea", "Nombre": null, "LongTramo": 55, "CalleNum": null}, "geometry": {"type": "MultiLineString", "coordinates": [[[-64.73672193, -32.20498972], [-64.73661179, -32.20499123], [-64.73644933, -32.20496097], [-64.73636754, -32.20491621], [-64.73631391, -32.20481563], [-64.73630597, -32.20475265]]]}}, {"type": "Feature", "properties": {"FID": 41, "Tipo": "Entrada", "Barrio": "Aldea", "Nombre": "Magda", "LongTramo": 136, "CalleNum": null}, "geometry": {"type": "MultiLineString", "coordinates": [[[-64.73860571, -32.20331598], [-64.73871318, -32.20352861], [-64.73886525, -32.20372151], [-64.73897685, -32.20391496], [-64.73902457, -32.20405959], [-64.73901219, -32.20435415], [-64.73897811, -32.20445403]]]}}, {"type": "Feature", "properties": {"FID": 42, "Tipo": "Calle", "Barrio": "Aldea", "Nombre": "Vicente", "LongTramo": 105, "CalleNum": 9}, "geometry": {"type": "MultiLineString", "coordinates": [[[-64.73171882, -32.20339922], [-64.73154128, -32.20330972], [-64.73136131, -32.20330454], [-64.73124287, -32.20340361], [-64.73118083, -32.20350964], [-64.73107751, -32.20351488], [-64.73089696, -32.20347912], [-64.73076615, -32.20345797]]]}}, {"type": "Feature", "properties": {"FID": 43, "Tipo": "Calle", "Barrio": "Nogales Alto", "Nombre": "Horizonte", "LongTramo": 293, "CalleNum": 31}, "geometry": {"type": "MultiLineString", "coordinates": [[[-64.74953527, -32.19620525], [-64.74943615, -32.19618331], [-64.74934487, -32.19617832], [-64.74923465, -32.1961782], [-64.74917437, -32.19613676], [-64.74900311, -32.19606731], [-64.74888954, -32.19604577], [-64.74876657, -32.19598871], [-64.74866027, -32.19591361], [-64.74856143, -32.19584228], [-64.74842845, -32.19576989], [-64.74832643, -32.1957385], [-64.74819242, -32.19572597], [-64.74801614, -32.19572437], [-64.74789928, -32.1957484], [-64.7477512, -32.19577985], [-64.74759954, -32.19584312], [-64.74753026, -32.19594587], [-64.74746563, -32.19601783], [-64.74731013, -32.19628155], [-64.74725974, -32.19633337], [-64.74719923, -32.19637047], [-64.74695834, -32.1964463], [-64.74688171, -32.19647937], [-64.74677844, -32.19652124]]]}}, {"type": "Feature", "properties": {"FID": 44, "Tipo": "Entrada", "Barrio": "Nogales Alto", "Nombre": "Vivi", "LongTramo": 57, "CalleNum": null}, "geometry": {"type": "MultiLineString", "coordinates": [[[-64.74764152, -32.19944982], [-64.74762805, -32.19933339], [-64.7476707, -32.19921237], [-64.74767134, -32.19912825], [-64.74774133, -32.19902596], [-64.74779889, -32.19897929]]]}}, {"type": "Feature", "properties": {"FID": 45, "Tipo": "Entrada", "Barrio": "Nogales Alto", "Nombre": "PauSlata", "LongTramo": 114, "CalleNum": null}, "geometry": {"type": "MultiLineString", "coordinates": [[[-64.751165, -32.197128], [-64.75104978, -32.19721573], [-64.7509662, -32.19731247], [-64.75090089, -32.19742425], [-64.7508406, -32.19756272], [-64.75091855, -32.19764193], [-64.75103587, -32.19766325], [-64.75122668, -32.19785041], [-64.75126261, -32.19787324], [-64.75130371, -32.19788412], [-64.75134241, -32.1978746], [-64.7513588, -32.19785885]]]}}, {"type": "Feature", "properties": {"FID": 46, "Tipo": "Entrada", "Barrio": "Arroyo del Sauce", "Nombre": "Natasha", "LongTramo": 181, "CalleNum": null}, "geometry": {"type": "MultiLineString", "coordinates": [[[-64.74629419, -32.17775975], [-64.74641466, -32.17771221], [-64.74664887, -32.17773573], [-64.74686054, -32.17775575], [-64.7470896, -32.17774494], [-64.74733149, -32.17769954], [-64.74754699, -32.17768509], [-64.74772625, -32.17765585], [-64.74791493, -32.17764942], [-64.74802484, -32.17775496], [-64.74803109, -32.17784663]]]}}, {"type": "Feature", "properties": {"FID": 47, "Tipo": "Entrada", "Barrio": "7 Lomas", "Nombre": "Charly", "LongTramo": 49, "CalleNum": null}, "geometry": {"type": "MultiLineString", "coordinates": [[[-64.7533523, -32.18410625], [-64.75334116, -32.18422875], [-64.75333455, -32.1843531], [-64.75336836, -32.18447498], [-64.75339875, -32.18453573]]]}}, {"type": "Feature", "properties": {"FID": 48, "Tipo": "Calle", "Barrio": "Tres Rios", "Nombre": null, "LongTramo": 860, "CalleNum": null}, "geometry": {"type": "MultiLineString", "coordinates": [[[-64.75935613, -32.21659195], [-64.75932245, -32.21682755], [-64.75926094, -32.21690296], [-64.7591489, -32.21692363], [-64.75897281, -32.21688785], [-64.75872616, -32.21680717], [-64.75859035, -32.21676127], [-64.75839315, -32.21679651], [-64.7583023, -32.2168666], [-64.75824148, -32.21721154], [-64.75818737, -32.21743786], [-64.7581507, -32.21751866], [-64.75807765, -32.21757894], [-64.75793967, -32.2176535], [-64.7576941, -32.21786337], [-64.75701602, -32.21873495], [-64.75681262, -32.21891556], [-64.75657556, -32.21910046], [-64.75646197, -32.21915748], [-64.75637632, -32.2191472], [-64.75633217, -32.21907326], [-64.75637272, -32.21895991], [-64.75647706, -32.21877303], [-64.75653004, -32.21848746], [-64.75658934, -32.21841399], [-64.75660128, -32.21833354], [-64.75654343, -32.21824832], [-64.75621815, -32.21793837], [-64.75619789, -32.21782013], [-64.75617051, -32.21774118], [-64.75613231, -32.21768436], [-64.75599732, -32.2176805], [-64.75543422, -32.2178078], [-64.75508897, -32.21809648], [-64.75502484, -32.21815281], [-64.754888, -32.218278], [-64.7549417, -32.2184192], [-64.75502914, -32.21866937], [-64.75502597, -32.21873823], [-64.75494769, -32.21876034], [-64.7547863, -32.21878744]]]}}, {"type": "Feature", "properties": {"FID": 49, "Tipo": "Calle", "Barrio": "Tres Rios", "Nombre": null, "LongTramo": 993, "CalleNum": 50}, "geometry": {"type": "MultiLineString", "coordinates": [[[-64.75931744, -32.21341535], [-64.75917438, -32.21340109], [-64.75909278, -32.21342612], [-64.75903553, -32.21348905], [-64.75902786, -32.21361628], [-64.7590043, -32.21367682], [-64.75892064, -32.21371144], [-64.75876914, -32.21372597], [-64.75864826, -32.21375442], [-64.75858263, -32.2137907], [-64.75849945, -32.21385016], [-64.75843101, -32.21391611], [-64.75838848, -32.21398456], [-64.75835585, -32.21404141], [-64.7583173, -32.21408305], [-64.75823471, -32.21405648], [-64.75818386, -32.21398454], [-64.75811572, -32.21394917], [-64.75806573, -32.21398045], [-64.75801043, -32.21408636], [-64.75792862, -32.21456732], [-64.75789012, -32.21467013], [-64.75783095, -32.21475028], [-64.75768936, -32.21481247], [-64.75747156, -32.21488718], [-64.75722637, -32.21494125], [-64.75712766, -32.21495314], [-64.75702513, -32.21500044], [-64.7569065, -32.21508716], [-64.75678531, -32.21515766], [-64.7565823, -32.21524173], [-64.75645617, -32.21528936], [-64.75639307, -32.21528259], [-64.75636505, -32.2152285], [-64.75639719, -32.21514585], [-64.75643681, -32.21510133], [-64.75647776, -32.21500901], [-64.75642062, -32.21496105], [-64.75628688, -32.21496387], [-64.75619978, -32.21499471], [-64.75609749, -32.21499613], [-64.75604246, -32.2149405], [-64.75601875, -32.21481849], [-64.75602756, -32.2147505], [-64.75608146, -32.21468858], [-64.75615707, -32.21464452], [-64.75624257, -32.21458885], [-64.75626507, -32.21453119], [-64.75626725, -32.21446903], [-64.75622238, -32.21441612], [-64.75613563, -32.21440682], [-64.75603843, -32.21443875], [-64.75580275, -32.21457775], [-64.75559798, -32.21480426], [-64.75552031, -32.21485791], [-64.75546853, -32.21491311], [-64.75546008, -32.21500021], [-64.75560312, -32.21548091], [-64.75561935, -32.21574066], [-64.75564782, -32.21581769], [-64.75566722, -32.21589102], [-64.75567186, -32.21595691], [-64.75562053, -32.216036], [-64.75554015, -32.21612409], [-64.7554785, -32.21636773], [-64.75531018, -32.21679445], [-64.7552015, -32.21728247], [-64.75518112, -32.21762589], [-64.75524975, -32.21774537], [-64.7553217, -32.21780363], [-64.75539651, -32.21783509]]]}}, {"type": "Feature", "properties": {"FID": 50, "Tipo": "Entrada", "Barrio": "Arroyo del Sauce", "Nombre": "Adri", "LongTramo": 88, "CalleNum": null}, "geometry": {"type": "MultiLineString", "coordinates": [[[-64.75211523, -32.18365595], [-64.75198, -32.18355035], [-64.75185189, -32.1834336], [-64.75180938, -32.18332714], [-64.75186481, -32.18316961], [-64.75201926, -32.18301836]]]}}, {"type": "Feature", "properties": {"FID": 51, "Tipo": "Entrada", "Barrio": "Arroyo del Sauce", "Nombre": "Belu", "LongTramo": 117, "CalleNum": null}, "geometry": {"type": "MultiLineString", "coordinates": [[[-64.75310053, -32.18423605], [-64.75296254, -32.18414846], [-64.75290655, -32.18404218], [-64.75290414, -32.18391604], [-64.75290128, -32.18376698], [-64.75282636, -32.18361126], [-64.75280611, -32.18349302], [-64.75281696, -32.18335523], [-64.75289669, -32.18329295]]]}}, {"type": "Feature", "properties": {"FID": 52, "Tipo": "Entrada", "Barrio": "Arroyo del Sauce", "Nombre": "Ulises", "LongTramo": 28, "CalleNum": null}, "geometry": {"type": "MultiLineString", "coordinates": [[[-64.75060014, -32.183244], [-64.75065413, -32.18309988], [-64.75069892, -32.18300272]]]}}, {"type": "Feature", "properties": {"FID": 53, "Tipo": "Calle", "Barrio": "Tres Rios", "Nombre": null, "LongTramo": 670, "CalleNum": 52}, "geometry": {"type": "MultiLineString", "coordinates": [[[-64.75978787, -32.21060968], [-64.75969228, -32.21060815], [-64.75958672, -32.21055609], [-64.75949076, -32.21053544], [-64.75930931, -32.21051216], [-64.75919006, -32.21044978], [-64.75908315, -32.21038628], [-64.75898294, -32.21037811], [-64.7588858, -32.21041292], [-64.75884473, -32.21049856], [-64.75879322, -32.2106264], [-64.7587331, -32.21071517], [-64.75869099, -32.2107473], [-64.75862838, -32.21076537], [-64.75854283, -32.21075987], [-64.75846373, -32.21073899], [-64.75836787, -32.21072312], [-64.75828149, -32.21073292], [-64.75821473, -32.21076922], [-64.75813268, -32.21082866], [-64.75808256, -32.21091156], [-64.75808281, -32.21098324], [-64.75805036, -32.21110795], [-64.7580211, -32.21122306], [-64.75801692, -32.21141523], [-64.75800054, -32.21149862], [-64.75793562, -32.21157216], [-64.75785121, -32.21162591], [-64.75767685, -32.21167899], [-64.75759039, -32.21168497], [-64.75753366, -32.21171635], [-64.75749973, -32.21182291], [-64.7575057, -32.2119576], [-64.75749666, -32.21207243], [-64.75748907, -32.21214517], [-64.75748238, -32.21226474], [-64.75748878, -32.21236406], [-64.75749985, -32.21247191], [-64.75754584, -32.2125248], [-64.75760976, -32.21257457], [-64.75768226, -32.21260319], [-64.75776929, -32.21262683], [-64.7578499, -32.21266777], [-64.75788159, -32.2127371], [-64.7578643, -32.21283197], [-64.75784641, -32.2128953], [-64.75780566, -32.21299814], [-64.7577897, -32.2131035], [-64.75778376, -32.21332056], [-64.75776369, -32.21338774], [-64.75769538, -32.21351868], [-64.75765292, -32.21359096], [-64.75764129, -32.21368766], [-64.75765115, -32.21379075], [-64.75759144, -32.21395981], [-64.75758917, -32.21401719], [-64.75760367, -32.21406955], [-64.75778048, -32.21437678], [-64.75789939, -32.21459688]]]}}, {"type": "Feature", "properties": {"FID": 54, "Tipo": "Calle", "Barrio": "Tres Rios", "Nombre": null, "LongTramo": 273, "CalleNum": 52}, "geometry": {"type": "MultiLineString", "coordinates": [[[-64.7583023, -32.2168666], [-64.75827518, -32.21671357], [-64.75820752, -32.21658643], [-64.75820981, -32.21653], [-64.75824939, -32.21648357], [-64.75831768, -32.21640998], [-64.75837201, -32.21631173], [-64.75836086, -32.21625836], [-64.75832635, -32.21610113], [-64.75823638, -32.2159246], [-64.75820534, -32.21583041], [-64.75814707, -32.21578247], [-64.75805082, -32.21568823], [-64.757977, -32.21559176], [-64.75788982, -32.2153846], [-64.75787139, -32.21530362], [-64.75788389, -32.21525183], [-64.75792769, -32.2151327], [-64.75797933, -32.21501155], [-64.75806233, -32.21482592], [-64.75802649, -32.2147165], [-64.75795045, -32.21462102]]]}}, {"type": "Feature", "properties": {"FID": 55, "Tipo": "Entrada", "Barrio": "Espinillos", "Nombre": "Guille", "LongTramo": 60, "CalleNum": null}, "geometry": {"type": "MultiLineString", "coordinates": [[[-64.73881933, -32.19545856], [-64.73870271, -32.19547354], [-64.73858109, -32.19546183], [-64.73843717, -32.19545999], [-64.73828836, -32.19543718], [-64.73820635, -32.19538096]]]}}, {"type": "Feature", "properties": {"FID": 56, "Tipo": "Entrada", "Barrio": "Espinillos", "Nombre": "Martin", "LongTramo": 80, "CalleNum": null}, "geometry": {"type": "MultiLineString", "coordinates": [[[-64.73892381, -32.19622369], [-64.73880951, -32.19624247], [-64.73869216, -32.19621923], [-64.73862669, -32.19620484], [-64.73853041, -32.19622528], [-64.73841245, -32.19628807], [-64.73823624, -32.19636123], [-64.73812629, -32.1963723]]]}}, {"type": "Feature", "properties": {"FID": 57, "Tipo": "Entrada", "Barrio": "Espinillos", "Nombre": "MatiE", "LongTramo": 61, "CalleNum": null}, "geometry": {"type": "MultiLineString", "coordinates": [[[-64.7410968, -32.19441822], [-64.74121981, -32.19454472], [-64.74120137, -32.19463865], [-64.7411917, -32.19472098], [-64.74123092, -32.19477397], [-64.7412214, -32.19486395], [-64.74120984, -32.19496542], [-64.7412396, -32.19499369]]]}}, {"type": "Feature", "properties": {"FID": 58, "Tipo": "Acceso", "Barrio": "Nogales Alto", "Nombre": "Acceso Acopio Bavali", "LongTramo": 55, "CalleNum": null}, "geometry": {"type": "MultiLineString", "coordinates": [[[-64.75367189, -32.19412461], [-64.75367087, -32.19415425], [-64.75367379, -32.19418857], [-64.75367054, -32.19422799], [-64.75364994, -32.19426334], [-64.75361535, -32.19429246], [-64.75358459, -32.19433111], [-64.75356434, -32.19437136], [-64.75355636, -32.19441816], [-64.75355348, -32.19447885], [-64.75355266, -32.19453546], [-64.75355816, -32.19458865]]]}}, {"type": "Feature", "properties": {"FID": 59, "Tipo": "Entrada", "Barrio": "Nogales Alto", "Nombre": "Escuelita", "LongTramo": 83, "CalleNum": null}, "geometry": {"type": "MultiLineString", "coordinates": [[[-64.75168391, -32.19229593], [-64.75171471, -32.1923777], [-64.75176772, -32.19244579], [-64.75194926, -32.19265164], [-64.75203805, -32.19270967], [-64.75220476, -32.19272839], [-64.75230369, -32.19272893]]]}}, {"type": "Feature", "properties": {"FID": 60, "Tipo": "Calle", "Barrio": "Nogales Bajo", "Nombre": null, "LongTramo": null, "CalleNum": null}, "geometry": {"type": "MultiLineString", "coordinates": []}}, {"type": "Feature", "properties": {"FID": 61, "Tipo": "Calle", "Barrio": "Arroyo del Sauce", "Nombre": "Las Pirca", "LongTramo": 798, "CalleNum": null}, "geometry": {"type": "MultiLineString", "coordinates": [[[-64.75388593, -32.18874339], [-64.75363327, -32.18867693], [-64.75351777, -32.18828091], [-64.75348611, -32.18803665], [-64.75375227, -32.18784944], [-64.75387178, -32.1877221], [-64.75388525, -32.18748678], [-64.7538019, -32.18724324], [-64.75370075, -32.18712612], [-64.75370228, -32.18685465], [-64.75373863, -32.18664004], [-64.753742, -32.18646412], [-64.75380391, -32.18602149], [-64.75376953, -32.18578298], [-64.75369595, -32.18394451], [-64.75369227, -32.18390719], [-64.75370701, -32.18363294], [-64.75374384, -32.183111], [-64.75372202, -32.18286145], [-64.75361377, -32.18232341], [-64.75358735, -32.18205582], [-64.75370487, -32.18196729]]]}}, {"type": "Feature", "properties": {"FID": 63, "Tipo": "Calle", "Barrio": "Arroyo del Sauce", "Nombre": "Las Pirca", "LongTramo": 798, "CalleNum": null}, "geometry": {"type": "MultiLineString", "coordinates": [[[-64.75388593, -32.18874339], [-64.75363327, -32.18867693], [-64.75351777, -32.18828091], [-64.75348611, -32.18803665], [-64.75375227, -32.18784944], [-64.75387178, -32.1877221], [-64.75388525, -32.18748678], [-64.7538019, -32.18724324], [-64.75370075, -32.18712612], [-64.75370228, -32.18685465], [-64.75373863, -32.18664004], [-64.753742, -32.18646412], [-64.75380391, -32.18602149], [-64.75376953, -32.18578298], [-64.75369595, -32.18394451], [-64.75369227, -32.18390719], [-64.75370701, -32.18363294], [-64.75374384, -32.183111], [-64.75372202, -32.18286145], [-64.75361377, -32.18232341], [-64.75358735, -32.18205582], [-64.75370487, -32.18196729]]]}}, {"type": "Feature", "properties": {"FID": 65, "Tipo": "Calle", "Barrio": "Arroyo del Sauce", "Nombre": "Las Pirca", "LongTramo": 798, "CalleNum": null}, "geometry": {"type": "MultiLineString", "coordinates": [[[-64.75388593, -32.18874339], [-64.75363327, -32.18867693], [-64.75351777, -32.18828091], [-64.75348611, -32.18803665], [-64.75375227, -32.18784944], [-64.75387178, -32.1877221], [-64.75388525, -32.18748678], [-64.7538019, -32.18724324], [-64.75370075, -32.18712612], [-64.75370228, -32.18685465], [-64.75373863, -32.18664004], [-64.753742, -32.18646412], [-64.75380391, -32.18602149], [-64.75376953, -32.18578298], [-64.75369595, -32.18394451], [-64.75369227, -32.18390719], [-64.75370701, -32.18363294], [-64.75374384, -32.183111], [-64.75372202, -32.18286145], [-64.75361377, -32.18232341], [-64.75358735, -32.18205582], [-64.75370487, -32.18196729]]]}}, {"type": "Feature", "properties": {"FID": 67, "Tipo": "Calle", "Barrio": "Arroyo del Sauce", "Nombre": "Las Pirca", "LongTramo": 798, "CalleNum": null}, "geometry": {"type": "MultiLineString", "coordinates": [[[-64.75388593, -32.18874339], [-64.75363327, -32.18867693], [-64.75351777, -32.18828091], [-64.75348611, -32.18803665], [-64.75375227, -32.18784944], [-64.75387178, -32.1877221], [-64.75388525, -32.18748678], [-64.7538019, -32.18724324], [-64.75370075, -32.18712612], [-64.75370228, -32.18685465], [-64.75373863, -32.18664004], [-64.753742, -32.18646412], [-64.75380391, -32.18602149], [-64.75376953, -32.18578298], [-64.75369595, -32.18394451], [-64.75369227, -32.18390719], [-64.75370701, -32.18363294], [-64.75374384, -32.183111], [-64.75372202, -32.18286145], [-64.75361377, -32.18232341], [-64.75358735, -32.18205582], [-64.75370487, -32.18196729]]]}}, {"type": "Feature", "properties": {"FID": 69, "Tipo": "Calle", "Barrio": "Arroyo del Sauce", "Nombre": "Las Pirca", "LongTramo": 798, "CalleNum": null}, "geometry": {"type": "MultiLineString", "coordinates": [[[-64.75388593, -32.18874339], [-64.75363327, -32.18867693], [-64.75351777, -32.18828091], [-64.75348611, -32.18803665], [-64.75375227, -32.18784944], [-64.75387178, -32.1877221], [-64.75388525, -32.18748678], [-64.7538019, -32.18724324], [-64.75370075, -32.18712612], [-64.75370228, -32.18685465], [-64.75373863, -32.18664004], [-64.753742, -32.18646412], [-64.75380391, -32.18602149], [-64.75376953, -32.18578298], [-64.75369595, -32.18394451], [-64.75369227, -32.18390719], [-64.75370701, -32.18363294], [-64.75374384, -32.183111], [-64.75372202, -32.18286145], [-64.75361377, -32.18232341], [-64.75358735, -32.18205582], [-64.75370487, -32.18196729]]]}}, {"type": "Feature", "properties": {"FID": 71, "Tipo": "Calle", "Barrio": "Arroyo del Sauce", "Nombre": "Las Pirca", "LongTramo": 798, "CalleNum": null}, "geometry": {"type": "MultiLineString", "coordinates": [[[-64.75388593, -32.18874339], [-64.75363327, -32.18867693], [-64.75351777, -32.18828091], [-64.75348611, -32.18803665], [-64.75375227, -32.18784944], [-64.75387178, -32.1877221], [-64.75388525, -32.18748678], [-64.7538019, -32.18724324], [-64.75370075, -32.18712612], [-64.75370228, -32.18685465], [-64.75373863, -32.18664004], [-64.753742, -32.18646412], [-64.75380391, -32.18602149], [-64.75376953, -32.18578298], [-64.75369595, -32.18394451], [-64.75369227, -32.18390719], [-64.75370701, -32.18363294], [-64.75374384, -32.183111], [-64.75372202, -32.18286145], [-64.75361377, -32.18232341], [-64.75358735, -32.18205582], [-64.75370487, -32.18196729]]]}}, {"type": "Feature", "properties": {"FID": 73, "Tipo": "Calle", "Barrio": "Arroyo del Sauce", "Nombre": "Las Pirca", "LongTramo": 798, "CalleNum": null}, "geometry": {"type": "MultiLineString", "coordinates": [[[-64.75388593, -32.18874339], [-64.75363327, -32.18867693], [-64.75351777, -32.18828091], [-64.75348611, -32.18803665], [-64.75375227, -32.18784944], [-64.75387178, -32.1877221], [-64.75388525, -32.18748678], [-64.7538019, -32.18724324], [-64.75370075, -32.18712612], [-64.75370228, -32.18685465], [-64.75373863, -32.18664004], [-64.753742, -32.18646412], [-64.75380391, -32.18602149], [-64.75376953, -32.18578298], [-64.75369595, -32.18394451], [-64.75369227, -32.18390719], [-64.75370701, -32.18363294], [-64.75374384, -32.183111], [-64.75372202, -32.18286145], [-64.75361377, -32.18232341], [-64.75358735, -32.18205582], [-64.75370487, -32.18196729]]]}}, {"type": "Feature", "properties": {"FID": 75, "Tipo": "Calle", "Barrio": "Arroyo del Sauce", "Nombre": "Las Pirca", "LongTramo": 798, "CalleNum": null}, "geometry": {"type": "MultiLineString", "coordinates": [[[-64.75388593, -32.18874339], [-64.75363327, -32.18867693], [-64.75351777, -32.18828091], [-64.75348611, -32.18803665], [-64.75375227, -32.18784944], [-64.75387178, -32.1877221], [-64.75388525, -32.18748678], [-64.7538019, -32.18724324], [-64.75370075, -32.18712612], [-64.75370228, -32.18685465], [-64.75373863, -32.18664004], [-64.753742, -32.18646412], [-64.75380391, -32.18602149], [-64.75376953, -32.18578298], [-64.75369595, -32.18394451], [-64.75369227, -32.18390719], [-64.75370701, -32.18363294], [-64.75374384, -32.183111], [-64.75372202, -32.18286145], [-64.75361377, -32.18232341], [-64.75358735, -32.18205582], [-64.75370487, -32.18196729]]]}}, {"type": "Feature", "properties": {"FID": 77, "Tipo": "Calle", "Barrio": "Arroyo del Sauce", "Nombre": "La Pirca", "LongTramo": 798, "CalleNum": null}, "geometry": {"type": "MultiLineString", "coordinates": [[[-64.75388593, -32.18874339], [-64.75363327, -32.18867693], [-64.75351777, -32.18828091], [-64.75348611, -32.18803665], [-64.75375227, -32.18784944], [-64.75387178, -32.1877221], [-64.75388525, -32.18748678], [-64.7538019, -32.18724324], [-64.75370075, -32.18712612], [-64.75370228, -32.18685465], [-64.75373863, -32.18664004], [-64.753742, -32.18646412], [-64.75380391, -32.18602149], [-64.75376953, -32.18578298], [-64.75369595, -32.18394451], [-64.75369227, -32.18390719], [-64.75370701, -32.18363294], [-64.75374384, -32.183111], [-64.75372202, -32.18286145], [-64.75361377, -32.18232341], [-64.75358735, -32.18205582], [-64.75370487, -32.18196729]]]}}, {"type": "Feature", "properties": {"FID": 79, "Tipo": "Calle", "Barrio": "Arroyo del Sauce", "Nombre": "Las Pirca", "LongTramo": 798, "CalleNum": null}, "geometry": {"type": "MultiLineString", "coordinates": [[[-64.75388593, -32.18874339], [-64.75363327, -32.18867693], [-64.75351777, -32.18828091], [-64.75348611, -32.18803665], [-64.75375227, -32.18784944], [-64.75387178, -32.1877221], [-64.75388525, -32.18748678], [-64.7538019, -32.18724324], [-64.75370075, -32.18712612], [-64.75370228, -32.18685465], [-64.75373863, -32.18664004], [-64.753742, -32.18646412], [-64.75380391, -32.18602149], [-64.75376953, -32.18578298], [-64.75369595, -32.18394451], [-64.75369227, -32.18390719], [-64.75370701, -32.18363294], [-64.75374384, -32.183111], [-64.75372202, -32.18286145], [-64.75361377, -32.18232341], [-64.75358735, -32.18205582], [-64.75370487, -32.18196729]]]}}, {"type": "Feature", "properties": {"FID": 2, "Tipo": "Calle", "Barrio": "Arroyo del Sauce", "Nombre": "Las Pirca", "LongTramo": 798, "CalleNum": 40}, "geometry": {"type": "MultiLineString", "coordinates": [[[-64.75388593, -32.18874339], [-64.75363327, -32.18867693], [-64.75351777, -32.18828091], [-64.75348611, -32.18803665], [-64.75375227, -32.18784944], [-64.75387178, -32.1877221], [-64.75388525, -32.18748678], [-64.7538019, -32.18724324], [-64.75370075, -32.18712612], [-64.75370228, -32.18685465], [-64.75373863, -32.18664004], [-64.753742, -32.18646412], [-64.75380391, -32.18602149], [-64.75376953, -32.18578298], [-64.75369595, -32.18394451], [-64.75369227, -32.18390719], [-64.75370701, -32.18363294], [-64.75374384, -32.183111], [-64.75372202, -32.18286145], [-64.75361377, -32.18232341], [-64.75358735, -32.18205582], [-64.75370487, -32.18196729]]]}}, {"type": "Feature", "properties": {"FID": null, "Tipo": "Calle", "Barrio": "Nogales Alto", "Nombre": "Cisterna", "LongTramo": null, "CalleNum": null}, "geometry": {"type": "MultiLineString", "coordinates": [[[-64.75149155, -32.19966006], [-64.75155486, -32.19967153], [-64.75161081, -32.19968947], [-64.75167518, -32.19970452], [-64.75173738, -32.19970689], [-64.75186509, -32.1996965], [-64.75194333, -32.19969368], [-64.75199112, -32.19969609]]]}}, {"type": "Feature", "properties": {"FID": 10, "Tipo": "Calle", "Barrio": "Nogales Alto", "Nombre": "Unidad", "LongTramo": null, "CalleNum": 34}, "geometry": {"type": "MultiLineString", "coordinates": [[[-64.74674462, -32.20210341], [-64.74678719, -32.20209456], [-64.74682414, -32.20206445], [-64.74684232, -32.20202178], [-64.74683946, -32.20197053], [-64.74682974, -32.20192995], [-64.74682431, -32.20189549], [-64.74683417, -32.20187112], [-64.74683833, -32.20184565], [-64.74685502, -32.20177943], [-64.74688813, -32.20170252], [-64.74692276, -32.20162135], [-64.74695104, -32.20156728], [-64.74700067, -32.2015039], [-64.74705324, -32.20145267], [-64.74721651, -32.20142662], [-64.74728741, -32.20145711], [-64.74736342, -32.20150556], [-64.7474423, -32.2015528], [-64.74752135, -32.20157298], [-64.74759635, -32.20159479], [-64.74765881, -32.20161822], [-64.74768397, -32.20163072], [-64.74779054, -32.20171907], [-64.74789463, -32.20172916], [-64.74795334, -32.20170162], [-64.74797094, -32.20165012], [-64.74802306, -32.20161081], [-64.74809988, -32.20160091], [-64.74813579, -32.20160063], [-64.74850381, -32.20153623], [-64.7486, -32.20148622], [-64.74864477, -32.20140221], [-64.7486863, -32.20132183], [-64.74873909, -32.20125302], [-64.74881375, -32.20119291], [-64.74890492, -32.20115315], [-64.74904614, -32.20111248], [-64.74915149, -32.20110024], [-64.74925623, -32.20111194], [-64.7493859, -32.20110599], [-64.74952833, -32.20109515], [-64.74967072, -32.20110115], [-64.74977694, -32.20111061], [-64.74988837, -32.20112773], [-64.74999147, -32.20114472], [-64.75010396, -32.20115238], [-64.7502055, -32.20113337], [-64.75029714, -32.20108869], [-64.75039914, -32.20101854], [-64.75046056, -32.20093608], [-64.75050057, -32.20085116], [-64.75056071, -32.20077069], [-64.75063265, -32.20069195], [-64.75068272, -32.20061472], [-64.75069467, -32.20053813], [-64.75072007, -32.20046793], [-64.75080892, -32.20037723], [-64.75090044, -32.20034196], [-64.75102675, -32.20033816], [-64.75117459, -32.20029668], [-64.75129561, -32.20020258], [-64.75139013, -32.20012349], [-64.75146944, -32.20004397], [-64.75154965, -32.19995365], [-64.75160645, -32.19987829], [-64.75162591, -32.19984876], [-64.75168137, -32.19980868], [-64.75173746, -32.19977968], [-64.75180488, -32.1997489], [-64.75186759, -32.19972645], [-64.75193693, -32.19970797], [-64.75199112, -32.19969609], [-64.75202019, -32.19969262], [-64.75211775, -32.19967946], [-64.75221146, -32.19963542], [-64.75232831, -32.19957331], [-64.75245609, -32.19955129], [-64.75259834, -32.19957605], [-64.75273341, -32.19961115], [-64.75286124, -32.19964799], [-64.75298864, -32.19967996], [-64.75315727, -32.19970893], [-64.7532733, -32.19973703], [-64.75333909, -32.19977561], [-64.7533879, -32.19983286], [-64.75342777, -32.19987023], [-64.75347738, -32.19992111], [-64.75353977, -32.19995434], [-64.75360735, -32.19995678], [-64.75365441, -32.19991822]]]}}, {"type": "Feature", "properties": {"FID": null, "Tipo": "Entrada", "Barrio": "Nogales Alto", "Nombre": "Mario Paixao", "LongTramo": null, "CalleNum": null}, "geometry": {"type": "MultiLineString", "coordinates": [[[-64.75333909, -32.19977561], [-64.75324345, -32.19970402], [-64.75320095, -32.19965072], [-64.75317068, -32.19959662], [-64.75314686, -32.19953843], [-64.75312941, -32.19948037], [-64.75311317, -32.19942099]]]}}, {"type": "Feature", "properties": {"FID": null, "Tipo": "Entrada", "Barrio": "Nogales Alto", "Nombre": "Lucas y Carli", "LongTramo": null, "CalleNum": null}, "geometry": {"type": "MultiLineString", "coordinates": [[[-64.74943134, -32.20108103], [-64.7493993, -32.20105728], [-64.74935047, -32.20102267], [-64.74930718, -32.20099105], [-64.74926643, -32.20094198], [-64.74923329, -32.20086273], [-64.74920789, -32.20077474], [-64.74920786, -32.20071424], [-64.74923475, -32.20064377]]]}}, {"type": "Feature", "properties": {"FID": null, "Tipo": "Entrada", "Barrio": "Nogales Alto", "Nombre": "Maga", "LongTramo": null, "CalleNum": null}, "geometry": {"type": "MultiLineString", "coordinates": [[[-64.75093247, -32.20032827], [-64.75091831, -32.20030171], [-64.75091046, -32.20027274], [-64.75091981, -32.20023928]]]}}, {"type": "Feature", "properties": {"FID": 150, "Tipo": "Entrada", "Barrio": "Castaños", "Nombre": null, "LongTramo": null, "CalleNum": null}, "geometry": {"type": "MultiLineString", "coordinates": [[[-64.75378719, -32.19994833], [-64.75374606, -32.19992289], [-64.75368624, -32.19988287]]]}}, {"type": "Feature", "properties": {"FID": null, "Tipo": "Entrada", "Barrio": "Nogales Alto", "Nombre": "Ceci y gus", "LongTramo": null, "CalleNum": null}, "geometry": {"type": "MultiLineString", "coordinates": [[[-64.74899142, -32.19761904], [-64.74897008, -32.19764247], [-64.74895063, -32.19767399], [-64.74892144, -32.19771987], [-64.74888954, -32.19776508], [-64.74884454, -32.19779342], [-64.7488141, -32.19779529]]]}}, {"type": "Feature", "properties": {"FID": null, "Tipo": "Entrada", "Barrio": "Nogales Alto", "Nombre": "Juampi y Rochi", "LongTramo": null, "CalleNum": null}, "geometry": {"type": "MultiLineString", "coordinates": [[[-64.75046048, -32.20084046], [-64.75041048, -32.2007653], [-64.75034107, -32.2006203], [-64.75030252, -32.2004355]]]}}, {"type": "Feature", "properties": {"FID": null, "Tipo": "Entrada", "Barrio": "Nogales Alto", "Nombre": "Maga", "LongTramo": null, "CalleNum": null}, "geometry": {"type": "MultiLineString", "coordinates": [[[-64.7513574, -32.19967285], [-64.75124144, -32.19975032], [-64.75117054, -32.19982236], [-64.75108305, -32.19997145]]]}}, {"type": "Feature", "properties": {"FID": null, "Tipo": "Entrada", "Barrio": "Nogales Alto", "Nombre": "Gina", "LongTramo": null, "CalleNum": null}, "geometry": {"type": "MultiLineString", "coordinates": [[[-64.74829316, -32.20154456], [-64.74824919, -32.20148947], [-64.74820313, -32.20138448], [-64.74820354, -32.20122891], [-64.74833593, -32.20094669]]]}}, {"type": "Feature", "properties": {"FID": null, "Tipo": "Peatonal", "Barrio": "Nogales Alto", "Nombre": null, "LongTramo": null, "CalleNum": null}, "geometry": {"type": "MultiLineString", "coordinates": [[[-64.74867994, -32.19591038], [-64.74865414, -32.1956951], [-64.74864976, -32.195615], [-64.74862902, -32.19557642], [-64.74855388, -32.1955313], [-64.74853291, -32.19548057], [-64.74850876, -32.19541289], [-64.74841321, -32.19534619], [-64.74840062, -32.19528563], [-64.7483908, -32.19522018], [-64.74834993, -32.19517459], [-64.74827179, -32.19512222], [-64.74822753, -32.19500563], [-64.74821561, -32.19497778], [-64.74819922, -32.19493137], [-64.74818537, -32.19488363], [-64.74817623, -32.1948291], [-64.74816714, -32.19479027], [-64.74816202, -32.19474746], [-64.74816461, -32.19470724], [-64.74817605, -32.19467092], [-64.74818271, -32.19464031], [-64.74819161, -32.19459834], [-64.74820096, -32.19455011], [-64.74808389, -32.19443817], [-64.7480532, -32.19441224], [-64.74801967, -32.19437208], [-64.74797866, -32.19433804], [-64.74794066, -32.19430643], [-64.74790249, -32.19429774], [-64.74786664, -32.19425329], [-64.74783204, -32.19419911], [-64.74781121, -32.19415567], [-64.74778994, -32.19412621], [-64.74777916, -32.19408567], [-64.74775699, -32.1940465], [-64.74771913, -32.19400876], [-64.74766707, -32.19397547], [-64.74760679, -32.19396051], [-64.74754202, -32.19393469], [-64.74747696, -32.19389429], [-64.74738174, -32.19384459], [-64.74728356, -32.19379008]]]}}, {"type": "Feature", "properties": {"FID": null, "Tipo": "Entrada", "Barrio": "Nogales Bajo", "Nombre": null, "LongTramo": null, "CalleNum": null}, "geometry": {"type": "MultiLineString", "coordinates": [[[-64.74083819, -32.19233125], [-64.74080716, -32.19229373], [-64.74076002, -32.19227516], [-64.74070903, -32.19225771]]]}}, {"type": "Feature", "properties": {"FID": null, "Tipo": "Calle", "Barrio": "Nogales Bajo", "Nombre": null, "LongTramo": null, "CalleNum": 22}, "geometry": {"type": "MultiLineString", "coordinates": [[[-64.74107114, -32.19145228], [-64.74097782, -32.19150215], [-64.74092752, -32.19156115], [-64.74093434, -32.19161936], [-64.74096035, -32.1917101], [-64.74094982, -32.191757], [-64.74092302, -32.19181264], [-64.74092019, -32.19185155], [-64.74092755, -32.19190003], [-64.74095268, -32.19194463], [-64.74095785, -32.19199132], [-64.74095246, -32.19209196], [-64.74094068, -32.19212777], [-64.74091998, -32.19218273], [-64.74089653, -32.19223528], [-64.74086597, -32.19229505], [-64.74083819, -32.19233125], [-64.74080864, -32.19240174], [-64.74078936, -32.19242833], [-64.74075031, -32.19246704], [-64.74070706, -32.19250101], [-64.74065763, -32.19252425], [-64.74060946, -32.19253552], [-64.74055045, -32.19253425], [-64.74049236, -32.19252822], [-64.74043076, -32.19251796], [-64.74037443, -32.19250797], [-64.74031774, -32.19248217], [-64.74026675, -32.19245649], [-64.74020724, -32.19243266], [-64.74014804, -32.19242204], [-64.74008345, -32.19243019], [-64.74003663, -32.19244585], [-64.73999699, -32.19247786], [-64.73997635, -32.19251784], [-64.73996856, -32.19254545], [-64.73997813, -32.19259967], [-64.73998847, -32.19265386], [-64.7400014, -32.19272159], [-64.74001097, -32.19278418], [-64.73999881, -32.19285459], [-64.73995189, -32.19291687], [-64.73990491, -32.19297178], [-64.73985302, -32.1930311], [-64.73980104, -32.19308156]]]}}, {"type": "Feature", "properties": {"FID": null, "Tipo": "Entrada", "Barrio": "Nogales Bajo", "Nombre": null, "LongTramo": null, "CalleNum": null}, "geometry": {"type": "MultiLineString", "coordinates": [[[-64.74526559, -32.19291214], [-64.74535379, -32.19293035], [-64.74547736, -32.19293108], [-64.74554386, -32.19293502], [-64.74560145, -32.19292147], [-64.74564017, -32.19289239]]]}}, {"type": "Feature", "properties": {"FID": null, "Tipo": "Entrada", "Barrio": "Nogales Bajo", "Nombre": null, "LongTramo": null, "CalleNum": null}, "geometry": {"type": "MultiLineString", "coordinates": [[[-64.74516924, -32.19220792], [-64.74520439, -32.19210039], [-64.74522833, -32.19200775], [-64.74521782, -32.19190587], [-64.7451992, -32.19182839], [-64.74512959, -32.19177347]]]}}, {"type": "Feature", "properties": {"FID": null, "Tipo": "Entrada", "Barrio": "Nogales Bajo", "Nombre": null, "LongTramo": null, "CalleNum": null}, "geometry": {"type": "MultiLineString", "coordinates": [[[-64.74535394, -32.19204063], [-64.74540466, -32.19204115], [-64.74542856, -32.19205843], [-64.74544174, -32.19211291], [-64.74545315, -32.19214919], [-64.74551511, -32.19215896], [-64.74554871, -32.19217914], [-64.74557987, -32.19220301], [-64.74561353, -32.19220801], [-64.74568102, -32.19222651], [-64.74572173, -32.1922636]]]}}, {"type": "Feature", "properties": {"FID": null, "Tipo": "Entrada", "Barrio": "Nogales Bajo", "Nombre": null, "LongTramo": null, "CalleNum": null}, "geometry": {"type": "MultiLineString", "coordinates": [[[-64.74522008, -32.19269808], [-64.74515651, -32.19266009], [-64.74510687, -32.19260369], [-64.74506598, -32.19255688], [-64.74499485, -32.19249713]]]}}, {"type": "Feature", "properties": {"FID": null, "Tipo": "Entrada", "Barrio": "Nogales Alto", "Nombre": null, "LongTramo": null, "CalleNum": null}, "geometry": {"type": "MultiLineString", "coordinates": [[[-64.74789928, -32.1957484], [-64.74783398, -32.19574582], [-64.74778046, -32.1957204], [-64.74775245, -32.1956772]]]}}, {"type": "Feature", "properties": {"FID": null, "Tipo": "Entrada", "Barrio": "Nogales Alto", "Nombre": null, "LongTramo": null, "CalleNum": null}, "geometry": {"type": "MultiLineString", "coordinates": [[[-64.74695834, -32.1964463], [-64.74690933, -32.19644708], [-64.74686412, -32.19641925], [-64.74678515, -32.19633676], [-64.74673833, -32.1962791]]]}}, {"type": "Feature", "properties": {"FID": null, "Tipo": "Calle", "Barrio": "Aldea", "Nombre": null, "LongTramo": null, "CalleNum": 11}, "geometry": {"type": "MultiLineString", "coordinates": [[[-64.73618526, -32.20002163], [-64.73611928, -32.19983663], [-64.73585995, -32.19983222], [-64.73568242, -32.19969391], [-64.73539046, -32.19961559], [-64.73529542, -32.19954519], [-64.73525996, -32.1993226]]]}}, {"type": "Feature", "properties": {"FID": null, "Tipo": "Calle", "Barrio": "9 Lomas", "Nombre": null, "LongTramo": null, "CalleNum": 43}, "geometry": {"type": "MultiLineString", "coordinates": [[[-64.746497, -32.179449], [-64.74679411, -32.17936272], [-64.74712695, -32.17945904], [-64.74808644, -32.17933955], [-64.74811349, -32.17912141], [-64.74831096, -32.17899652], [-64.74846293, -32.17910596], [-64.74859689, -32.17925283], [-64.74869, -32.17926]]]}}, {"type": "Feature", "properties": {"FID": null, "Tipo": "Calle", "Barrio": "9 Lomas", "Nombre": null, "LongTramo": null, "CalleNum": 44}, "geometry": {"type": "MultiLineString", "coordinates": [[[-64.74650641, -32.17950479], [-64.74673065, -32.17963714], [-64.74701334, -32.17972353], [-64.74743813, -32.17989294], [-64.74752217, -32.1798785]]]}}, {"type": "Feature", "properties": {"FID": 4, "Tipo": "Calle", "Barrio": "Espinillo/Aldea", "Nombre": "Camino Umepay", "LongTramo": 789, "CalleNum": 1}, "geometry": {"type": "MultiLineString", "coordinates": [[[-64.73861268, -32.19307534], [-64.7384914, -32.19320905], [-64.73837313, -32.1932819], [-64.73832779, -32.1934148], [-64.73829539, -32.19359839], [-64.73825121, -32.19379232], [-64.73826646, -32.19396509], [-64.73812484, -32.19406878], [-64.73797926, -32.19412145], [-64.73797925, -32.19412146], [-64.73797925, -32.19412147], [-64.73793809, -32.19419105], [-64.73790342, -32.19426444], [-64.73793557, -32.19440594], [-64.73803516, -32.19447972], [-64.73815502, -32.19458661], [-64.73835309, -32.19467573], [-64.73844366, -32.19479137], [-64.7385537, -32.1948984], [-64.73863462, -32.19502253], [-64.73867642, -32.19515554], [-64.73879692, -32.19529582], [-64.73881893, -32.19542076], [-64.73883192, -32.19558757], [-64.73880533, -32.19573822], [-64.7388565, -32.19596934], [-64.73895274, -32.19610974], [-64.73897088, -32.19611947], [-64.73900278, -32.19613554], [-64.73903531, -32.19615065], [-64.73906845, -32.19616479], [-64.73910214, -32.19617793], [-64.73913636, -32.19619007], [-64.73917105, -32.19620119], [-64.73920618, -32.19621127], [-64.7392417, -32.1962203], [-64.73927757, -32.19622827], [-64.73931374, -32.19623517], [-64.73935018, -32.196241], [-64.73937697, -32.19625334], [-64.7394025, -32.19626173], [-64.73942908, -32.19627822], [-64.73950248, -32.19631904], [-64.73980304, -32.19647623], [-64.73980491, -32.1964824], [-64.73980653, -32.19648862], [-64.73980789, -32.19649489], [-64.739809, -32.19650119], [-64.73980985, -32.19650752], [-64.73981043, -32.19651388], [-64.73981075, -32.19652024], [-64.73981082, -32.19652662], [-64.73981062, -32.19653299], [-64.73981016, -32.19653935], [-64.73980944, -32.19654569], [-64.73980845, -32.19655201], [-64.73980722, -32.19655829], [-64.73980572, -32.19656454], [-64.73980397, -32.19657073], [-64.73980196, -32.19657687], [-64.7397997, -32.19658295], [-64.7397972, -32.19658896], [-64.73979445, -32.19659489], [-64.73979146, -32.19660073], [-64.73978823, -32.19660648], [-64.73978477, -32.19661213], [-64.73978107, -32.19661768], [-64.73977715, -32.19662311], [-64.73977301, -32.19662842], [-64.73976866, -32.19663361], [-64.7397641, -32.19663866], [-64.73976217, -32.19664069], [-64.73970637, -32.19674847], [-64.73964618, -32.19685451], [-64.73958168, -32.19695871], [-64.73951293, -32.19706094], [-64.73944004, -32.19716106], [-64.73936308, -32.19725895], [-64.73928215, -32.1973545], [-64.73919734, -32.19744759], [-64.73913649, -32.19751047], [-64.73913977, -32.19752705], [-64.73914237, -32.19754373], [-64.73914428, -32.19756047], [-64.73914551, -32.19757725], [-64.73914604, -32.19759407], [-64.73914588, -32.19761089], [-64.73914504, -32.19762769], [-64.7391435, -32.19764446], [-64.73914128, -32.19766117], [-64.73913837, -32.19767781], [-64.73913478, -32.19769435], [-64.73913052, -32.19771078], [-64.73912558, -32.19772706], [-64.73911998, -32.19774319], [-64.73911372, -32.19775915], [-64.73910681, -32.19777491], [-64.73909925, -32.19779045], [-64.73909106, -32.19780576], [-64.73908225, -32.19782082], [-64.73907491, -32.19783244], [-64.73889141, -32.19782103], [-64.738872, -32.19781896], [-64.73885164, -32.19781739], [-64.73883123, -32.19781642], [-64.73881079, -32.19781606], [-64.73879035, -32.19781631], [-64.73876993, -32.19781716], [-64.73874957, -32.19781862], [-64.73872927, -32.19782068], [-64.73870907, -32.19782334], [-64.73868899, -32.1978266], [-64.73866906, -32.19783045], [-64.73864929, -32.1978349], [-64.73862973, -32.19783993], [-64.73861038, -32.19784553], [-64.73859127, -32.19785171], [-64.73857243, -32.19785844], [-64.73855387, -32.19786574], [-64.73853563, -32.19787358], [-64.73851772, -32.19788195], [-64.73850016, -32.19789086], [-64.73848298, -32.19790028], [-64.7384662, -32.1979102], [-64.73844983, -32.19792061], [-64.7384339, -32.19793151], [-64.73841843, -32.19794287], [-64.73836538, -32.19798736], [-64.73831053, -32.19803025], [-64.73825396, -32.19807148], [-64.73819573, -32.19811102], [-64.73813591, -32.1981488], [-64.73807457, -32.19818478], [-64.7380118, -32.19821892], [-64.73794766, -32.19825117], [-64.73788345, -32.19828097], [-64.7377567, -32.19843742], [-64.73762047, -32.1986059], [-64.73741717, -32.19878756], [-64.73726367, -32.19899613], [-64.7371572, -32.19914988], [-64.73697069, -32.19932926], [-64.73671459, -32.19951574], [-64.73648516, -32.19971411], [-64.73628695, -32.19991102], [-64.73607349, -32.20019094], [-64.73593406, -32.20031755], [-64.73559515, -32.20082814], [-64.73548519, -32.2009247], [-64.73536742, -32.20109145], [-64.73554586, -32.20118134], [-64.73580081, -32.20115068], [-64.73596136, -32.2010833], [-64.73620864, -32.20098576], [-64.73651368, -32.20101416], [-64.7368191, -32.20106246], [-64.73711342, -32.20108739], [-64.7374016, -32.20101282], [-64.73748068, -32.20114028], [-64.73750465, -32.20128117], [-64.73743469, -32.20152112], [-64.73663211, -32.2020916], [-64.73633333, -32.20250489], [-64.73625903, -32.20262902], [-64.73623905, -32.2029226], [-64.73659595, -32.20310238], [-64.73658992, -32.20345732], [-64.7367571, -32.20441099], [-64.7366951, -32.20473411], [-64.73680727, -32.20548213], [-64.73644977, -32.20594329], [-64.73665918, -32.20642926], [-64.73741283, -32.20664341], [-64.737562, -32.20687311], [-64.73761634, -32.20726705], [-64.73762178, -32.20755304], [-64.73757523, -32.20779267], [-64.73757167, -32.20805344], [-64.73748666, -32.20828635], [-64.73733716, -32.20848757], [-64.73723498, -32.20871348], [-64.73724769, -32.20893419], [-64.7373194, -32.2091215], [-64.7372642, -32.209354], [-64.73720095, -32.20961197], [-64.73715935, -32.20988774], [-64.73717996, -32.21007575], [-64.73742336, -32.21010861], [-64.73771002, -32.21017709], [-64.73765406, -32.21036978], [-64.73749308, -32.21041545], [-64.7375687, -32.2105846], [-64.7378768, -32.21066002], [-64.73795928, -32.21074217], [-64.73769263, -32.21127813], [-64.73713676, -32.21161167], [-64.73687832, -32.21168402], [-64.7367692, -32.21199331], [-64.73687456, -32.21215843], [-64.73734978, -32.21251039], [-64.73755849, -32.21251114], [-64.73768981, -32.21247312], [-64.73780609, -32.21254032], [-64.73796769, -32.21252724], [-64.73805244, -32.21250435], [-64.73810904, -32.21256875], [-64.73815904, -32.21273463]]]}}, {"type": "Feature", "properties": {"FID": 5, "Tipo": "Calle", "Barrio": "Espinillos", "Nombre": null, "LongTramo": 248, "CalleNum": 14}, "geometry": {"type": "MultiLineString", "coordinates": [[[-64.74112318, -32.19443004], [-64.74112093, -32.19442925], [-64.74111593, -32.19442733], [-64.74111101, -32.19442527], [-64.74110618, -32.19442306], [-64.74110144, -32.19442071], [-64.7410968, -32.19441822], [-64.74109227, -32.1944156], [-64.74108785, -32.19441284], [-64.74108355, -32.19440995], [-64.74107936, -32.19440693], [-64.74107921, -32.19440682], [-64.74107563, -32.19440467], [-64.74107095, -32.19440203], [-64.74106617, -32.19439954], [-64.74106129, -32.19439718], [-64.74105631, -32.19439498], [-64.74105124, -32.19439292], [-64.7410461, -32.19439102], [-64.74104088, -32.19438927], [-64.74103559, -32.19438767], [-64.74103024, -32.19438623], [-64.74102483, -32.19438496], [-64.74101937, -32.19438384], [-64.74101388, -32.19438289], [-64.74100834, -32.1943821], [-64.74100278, -32.19438147], [-64.74099719, -32.19438101], [-64.74099159, -32.19438072], [-64.74098598, -32.19438059], [-64.74098037, -32.19438063], [-64.74097476, -32.19438084], [-64.74096917, -32.19438121], [-64.74096359, -32.19438175], [-64.74095804, -32.19438245], [-64.74095252, -32.19438332], [-64.74094704, -32.19438435], [-64.74094161, -32.19438554], [-64.74093623, -32.19438689], [-64.7409309, -32.19438841], [-64.74092042, -32.19438987], [-64.74090988, -32.19439102], [-64.74089931, -32.19439186], [-64.7408887, -32.19439238], [-64.74087808, -32.19439259], [-64.74086745, -32.19439248], [-64.74085684, -32.19439206], [-64.74084625, -32.19439132], [-64.7408357, -32.19439027], [-64.7408252, -32.19438891], [-64.74081476, -32.19438723], [-64.74080439, -32.19438525], [-64.74079412, -32.19438296], [-64.74078394, -32.19438037], [-64.74077388, -32.19437747], [-64.74076394, -32.19437428], [-64.74075413, -32.1943708], [-64.74074448, -32.19436703], [-64.74073499, -32.19436297], [-64.74072567, -32.19435864], [-64.74071653, -32.19435403], [-64.74070759, -32.19434915], [-64.74069885, -32.19434401], [-64.74069033, -32.19433861], [-64.74068204, -32.19433297], [-64.74067398, -32.19432708], [-64.74066617, -32.19432095], [-64.74065862, -32.1943146], [-64.74065133, -32.19430803], [-64.74064431, -32.19430124], [-64.74063758, -32.19429425], [-64.74063114, -32.19428707], [-64.740625, -32.1942797], [-64.74061916, -32.19427215], [-64.74061364, -32.19426443], [-64.74060844, -32.19425656], [-64.74060356, -32.19424853], [-64.74059902, -32.19424036], [-64.74059481, -32.19423207], [-64.74059095, -32.19422365], [-64.74058743, -32.19421513], [-64.74058427, -32.1942065], [-64.74058147, -32.19419779], [-64.74057902, -32.194189], [-64.74057693, -32.19418014], [-64.74057521, -32.19417122], [-64.7405751, -32.19417057]]]}}, {"type": "Feature", "properties": {"FID": null, "Tipo": "Entrada", "Barrio": "Nogales Bajo", "Nombre": "Marina", "LongTramo": null, "CalleNum": null}, "geometry": {"type": "MultiLineString", "coordinates": [[[-64.73823737, -32.19167117], [-64.73830983, -32.19162237], [-64.7383904, -32.1915894], [-64.73845635, -32.19160841], [-64.73850915, -32.1916754], [-64.73855446, -32.19175844], [-64.73855584, -32.19183145], [-64.73852052, -32.1919448], [-64.73844365, -32.19200827], [-64.73842563, -32.19212802], [-64.73845192, -32.19219671], [-64.7384655, -32.19233595], [-64.73841842, -32.19248797], [-64.73824189, -32.19305872], [-64.73826259, -32.19312118]]]}}]}