{
"type": "FeatureCollection",
"name": "Intersec_lineas_calles",
"crs": { "type": "name", "properties": { "name": "urn:ogc:def:crs:OGC:1.3:CRS84" } },
"xy_coordinate_resolution": 1e-15,
"features": [
{ "type": "Feature", "properties": { "FID": 7, "Tipo": "Calle", "Barrio": "Castaños", "Nombre": "Pasiflora", "LongTramo": 179, "CalleNum": 35, "FID_2": 3, "Manguera": "1''", "NivelRed": 2, "TipoRed": "Distribucion", "AcopioMadr": "Bavali" }, "geometry": { "type": "Point", "coordinates": [ -64.754093577589728, -32.193518202402743 ] } },
{ "type": "Feature", "properties": { "FID": 8, "Tipo": "Entrada", "Barrio": "Castaños", "Nombre": "Cauce", "LongTramo": 105, "CalleNum": null, "FID_2": 3, "Manguera": "1''", "NivelRed": 2, "TipoRed": "Distribucion", "AcopioMadr": "Bavali" }, "geometry": { "type": "Point", "coordinates": [ -64.754229213737347, -32.194649600075174 ] } },
{ "type": "Feature", "properties": { "FID": 11, "Tipo": "Calle", "Barrio": "Nogales Alto", "Nombre": "Las Liebres", "LongTramo": 255, "CalleNum": 33, "FID_2": 11, "Manguera": "3/4''", "NivelRed": 2, "TipoRed": "Distribucion", "AcopioMadr": "Bavali" }, "geometry": { "type": "Point", "coordinates": [ -64.753621007276934, -32.197049490906188 ] } },
{ "type": "Feature", "properties": { "FID": 12, "Tipo": "Calle", "Barrio": "Nogales Alto", "Nombre": "Sen de Campo", "LongTramo": 1033, "CalleNum": 30, "FID_2": 13, "Manguera": "1''", "NivelRed": 1, "TipoRed": "Distribucion", "AcopioMadr": "Bavali" }, "geometry": { "type": "Point", "coordinates": [ -64.75325498506183, -32.194043632042607 ] } },
{ "type": "Feature", "properties": { "FID": 12, "Tipo": "Calle", "Barrio": "Nogales Alto", "Nombre": "Sen de Campo", "LongTramo": 1033, "CalleNum": 30, "FID_2": null, "Manguera": "1 1/4''", "NivelRed": 0, "TipoRed": "Abastecimiento", "AcopioMadr": "Cisterna" }, "geometry": { "type": "Point", "coordinates": [ -64.748978004748878, -32.19764912353925 ] } },
{ "type": "Feature", "properties": { "FID": 12, "Tipo": "Calle", "Barrio": "Nogales Alto", "Nombre": "Sen de Campo", "LongTramo": 1033, "CalleNum": 30, "FID_2": null, "Manguera": "1/2''", "NivelRed": 2, "TipoRed": "Distribucion", "AcopioMadr": "Rotonda" }, "geometry": { "type": "Point", "coordinates": [ -64.747614168374142, -32.199484024798714 ] } },
{ "type": "Feature", "properties": { "FID": 13, "Tipo": "Calle", "Barrio": "Nogales Alto", "Nombre": "Conexion", "LongTramo": 616, "CalleNum": 32, "FID_2": null, "Manguera": "1 1/4''", "NivelRed": 0, "TipoRed": "Abastecimiento", "AcopioMadr": "Dique Vale" }, "geometry": { "type": "Point", "coordinates": [ -64.751582535601116, -32.199766555981562 ] } },
{ "type": "Feature", "properties": { "FID": 13, "Tipo": "Calle", "Barrio": "Nogales Alto", "Nombre": "Conexion", "LongTramo": 616, "CalleNum": 32, "FID_2": null, "Manguera": "1''", "NivelRed": 2, "TipoRed": "Distribucion", "AcopioMadr": "Cisterna" }, "geometry": { "type": "Point", "coordinates": [ -64.75157968200557, -32.199761148266795 ] } },
{ "type": "Feature", "properties": { "FID": 13, "Tipo": "Calle", "Barrio": "Nogales Alto", "Nombre": "Conexion", "LongTramo": 616, "CalleNum": 32, "FID_2": null, "Manguera": "1 1/4''", "NivelRed": 0, "TipoRed": "Abastecimiento", "AcopioMadr": "Cisterna" }, "geometry": { "type": "Point", "coordinates": [ -64.751206159940978, -32.199210745687338 ] } },
{ "type": "Feature", "properties": { "FID": 14, "Tipo": "Entrada", "Barrio": "Castaños", "Nombre": "Cosecha", "LongTramo": 109, "CalleNum": null, "FID_2": 2, "Manguera": "1''", "NivelRed": 1, "TipoRed": "Distribucion", "AcopioMadr": "Bavali" }, "geometry": { "type": "Point", "coordinates": [ -64.7531058518084, -32.1914505396783 ] } },
{ "type": "Feature", "properties": { "FID": 16, "Tipo": "Calle", "Barrio": "Nogales Bajo", "Nombre": "Arroyo", "LongTramo": 198, "CalleNum": 24, "FID_2": null, "Manguera": "1''", "NivelRed": 1, "TipoRed": "Distribucion", "AcopioMadr": "Rotonda" }, "geometry": { "type": "Point", "coordinates": [ -64.745405166224103, -32.193230795786206 ] } },
{ "type": "Feature", "properties": { "FID": 16, "Tipo": "Calle", "Barrio": "Nogales Bajo", "Nombre": "Arroyo", "LongTramo": 198, "CalleNum": 24, "FID_2": null, "Manguera": "Cano", "NivelRed": 0, "TipoRed": "Abastecimiento", "AcopioMadr": "DiqueNogales" }, "geometry": { "type": "Point", "coordinates": [ -64.745411854909236, -32.193237356246044 ] } },
{ "type": "Feature", "properties": { "FID": 16, "Tipo": "Calle", "Barrio": "Nogales Bajo", "Nombre": "Arroyo", "LongTramo": 198, "CalleNum": 24, "FID_2": null, "Manguera": "1''", "NivelRed": 1, "TipoRed": "Distribucion", "AcopioMadr": "Rotonda" }, "geometry": { "type": "Point", "coordinates": [ -64.745408837551835, -32.19323439673299 ] } },
{ "type": "Feature", "properties": { "FID": 17, "Tipo": "Calle", "Barrio": "Nogales Bajo", "Nombre": "Mangalam", "LongTramo": 341, "CalleNum": 23, "FID_2": null, "Manguera": "1/2''", "NivelRed": null, "TipoRed": null, "AcopioMadr": null }, "geometry": { "type": "Point", "coordinates": [ -64.743053706988647, -32.192277803520234 ] } },
{ "type": "Feature", "properties": { "FID": 17, "Tipo": "Calle", "Barrio": "Nogales Bajo", "Nombre": "Mangalam", "LongTramo": 341, "CalleNum": 23, "FID_2": null, "Manguera": "1''", "NivelRed": 1, "TipoRed": "Distribucion", "AcopioMadr": "Rotonda" }, "geometry": { "type": "Point", "coordinates": [ -64.741617176074698, -32.193298233613532 ] } },
{ "type": "Feature", "properties": { "FID": 43, "Tipo": "Calle", "Barrio": "Nogales Alto", "Nombre": "Horizonte", "LongTramo": 313, "CalleNum": 31, "FID_2": null, "Manguera": "1''", "NivelRed": null, "TipoRed": null, "AcopioMadr": null }, "geometry": { "type": "Point", "coordinates": [ -64.749266793569319, -32.196178235361145 ] } },
{ "type": "Feature", "properties": { "FID": 43, "Tipo": "Calle", "Barrio": "Nogales Alto", "Nombre": "Horizonte", "LongTramo": 313, "CalleNum": 31, "FID_2": null, "Manguera": "Cano", "NivelRed": 0, "TipoRed": "Abastecimiento", "AcopioMadr": "DiqueNogales" }, "geometry": { "type": "Point", "coordinates": [ -64.74926530625612, -32.196178233796211 ] } },
{ "type": "Feature", "properties": { "FID": 43, "Tipo": "Calle", "Barrio": "Nogales Alto", "Nombre": "Horizonte", "LongTramo": 313, "CalleNum": 31, "FID_2": null, "Manguera": "1''", "NivelRed": 1, "TipoRed": "Abastecimiento", "AcopioMadr": "Rotonda" }, "geometry": { "type": "Point", "coordinates": [ -64.749273189847912, -32.196178242091008 ] } },
{ "type": "Feature", "properties": { "FID": 43, "Tipo": "Calle", "Barrio": "Nogales Alto", "Nombre": "Horizonte", "LongTramo": 313, "CalleNum": 31, "FID_2": null, "Manguera": "1''", "NivelRed": 1, "TipoRed": "Distribucion", "AcopioMadr": "Rotonda" }, "geometry": { "type": "Point", "coordinates": [ -64.749270280859164, -32.196178239030345 ] } },
{ "type": "Feature", "properties": { "FID": 44, "Tipo": "Entrada", "Barrio": "Nogales Alto", "Nombre": "Vivi", "LongTramo": 57, "CalleNum": null, "FID_2": null, "Manguera": "1''", "NivelRed": 2, "TipoRed": "Distribucion", "AcopioMadr": "Cisterna/Rotonda" }, "geometry": { "type": "Point", "coordinates": [ -64.747670611934879, -32.199212620357784 ] } },
{ "type": "Feature", "properties": { "FID": 45, "Tipo": "Entrada", "Barrio": "Nogales Alto", "Nombre": "PauSlata", "LongTramo": 123, "CalleNum": null, "FID_2": null, "Manguera": "1''", "NivelRed": 2, "TipoRed": "Distribucion", "AcopioMadr": "Cisterna" }, "geometry": { "type": "Point", "coordinates": [ -64.751275765987231, -32.197876718925151 ] } },
{ "type": "Feature", "properties": { "FID": 58, "Tipo": "Acceso", "Barrio": "Nogales Alto", "Nombre": "Acceso Acopio Bavali", "LongTramo": 55, "CalleNum": null, "FID_2": 13, "Manguera": "1''", "NivelRed": 1, "TipoRed": "Distribucion", "AcopioMadr": "Bavali" }, "geometry": { "type": "Point", "coordinates": [ -64.753557416063728, -32.194581466829071 ] } },
{ "type": "Feature", "properties": { "FID": null, "Tipo": "Calle", "Barrio": "Nogales Alto", "Nombre": "Cisterna", "LongTramo": 48, "CalleNum": null, "FID_2": null, "Manguera": "1 1/4''", "NivelRed": 0, "TipoRed": "Abastecimiento", "AcopioMadr": "Dique Vale" }, "geometry": { "type": "Point", "coordinates": [ -64.75162521148998, -32.199692838074554 ] } },
{ "type": "Feature", "properties": { "FID": null, "Tipo": "Calle", "Barrio": "Nogales Alto", "Nombre": "Cisterna", "LongTramo": 48, "CalleNum": null, "FID_2": null, "Manguera": "1''", "NivelRed": 2, "TipoRed": "Distribucion", "AcopioMadr": "Cisterna" }, "geometry": { "type": "Point", "coordinates": [ -64.751618546596006, -32.199691279852068 ] } },
{ "type": "Feature", "properties": { "FID": 10, "Tipo": "Calle", "Barrio": "Nogales Alto", "Nombre": "Unidad", "LongTramo": 841, "CalleNum": 34, "FID_2": null, "Manguera": "1 1/4''", "NivelRed": 0, "TipoRed": "Abastecimiento", "AcopioMadr": "Dique Vale" }, "geometry": { "type": "Point", "coordinates": [ -64.746986706173459, -32.201521736090676 ] } },
{ "type": "Feature", "properties": { "FID": 10, "Tipo": "Calle", "Barrio": "Nogales Alto", "Nombre": "Unidad", "LongTramo": 841, "CalleNum": 34, "FID_2": null, "Manguera": "1 1/4''", "NivelRed": 0, "TipoRed": "Abastecimiento", "AcopioMadr": "Dique Vale" }, "geometry": { "type": "Point", "coordinates": [ -64.748059129803551, -32.201606162799727 ] } },
{ "type": "Feature", "properties": { "FID": 10, "Tipo": "Calle", "Barrio": "Nogales Alto", "Nombre": "Unidad", "LongTramo": 841, "CalleNum": 34, "FID_2": null, "Manguera": "1''", "NivelRed": 2, "TipoRed": "Distribucion", "AcopioMadr": "Cisterna" }, "geometry": { "type": "Point", "coordinates": [ -64.748911609144258, -32.201151219527389 ] } },
{ "type": "Feature", "properties": { "FID": 10, "Tipo": "Calle", "Barrio": "Nogales Alto", "Nombre": "Unidad", "LongTramo": 841, "CalleNum": 34, "FID_2": null, "Manguera": "1/2''", "NivelRed": 2, "TipoRed": "Distribucion", "AcopioMadr": "Cisterna" }, "geometry": { "type": "Point", "coordinates": [ -64.750771278515785, -32.200415649092022 ] } },
{ "type": "Feature", "properties": { "FID": 10, "Tipo": "Calle", "Barrio": "Nogales Alto", "Nombre": "Unidad", "LongTramo": 841, "CalleNum": 34, "FID_2": null, "Manguera": "1/2''", "NivelRed": 2, "TipoRed": "Distribucion", "AcopioMadr": "Cisterna" }, "geometry": { "type": "Point", "coordinates": [ -64.748911579663982, -32.201151228017309 ] } },
{ "type": "Feature", "properties": { "FID": null, "Tipo": "Entrada", "Barrio": "Nogales Alto", "Nombre": "Lucas y Carli", "LongTramo": 56, "CalleNum": null, "FID_2": null, "Manguera": "1 1/4''", "NivelRed": 0, "TipoRed": "Abastecimiento", "AcopioMadr": "Dique Vale" }, "geometry": { "type": "Point", "coordinates": [ -64.749343413581897, -32.201017515941743 ] } },
{ "type": "Feature", "properties": { "FID": null, "Tipo": "Entrada", "Barrio": "Nogales Alto", "Nombre": "Lucas y Carli", "LongTramo": 56, "CalleNum": null, "FID_2": null, "Manguera": "1''", "NivelRed": 2, "TipoRed": "Distribucion", "AcopioMadr": "Cisterna" }, "geometry": { "type": "Point", "coordinates": [ -64.749321064556469, -32.20100119236529 ] } },
{ "type": "Feature", "properties": { "FID": null, "Tipo": "Entrada", "Barrio": "Nogales Alto", "Nombre": "Maga", "LongTramo": 10, "CalleNum": null, "FID_2": null, "Manguera": "1 1/4''", "NivelRed": 0, "TipoRed": "Abastecimiento", "AcopioMadr": "Dique Vale" }, "geometry": { "type": "Point", "coordinates": [ -64.750911522963108, -32.200276662445923 ] } },
{ "type": "Feature", "properties": { "FID": null, "Tipo": "Entrada", "Barrio": "Nogales Alto", "Nombre": "Maga", "LongTramo": 10, "CalleNum": null, "FID_2": null, "Manguera": "1''", "NivelRed": 2, "TipoRed": "Distribucion", "AcopioMadr": "Cisterna" }, "geometry": { "type": "Point", "coordinates": [ -64.750911522963108, -32.200276662445923 ] } },
{ "type": "Feature", "properties": { "FID": null, "Tipo": "Entrada", "Barrio": "Nogales Alto", "Nombre": "Ceci y gus", "LongTramo": 27, "CalleNum": null, "FID_2": null, "Manguera": "1 1/4''", "NivelRed": 0, "TipoRed": "Abastecimiento", "AcopioMadr": "Cisterna" }, "geometry": { "type": "Point", "coordinates": [ -64.748969686936505, -32.197643113337335 ] } },
{ "type": "Feature", "properties": { "FID": null, "Tipo": "Entrada", "Barrio": "Nogales Alto", "Nombre": "Ceci y gus", "LongTramo": 27, "CalleNum": null, "FID_2": null, "Manguera": "1''", "NivelRed": 2, "TipoRed": "Distribucion", "AcopioMadr": "Cisterna/Rotonda" }, "geometry": { "type": "Point", "coordinates": [ -64.748843045042534, -32.197793514194309 ] } },
{ "type": "Feature", "properties": { "FID": null, "Tipo": "Entrada", "Barrio": "Nogales Alto", "Nombre": "Juampi y Rochi", "LongTramo": 48, "CalleNum": null, "FID_2": null, "Manguera": "1 1/4''", "NivelRed": 0, "TipoRed": "Abastecimiento", "AcopioMadr": "Dique Vale" }, "geometry": { "type": "Point", "coordinates": [ -64.750436155130188, -32.200803895850271 ] } },
{ "type": "Feature", "properties": { "FID": null, "Tipo": "Entrada", "Barrio": "Nogales Alto", "Nombre": "Juampi y Rochi", "LongTramo": 48, "CalleNum": null, "FID_2": null, "Manguera": "1''", "NivelRed": 2, "TipoRed": "Distribucion", "AcopioMadr": "Cisterna" }, "geometry": { "type": "Point", "coordinates": [ -64.750420301901073, -32.200780063723734 ] } },
{ "type": "Feature", "properties": { "FID": null, "Tipo": "Entrada", "Barrio": "Nogales Alto", "Nombre": "Gina", "LongTramo": 71, "CalleNum": null, "FID_2": null, "Manguera": "1 1/4''", "NivelRed": 0, "TipoRed": "Abastecimiento", "AcopioMadr": "Dique Vale" }, "geometry": { "type": "Point", "coordinates": [ -64.748249026487088, -32.201489109683095 ] } },
{ "type": "Feature", "properties": { "FID": null, "Tipo": "Entrada", "Barrio": "Nogales Alto", "Nombre": "Gina", "LongTramo": 71, "CalleNum": null, "FID_2": null, "Manguera": "1''", "NivelRed": 2, "TipoRed": "Distribucion", "AcopioMadr": "Cisterna" }, "geometry": { "type": "Point", "coordinates": [ -64.748249026487088, -32.201489109683095 ] } },
{ "type": "Feature", "properties": { "FID": null, "Tipo": "Peatonal", "Barrio": "Nogales Alto", "Nombre": null, "LongTramo": 292, "CalleNum": null, "FID_2": null, "Manguera": "1''", "NivelRed": null, "TipoRed": null, "AcopioMadr": null }, "geometry": { "type": "Point", "coordinates": [ -64.748673631945493, -32.195857739612933 ] } },
{ "type": "Feature", "properties": { "FID": null, "Tipo": "Peatonal", "Barrio": "Nogales Alto", "Nombre": null, "LongTramo": 292, "CalleNum": null, "FID_2": null, "Manguera": "Cano", "NivelRed": 0, "TipoRed": "Abastecimiento", "AcopioMadr": "DiqueNogales" }, "geometry": { "type": "Point", "coordinates": [ -64.748161692536755, -32.194512565529209 ] } },
{ "type": "Feature", "properties": { "FID": null, "Tipo": "Peatonal", "Barrio": "Nogales Alto", "Nombre": null, "LongTramo": 292, "CalleNum": null, "FID_2": null, "Manguera": "Cano", "NivelRed": 0, "TipoRed": "Abastecimiento", "AcopioMadr": "DiqueNogales" }, "geometry": { "type": "Point", "coordinates": [ -64.748651953438298, -32.195655110796956 ] } },
{ "type": "Feature", "properties": { "FID": null, "Tipo": "Peatonal", "Barrio": "Nogales Alto", "Nombre": null, "LongTramo": 292, "CalleNum": null, "FID_2": null, "Manguera": "Cano", "NivelRed": 0, "TipoRed": "Abastecimiento", "AcopioMadr": "DiqueNogales" }, "geometry": { "type": "Point", "coordinates": [ -64.747810077121912, -32.194154102651765 ] } },
{ "type": "Feature", "properties": { "FID": null, "Tipo": "Peatonal", "Barrio": "Nogales Alto", "Nombre": null, "LongTramo": 292, "CalleNum": null, "FID_2": null, "Manguera": "Cano", "NivelRed": 0, "TipoRed": "Abastecimiento", "AcopioMadr": "DiqueNogales" }, "geometry": { "type": "Point", "coordinates": [ -64.747621506668864, -32.193964166901615 ] } },
{ "type": "Feature", "properties": { "FID": null, "Tipo": "Peatonal", "Barrio": "Nogales Alto", "Nombre": null, "LongTramo": 292, "CalleNum": null, "FID_2": null, "Manguera": "1''", "NivelRed": 1, "TipoRed": "Abastecimiento", "AcopioMadr": "Rotonda" }, "geometry": { "type": "Point", "coordinates": [ -64.748271792656382, -32.195122224981887 ] } },
{ "type": "Feature", "properties": { "FID": null, "Tipo": "Peatonal", "Barrio": "Nogales Alto", "Nombre": null, "LongTramo": 292, "CalleNum": null, "FID_2": null, "Manguera": "1''", "NivelRed": 1, "TipoRed": "Abastecimiento", "AcopioMadr": "Rotonda" }, "geometry": { "type": "Point", "coordinates": [ -64.748172907951769, -32.194523289625018 ] } },
{ "type": "Feature", "properties": { "FID": null, "Tipo": "Peatonal", "Barrio": "Nogales Alto", "Nombre": null, "LongTramo": 292, "CalleNum": null, "FID_2": null, "Manguera": "1''", "NivelRed": 1, "TipoRed": "Abastecimiento", "AcopioMadr": "Rotonda" }, "geometry": { "type": "Point", "coordinates": [ -64.748165445023133, -32.194776067192237 ] } },
{ "type": "Feature", "properties": { "FID": null, "Tipo": "Peatonal", "Barrio": "Nogales Alto", "Nombre": null, "LongTramo": 292, "CalleNum": null, "FID_2": null, "Manguera": "1''", "NivelRed": 1, "TipoRed": "Abastecimiento", "AcopioMadr": "Rotonda" }, "geometry": { "type": "Point", "coordinates": [ -64.748164613299323, -32.194707239578882 ] } },
{ "type": "Feature", "properties": { "FID": null, "Tipo": "Peatonal", "Barrio": "Nogales Alto", "Nombre": null, "LongTramo": 292, "CalleNum": null, "FID_2": null, "Manguera": "1''", "NivelRed": null, "TipoRed": null, "AcopioMadr": null }, "geometry": { "type": "Point", "coordinates": [ -64.747551529249904, -32.193938481694545 ] } },
{ "type": "Feature", "properties": { "FID": null, "Tipo": "Peatonal", "Barrio": "Nogales Alto", "Nombre": null, "LongTramo": 292, "CalleNum": null, "FID_2": null, "Manguera": "1''", "NivelRed": 1, "TipoRed": "Distribucion", "AcopioMadr": "Rotonda" }, "geometry": { "type": "Point", "coordinates": [ -64.748650238109107, -32.19562380577738 ] } },
{ "type": "Feature", "properties": { "FID": null, "Tipo": "Peatonal", "Barrio": "Nogales Alto", "Nombre": null, "LongTramo": 292, "CalleNum": null, "FID_2": null, "Manguera": "1''", "NivelRed": 1, "TipoRed": "Distribucion", "AcopioMadr": "Rotonda" }, "geometry": { "type": "Point", "coordinates": [ -64.748162236434268, -32.194749257864309 ] } },
{ "type": "Feature", "properties": { "FID": null, "Tipo": "Peatonal", "Barrio": "Nogales Alto", "Nombre": null, "LongTramo": 292, "CalleNum": null, "FID_2": null, "Manguera": "1''", "NivelRed": 1, "TipoRed": "Distribucion", "AcopioMadr": "Rotonda" }, "geometry": { "type": "Point", "coordinates": [ -64.74816221100609, -32.194744516231317 ] } },
{ "type": "Feature", "properties": { "FID": null, "Tipo": "Peatonal", "Barrio": "Nogales Alto", "Nombre": null, "LongTramo": 292, "CalleNum": null, "FID_2": null, "Manguera": "1''", "NivelRed": 1, "TipoRed": "Distribucion", "AcopioMadr": "Rotonda" }, "geometry": { "type": "Point", "coordinates": [ -64.74816682606928, -32.194517474175015 ] } },
{ "type": "Feature", "properties": { "FID": null, "Tipo": "Entrada", "Barrio": "Nogales Bajo", "Nombre": null, "LongTramo": 15, "CalleNum": null, "FID_2": null, "Manguera": "1''", "NivelRed": 1, "TipoRed": "Distribucion", "AcopioMadr": "Rotonda" }, "geometry": { "type": "Point", "coordinates": [ -64.740805098777273, -32.192292920058343 ] } },
{ "type": "Feature", "properties": { "FID": null, "Tipo": "Calle", "Barrio": "Nogales Bajo", "Nombre": null, "LongTramo": 277, "CalleNum": 22, "FID_2": null, "Manguera": "1''", "NivelRed": 1, "TipoRed": "Distribucion", "AcopioMadr": "Rotonda" }, "geometry": { "type": "Point", "coordinates": [ -64.739827382711937, -32.193055984814293 ] } },
{ "type": "Feature", "properties": { "FID": null, "Tipo": "Entrada", "Barrio": "Nogales Alto", "Nombre": null, "LongTramo": 17, "CalleNum": null, "FID_2": null, "Manguera": "1''", "NivelRed": null, "TipoRed": null, "AcopioMadr": null }, "geometry": { "type": "Point", "coordinates": [ -64.74778011197823, -32.195719857046655 ] } },
{ "type": "Feature", "properties": { "FID": null, "Tipo": "Entrada", "Barrio": "Nogales Bajo", "Nombre": "Marina", "LongTramo": 201, "CalleNum": null, "FID_2": null, "Manguera": "3/4''", "NivelRed": 2, "TipoRed": "Distribucion", "AcopioMadr": "Rotonda" }, "geometry": { "type": "Point", "coordinates": [ -64.7382532068074, -32.193022127045559 ] } },
{ "type": "Feature", "properties": { "FID": null, "Tipo": "Entrada", "Barrio": "Nogales Bajo", "Nombre": "Marina", "LongTramo": 201, "CalleNum": null, "FID_2": null, "Manguera": "3/4''", "NivelRed": 2, "TipoRed": "Distribucion", "AcopioMadr": "Rotonda" }, "geometry": { "type": "Point", "coordinates": [ -64.738465499790109, -32.192335949750188 ] } }
]
}
