{
"type": "FeatureCollection",
"name": "lineas",
"crs": { "type": "name", "properties": { "name": "urn:ogc:def:crs:OGC:1.3:CRS84" } },
"xy_coordinate_resolution": 1e-15,
"features": [
{ "type": "Feature", "properties": { "FID": 1, "Manguera": "1/2''", "NivelRed": 1, "TipoRed": "Distribucion", "AcopioMadr": "Bavali" }, "geometry": { "type": "MultiLineString", "coordinates": [ [ [ -64.753131655241219, -32.191434114250875, 1028.737 ], [ -64.753158885471407, -32.191423737824039, 1028.431 ], [ -64.753219953917565, -32.191406986628117, 1027.741 ], [ -64.753292450620478, -32.191387949126131, 1027.068 ] ] ] } },
{ "type": "Feature", "properties": { "FID": 2, "Manguera": "1''", "NivelRed": 1, "TipoRed": "Distribucion", "AcopioMadr": "Bavali" }, "geometry": { "type": "MultiLineString", "coordinates": [ [ [ -64.752891000332426, -32.192223519051502, 1048.358 ], [ -64.752842143407378, -32.192203098754639, 1048.033 ], [ -64.752817265609679, -32.192188531039427, 1047.039 ], [ -64.752799240664828, -32.192158658165063, 1045.438000000000102 ], [ -64.752771849897172, -32.192103151464472, 1043.342 ], [ -64.752751026682077, -32.192072360042594, 1042.828792629007467 ], [ -64.752719689022996, -32.192037829365987, 1042.236852969714846 ], [ -64.752680453940556, -32.192033933259758, 1041.848054160194351 ], [ -64.752671063652713, -32.192020743390231, 1041.674692650372208 ], [ -64.75272555470255, -32.191901217605832, 1040.251525174180415 ], [ -64.752744558847183, -32.191837128942112, 1039.579028828451783 ], [ -64.752787340108384, -32.191787695694245, 1039.07884035315692 ], [ -64.752810659827219, -32.191778492371689, 1038.813000000000102 ], [ -64.752808644001561, -32.191738846691145, 1038.68 ], [ -64.752806691401474, -32.191712213172529, 1037.569 ], [ -64.752817304374062, -32.191687307845427, 1036.862 ], [ -64.752845746298291, -32.191651642575387, 1035.79 ], [ -64.752886117594855, -32.191619364249711, 1034.785 ], [ -64.752965775617056, -32.191526448952189, 1031.04 ], [ -64.753046683604595, -32.191503706562401, 1030.04 ], [ -64.753061547047736, -32.191478742281326, 1029.637 ], [ -64.753131655241219, -32.191434114250875, 1028.737 ] ] ] } },
{ "type": "Feature", "properties": { "FID": 3, "Manguera": "1''", "NivelRed": 2, "TipoRed": "Distribucion", "AcopioMadr": "Bavali" }, "geometry": { "type": "MultiLineString", "coordinates": [ [ [ -64.75426583620029, -32.194811731758605, 1058.73 ], [ -64.754223647267295, -32.19472834132722, 1056.784000000000106 ], [ -64.754223648997026, -32.1947284314641, 1056.782 ], [ -64.754222194997297, -32.194718966715826, 1056.847 ], [ -64.754220733315492, -32.19471186428882, 1056.754 ], [ -64.754220305191964, -32.194699500158208, 1056.626 ], [ -64.75422049643349, -32.19469067977181, 1056.489 ], [ -64.754226119329203, -32.19467814151961, 1056.241 ], [ -64.754228388815207, -32.194670428323434, 1056.211 ], [ -64.754226698151044, -32.194660786537213, 1056.07 ], [ -64.754226155187766, -32.194657908923332, 1055.887 ], [ -64.754226154495868, -32.194657872868561, 1055.891 ], [ -64.754249469503705, -32.194594824443648, 1054.875 ], [ -64.754245204797229, -32.194576472769853, 1054.627 ], [ -64.754235470493413, -32.194562623888203, 1054.6 ], [ -64.75421537065138, -32.19453794625403, 1054.755000000000109 ], [ -64.754224985032806, -32.193825037044618, 1051.084 ], [ -64.754178709867986, -32.193768481054946, 1050.658 ], [ -64.754154699956203, -32.193742261808438, 1050.564 ], [ -64.754117079392174, -32.193559847345249, 1049.907 ], [ -64.754071813776505, -32.193479637118756, 1051.411 ] ] ] } },
{ "type": "Feature", "properties": { "FID": 4, "Manguera": "1''", "NivelRed": 1, "TipoRed": "Distribucion", "AcopioMadr": "Bavali" }, "geometry": { "type": "MultiLineString", "coordinates": [ [ [ -64.753684926803587, -32.194787890027847, 0.0 ], [ -64.753719629485047, -32.194793009725089, 1065.775 ], [ -64.753741626165834, -32.194793867671372, 1065.715999999999894 ], [ -64.753766624769241, -32.194802527967674, 1065.443 ], [ -64.753773641433853, -32.194815657233569, 1065.271 ], [ -64.753789659692316, -32.194828210824191, 1064.894 ], [ -64.753822451079458, -32.194827449388548, 1064.186 ], [ -64.753851592361144, -32.194843129827561, 1063.599 ] ] ] } },
{ "type": "Feature", "properties": { "FID": 6, "Manguera": "1/2''", "NivelRed": 2, "TipoRed": "Distribucion", "AcopioMadr": "Bavali" }, "geometry": { "type": "MultiLineString", "coordinates": [ [ [ -64.753254977700706, -32.19401888637411, 1048.422 ], [ -64.753067229457344, -32.194028519481314, 0.0 ], [ -64.752188133253497, -32.194611247854972, 0.0 ], [ -64.752068365905458, -32.194636980124237, 1046.805 ], [ -64.75186934133562, -32.194712534054574, 1046.805 ], [ -64.751585160474065, -32.194903059611718, 1046.805 ], [ -64.751510176325922, -32.194977823053016, 1046.805 ], [ -64.75142203586455, -32.194965267536816, 1046.805 ], [ -64.751403049048932, -32.194953268681083, 1046.805 ] ] ] } },
{ "type": "Feature", "properties": { "FID": 7, "Manguera": "1''", "NivelRed": 1, "TipoRed": "Distribucion", "AcopioMadr": "Bavali" }, "geometry": { "type": "MultiLineString", "coordinates": [ [ [ -64.753851592361144, -32.194843129827561, 1063.599 ], [ -64.753897363948354, -32.194826446214705, 1063.599 ], [ -64.753908839340198, -32.194822725662497, 1063.599 ], [ -64.753975393664149, -32.194783420853135, 1063.599 ], [ -64.754081908146148, -32.194753362080789, 1063.599 ], [ -64.754188067351976, -32.194754521841865, 1063.599 ], [ -64.75426583620029, -32.194811731758605, 1063.599 ] ] ] } },
{ "type": "Feature", "properties": { "FID": 8, "Manguera": "1''", "NivelRed": 2, "TipoRed": "Distribucion", "AcopioMadr": "Bavali" }, "geometry": { "type": "MultiLineString", "coordinates": [ [ [ -64.753851592361144, -32.194843129827561, 1065.715999999999894 ], [ -64.753876970114973, -32.194856076499214, 1065.715999999999894 ], [ -64.7538873593803, -32.195304167133699, 1065.715999999999894 ], [ -64.753880246683153, -32.195342403854141, 1065.715999999999894 ], [ -64.753890730063759, -32.19534610828773, 1065.715999999999894 ], [ -64.753915260326764, -32.195398322745554, 1065.715999999999894 ], [ -64.753914529429792, -32.195430412121063, 1065.715999999999894 ], [ -64.753909160271107, -32.195487125663227, 1065.715999999999894 ], [ -64.753893390653545, -32.195562141889248, 1065.715999999999894 ], [ -64.753881637069568, -32.19560607804592, 1065.715999999999894 ], [ -64.753872567316265, -32.195662788827484, 1065.715999999999894 ] ] ] } },
{ "type": "Feature", "properties": { "FID": 9, "Manguera": "1/2''", "NivelRed": 2, "TipoRed": "Distribucion", "AcopioMadr": "Bavali" }, "geometry": { "type": "MultiLineString", "coordinates": [ [ [ -64.752947034286052, -32.190482627055225, 1045.965 ], [ -64.753004795559121, -32.19052733044677, 1045.965 ], [ -64.753085746257881, -32.190590357562463, 1045.965 ], [ -64.753150188659774, -32.190640107420066, 1045.965 ], [ -64.753203585254766, -32.190683329484138, 1045.965 ], [ -64.753378009554169, -32.190885152281339, 1045.965 ] ] ] } },
{ "type": "Feature", "properties": { "FID": 10, "Manguera": "1''", "NivelRed": 1, "TipoRed": "Distribucion", "AcopioMadr": "Bavali" }, "geometry": { "type": "MultiLineString", "coordinates": [ [ [ -64.753292450620478, -32.191387949126131, 1027.068 ], [ -64.753409411120302, -32.1910220769849, 1027.068 ], [ -64.753396209285853, -32.190982192551232, 1027.068 ], [ -64.753203585254766, -32.190683329484138, 1027.068 ], [ -64.753150188659774, -32.190640107420066, 1027.068 ], [ -64.753085746257881, -32.190590357562463, 1027.068 ], [ -64.753004795559121, -32.19052733044677, 1027.068 ], [ -64.752947034286052, -32.190482627055225, 1027.068 ] ] ] } },
{ "type": "Feature", "properties": { "FID": 11, "Manguera": "3/4''", "NivelRed": 2, "TipoRed": "Distribucion", "AcopioMadr": "Bavali" }, "geometry": { "type": "MultiLineString", "coordinates": [ [ [ -64.753872567316265, -32.195662788827484, 1065.715999999999894 ], [ -64.75374548363159, -32.196143658336723, 298.556577527827528 ], [ -64.753742636322329, -32.196335450795786, 0.0 ], [ -64.753701450613121, -32.196808328237005, 0.0 ], [ -64.753619808349711, -32.197043671285016, 661.658589688027405 ], [ -64.753661624957559, -32.197246649590944, 1051.108 ], [ -64.753666439073669, -32.197284792977776, 1050.255000000000109 ], [ -64.753731717227154, -32.197669072592667, 1048.022 ], [ -64.753732198022178, -32.197699657495633, 1047.892 ], [ -64.753746047425551, -32.197778752813093, 1048.205 ], [ -64.7537455047284, -32.197859337081681, 1047.714 ], [ -64.753729524775252, -32.197924519643948, 1047.109 ], [ -64.753710718187989, -32.197971700232429, 1046.659000000000106 ], [ -64.753624633891192, -32.198171228120295, 0.0 ], [ -64.753611783242803, -32.198317926692532, 0.0 ], [ -64.753616011533765, -32.198402228219571, 0.0 ], [ -64.753571327679737, -32.198522728299487, 0.0 ], [ -64.753552404931227, -32.198625110995096, 0.0 ], [ -64.753564463760085, -32.198709303902682, 0.0 ], [ -64.753565783782335, -32.198778105736011, 0.0 ], [ -64.753520631315709, -32.198874192246315, 0.0 ], [ -64.75348481966077, -32.198923893723993, 1042.73 ] ] ] } },
{ "type": "Feature", "properties": { "FID": 13, "Manguera": "1''", "NivelRed": 1, "TipoRed": "Distribucion", "AcopioMadr": "Bavali" }, "geometry": { "type": "MultiLineString", "coordinates": [ [ [ -64.753677842227276, -32.19477990875999, 0.0 ], [ -64.753255066849704, -32.194083241985446, 0.0 ], [ -64.753254958112819, -32.19403058051401, 0.0 ], [ -64.753254977700706, -32.19401888637411, 0.0 ], [ -64.752850521643794, -32.192984587643963, 0.0 ], [ -64.752891000332426, -32.192223519051502, 1048.358 ] ] ] } },
{ "type": "Feature", "properties": { "FID": 12, "Manguera": "1/2''", "NivelRed": 2, "TipoRed": "Distribucion", "AcopioMadr": "Bavali" }, "geometry": { "type": "MultiLineString", "coordinates": [ [ [ -64.75348481966077, -32.198923893723993, 1042.73 ], [ -64.75351905872084, -32.198939927250507, 1042.73 ], [ -64.753572092767556, -32.198987193234352, 1042.73 ], [ -64.753740561158779, -32.199081066857836, 1042.73 ], [ -64.753741155507555, -32.199086621535272, 1042.73 ], [ -64.753723986323649, -32.199112492437877, 1042.73 ], [ -64.753732687725574, -32.199175826912288, 1042.73 ] ] ] } },
{ "type": "Feature", "properties": { "FID": null, "Manguera": "1 1/4''", "NivelRed": 0, "TipoRed": "Abastecimiento", "AcopioMadr": "Dique Vale" }, "geometry": { "type": "MultiLineString", "coordinates": [ [ [ -64.746398309192401, -32.201976409297686, 0.0 ], [ -64.74685916778455, -32.201499400086284, 0.0 ], [ -64.74705302834559, -32.201533351144327, 0.0 ], [ -64.747132865000268, -32.201475637573054, 0.0 ], [ -64.74722422466327, -32.201474374866308, 0.0 ], [ -64.747398327625675, -32.20156742865688, 0.0 ], [ -64.747513774019126, -32.201596912880738, 0.0 ], [ -64.747655875034596, -32.201654888585537, 0.0 ], [ -64.747691426843033, -32.201704902226496, 0.0 ], [ -64.747823187861826, -32.201802425807898, 0.0 ], [ -64.747960864343227, -32.201765557052752, 0.0 ], [ -64.748013998270835, -32.201710987171964, 0.0 ], [ -64.748005137983526, -32.201657274532067, 0.0 ], [ -64.748070548735754, -32.20163028494779, 0.0 ], [ -64.748025653709519, -32.201535445481667, 0.0 ], [ -64.748530178887137, -32.201430787625313, 0.0 ], [ -64.748561522116972, -32.201294933694093, 0.0 ], [ -64.748759030378153, -32.201110161051631, 0.0 ], [ -64.748932176638007, -32.201016745422308, 0.0 ], [ -64.749224823148921, -32.201028236348129, 0.0 ], [ -64.749456796429655, -32.201007266187702, 0.0 ], [ -64.749771047374225, -32.201056196956635, 0.0 ], [ -64.750097627408323, -32.201067216152694, 0.0 ], [ -64.750364103787291, -32.200939206385435, 0.0 ], [ -64.750472476416192, -32.200735685266054, 0.0 ], [ -64.750794000002244, -32.200313999999594, 0.0 ], [ -64.750865740573161, -32.200265345572319, 1017.685 ], [ -64.751030821295771, -32.200306151512159, 1018.583872510446099 ], [ -64.751432744295471, -32.200025302983519, 1021.303956250191504 ], [ -64.751708690475553, -32.199548636933102, 1024.874 ], [ -64.751729797270642, -32.19952015159862, 1025.18 ], [ -64.751755886192242, -32.199501787876002, 0.0 ] ] ] } },
{ "type": "Feature", "properties": { "FID": null, "Manguera": "1 1/4''", "NivelRed": 0, "TipoRed": "Abastecimiento", "AcopioMadr": "Cisterna" }, "geometry": { "type": "MultiLineString", "coordinates": [ [ [ -64.74884617307319, -32.197582080645446, 1008.082 ], [ -64.748884188992392, -32.197557833399728, 1007.605 ], [ -64.748936637175149, -32.197541951773161, 1007.482 ], [ -64.749040819642488, -32.197382201132903, 0.0 ], [ -64.74926300000223, -32.197026999999586, 0.0 ], [ -64.749287671945652, -32.196774943667954, 0.0 ], [ -64.74927387595514, -32.196599753968165, 0.0 ], [ -64.749325398972914, -32.196374757933157, 1020.95 ], [ -64.749320947826845, -32.196248887940669, 0.0 ] ] ] } },
{ "type": "Feature", "properties": { "FID": null, "Manguera": "1''", "NivelRed": 2, "TipoRed": "Distribucion", "AcopioMadr": "Cisterna" }, "geometry": { "type": "MultiLineString", "coordinates": [ [ [ -64.751755886192242, -32.199501787876002, 0.0 ], [ -64.751721521758213, -32.199519388261713, 1025.18 ], [ -64.751700979550449, -32.19954308648564, 1024.874 ], [ -64.751432744295471, -32.200025302983519, 0.0 ], [ -64.751030821295771, -32.200306151512159, 0.0 ], [ -64.750865740573161, -32.200265345572319, 1017.685 ], [ -64.750840770633118, -32.200295886282063, 1017.61 ], [ -64.750739680327001, -32.20034490029547, 1016.08 ], [ -64.75072933669486, -32.200356818555349, 1015.776 ], [ -64.750723148585067, -32.20036203440845, 1015.698 ], [ -64.750438104922466, -32.200729648747696, 1008.251918973469401 ], [ -64.750364103787291, -32.200939206385435, 1004.965276735111843 ], [ -64.750094712697333, -32.201059851973284, 1001.214499152122357 ], [ -64.749770354515007, -32.201053952278869, 997.228761278219622 ], [ -64.749351471818528, -32.200992647859756, 992.007 ], [ -64.749224823148921, -32.201028236348129, 0.0 ], [ -64.748932176638007, -32.201016745422308, 0.0 ], [ -64.748899127785549, -32.201034253849748, 0.0 ], [ -64.748759030378153, -32.201110161051631, 0.0 ], [ -64.748561522116972, -32.201294933694093, 0.0 ], [ -64.748530178887137, -32.201430787625313, 0.0 ], [ -64.748025653709519, -32.201535445481667, 0.0 ] ] ] } },
{ "type": "Feature", "properties": { "FID": null, "Manguera": "1''", "NivelRed": 2, "TipoRed": "Distribucion", "AcopioMadr": "Cisterna" }, "geometry": { "type": "MultiLineString", "coordinates": [ [ [ -64.748899127785549, -32.201034253849748, 0.0 ], [ -64.748913181218455, -32.201165951769219, 991.346 ], [ -64.748939198697343, -32.2011928745031, 993.119 ], [ -64.748959130738868, -32.201212100540126, 993.626 ], [ -64.74903467434396, -32.201278126035731, 996.542 ], [ -64.749046044220179, -32.201297650844957, 997.005 ] ] ] } },
{ "type": "Feature", "properties": { "FID": null, "Manguera": "1''", "NivelRed": 2, "TipoRed": "Distribucion", "AcopioMadr": "Bavali" }, "geometry": { "type": "MultiLineString", "coordinates": [ [ [ -64.753565783782335, -32.198778105736011, 0.0 ], [ -64.753497085501195, -32.19880548667804, 1040.975 ], [ -64.753453422969145, -32.198815036253514, 1040.727 ] ] ] } },
{ "type": "Feature", "properties": { "FID": null, "Manguera": "1''", "NivelRed": 2, "TipoRed": "Distribucion", "AcopioMadr": "Cisterna" }, "geometry": { "type": "MultiLineString", "coordinates": [ [ [ -64.749335813380512, -32.19635074032653, 1020.817 ], [ -64.749311092985337, -32.196340551585578, 1021.33 ], [ -64.749264706452038, -32.196326848819041, 1021.886 ], [ -64.749200627124921, -32.196306709908946, 1022.312 ], [ -64.749131989160674, -32.196277744166956, 1022.913 ], [ -64.74904700765957, -32.196221974243642, 1022.444 ], [ -64.748819510956238, -32.196176903340529, 1018.194 ] ] ] } },
{ "type": "Feature", "properties": { "FID": null, "Manguera": "1/2''", "NivelRed": 2, "TipoRed": "Distribucion", "AcopioMadr": "Cisterna" }, "geometry": { "type": "MultiLineString", "coordinates": [ [ [ -64.75072933669486, -32.200356818555349, 1015.776 ], [ -64.750730516944387, -32.200373040182122, 1015.647 ], [ -64.750745512416742, -32.200400809423854, 1015.306 ], [ -64.750891289544356, -32.200484767833402, 1017.844 ], [ -64.75092292152803, -32.200470426907906, 1018.057 ] ] ] } },
{ "type": "Feature", "properties": { "FID": null, "Manguera": "1/2''", "NivelRed": 2, "TipoRed": "Distribucion", "AcopioMadr": "Cisterna" }, "geometry": { "type": "MultiLineString", "coordinates": [ [ [ -64.748939176115286, -32.201192802686805, 993.117 ], [ -64.748959130738868, -32.201212100540126, 993.626 ], [ -64.749040258480136, -32.201275695574715, 996.546 ], [ -64.74906082443502, -32.201304217427662, 997.092 ] ] ] } },
{ "type": "Feature", "properties": { "FID": null, "Manguera": "1/2''", "NivelRed": 2, "TipoRed": "Distribucion", "AcopioMadr": "Cisterna" }, "geometry": { "type": "MultiLineString", "coordinates": [ [ [ -64.748899127785549, -32.201034253849748, 0.0 ], [ -64.748913149932804, -32.201165979250327, 991.346 ], [ -64.748939198697343, -32.2011928745031, 993.119 ] ] ] } },
{ "type": "Feature", "properties": { "FID": null, "Manguera": "1/2''", "NivelRed": 2, "TipoRed": "Distribucion", "AcopioMadr": "Cisterna" }, "geometry": { "type": "MultiLineString", "coordinates": [ [ [ -64.750848176602062, -32.199118822614288, 0.0 ], [ -64.750837663909167, -32.199135712142777, 1006.007 ], [ -64.750792499813571, -32.199156019764239, 1006.507 ] ] ] } },
{ "type": "Feature", "properties": { "FID": null, "Manguera": "1''", "NivelRed": 2, "TipoRed": "Distribucion", "AcopioMadr": "Cisterna" }, "geometry": { "type": "MultiLineString", "coordinates": [ [ [ -64.748025653709519, -32.201535445481667, 0.0 ], [ -64.747906827829283, -32.20156816864224, 0.0 ], [ -64.747868299638739, -32.201533181261112, 0.0 ], [ -64.747789142419066, -32.201489875588472, 0.0 ], [ -64.747688610058447, -32.201464478275163, 972.09 ] ] ] } },
{ "type": "Feature", "properties": { "FID": null, "Manguera": "1''", "NivelRed": 2, "TipoRed": "Distribucion", "AcopioMadr": "Cisterna" }, "geometry": { "type": "MultiLineString", "coordinates": [ [ [ -64.751700979550449, -32.19954308648564, 1024.874 ], [ -64.751663986470916, -32.199528771827566, 1024.267 ] ] ] } },
{ "type": "Feature", "properties": { "FID": null, "Manguera": "1 1/4''", "NivelRed": 0, "TipoRed": "Abastecimiento", "AcopioMadr": "Cisterna" }, "geometry": { "type": "MultiLineString", "coordinates": [ [ [ -64.751755886192242, -32.199501787876002, 0.0 ], [ -64.751526699069544, -32.199410264220923, 1019.807 ], [ -64.751500581930642, -32.19938977186905, 1018.917 ], [ -64.751474667319471, -32.199368780820706, 1017.643 ], [ -64.75123300000223, -32.199220999999589, 0.0 ], [ -64.751137921945627, -32.199184675154569, 0.0 ], [ -64.750584617971398, -32.199059137994446, 0.0 ], [ -64.749011659493419, -32.197673441434972, 1005.351 ], [ -64.748943953506355, -32.197624519123224, 1006.075 ], [ -64.748911629089832, -32.197587675741509, 1006.939 ], [ -64.748879556294511, -32.197568969251513, 1007.589 ], [ -64.74884617307319, -32.197582080645446, 1008.082 ] ] ] } },
{ "type": "Feature", "properties": { "FID": null, "Manguera": "1''", "NivelRed": 2, "TipoRed": "Distribucion", "AcopioMadr": "Cisterna" }, "geometry": { "type": "MultiLineString", "coordinates": [ [ [ -64.751137921945627, -32.199184675154569, 0.0 ], [ -64.751177091261454, -32.199048712221277, 0.0 ], [ -64.751372447015086, -32.198888385527084, 0.0 ], [ -64.751836000002243, -32.198695999999586, 0.0 ], [ -64.751921000002227, -32.198499999999584, 0.0 ], [ -64.751569948981725, -32.19829512768635, 0.0 ], [ -64.751267455660752, -32.19804179776402, 0.0 ], [ -64.751297153107501, -32.197451877258736, 1020.929 ] ] ] } },
{ "type": "Feature", "properties": { "FID": null, "Manguera": "1''", "NivelRed": 2, "TipoRed": "Distribucion", "AcopioMadr": "Cisterna" }, "geometry": { "type": "MultiLineString", "coordinates": [ [ [ -64.748561522116972, -32.201294933694093, 0.0 ], [ -64.748500871921621, -32.201327246036868, 986.468 ] ] ] } },
{ "type": "Feature", "properties": { "FID": null, "Manguera": "1''", "NivelRed": 2, "TipoRed": "Distribucion", "AcopioMadr": "Bavali" }, "geometry": { "type": "MultiLineString", "coordinates": [ [ [ -64.753710718187989, -32.197971700232429, 1046.659000000000106 ], [ -64.753595257678498, -32.198010421084504, 1042.403 ] ] ] } },
{ "type": "Feature", "properties": { "FID": null, "Manguera": "1''", "NivelRed": 2, "TipoRed": "Distribucion", "AcopioMadr": "Bavali" }, "geometry": { "type": "MultiLineString", "coordinates": [ [ [ -64.753644751853471, -32.197160000585342, 0.0 ], [ -64.753604932481437, -32.197171682850019, 1051.784000000000106 ] ] ] } },
{ "type": "Feature", "properties": { "FID": null, "Manguera": "1''", "NivelRed": 2, "TipoRed": "Distribucion", "AcopioMadr": "Bavali" }, "geometry": { "type": "MultiLineString", "coordinates": [ [ [ -64.753718064833066, -32.196621788403633, 0.0 ], [ -64.753690587290976, -32.196627347697252, 1054.833 ] ] ] } },
{ "type": "Feature", "properties": { "FID": null, "Manguera": "1''", "NivelRed": 2, "TipoRed": "Distribucion", "AcopioMadr": "Bavali" }, "geometry": { "type": "MultiLineString", "coordinates": [ [ [ -64.753796895117361, -32.195949603223852, 0.0 ], [ -64.753764571199696, -32.195952801763205, 1060.984 ] ] ] } },
{ "type": "Feature", "properties": { "FID": null, "Manguera": "1/2''", "NivelRed": 2, "TipoRed": "Distribucion", "AcopioMadr": "Bavali" }, "geometry": { "type": "MultiLineString", "coordinates": [ [ [ -64.753684926803587, -32.194787890027847, 0.0 ], [ -64.753213868414505, -32.194774562947231, 1061.792999999999893 ] ] ] } },
{ "type": "Feature", "properties": { "FID": null, "Manguera": "1/2''", "NivelRed": 2, "TipoRed": "Distribucion", "AcopioMadr": "Bavali" }, "geometry": { "type": "MultiLineString", "coordinates": [ [ [ -64.75426583620029, -32.194811731758605, 1058.73 ], [ -64.754266112713296, -32.194771994028429, 1057.475 ], [ -64.754248898776865, -32.194763992181741, 1057.25 ] ] ] } },
{ "type": "Feature", "properties": { "FID": null, "Manguera": "1/2''", "NivelRed": 2, "TipoRed": "Distribucion", "AcopioMadr": "Bavali" }, "geometry": { "type": "MultiLineString", "coordinates": [ [ [ -64.75426583620029, -32.194811731758605, 1058.73 ], [ -64.75427509563437, -32.194768235899765, 1057.375 ] ] ] } },
{ "type": "Feature", "properties": { "FID": null, "Manguera": "1/2''", "NivelRed": 2, "TipoRed": "Distribucion", "AcopioMadr": "Bavali" }, "geometry": { "type": "MultiLineString", "coordinates": [ [ [ -64.754071813776505, -32.193479637118756, 1051.411 ], [ -64.754051795929726, -32.193416666982287, 1049.535 ], [ -64.754074425022182, -32.193419003758386, 1049.387 ] ] ] } },
{ "type": "Feature", "properties": { "FID": null, "Manguera": "1/2''", "NivelRed": 2, "TipoRed": "Distribucion", "AcopioMadr": "Bavali" }, "geometry": { "type": "MultiLineString", "coordinates": [ [ [ -64.754071813776505, -32.193479637118756, 1051.411 ], [ -64.754071083883289, -32.19343828143051, 1049.532 ] ] ] } },
{ "type": "Feature", "properties": { "FID": null, "Manguera": "Cano", "NivelRed": null, "TipoRed": null, "AcopioMadr": "DiqueNogales" }, "geometry": { "type": "MultiLineString", "coordinates": [ [ [ -64.743634358306053, -32.193062149377162, 950.29 ], [ -64.743620897378761, -32.193077409957631, 950.103 ], [ -64.743593107584289, -32.193118573079069, 950.325 ], [ -64.743501088351366, -32.193173244507037, 950.144 ], [ -64.743446591294656, -32.193198925571409, 949.729 ] ] ] } },
{ "type": "Feature", "properties": { "FID": null, "Manguera": "Vado", "NivelRed": null, "TipoRed": null, "AcopioMadr": null }, "geometry": { "type": "MultiLineString", "coordinates": [ [ [ -64.742631845240552, -32.193494544386013, 947.912 ], [ -64.7426276094955, -32.193525978840739, 947.97 ] ] ] } },
{ "type": "Feature", "properties": { "FID": null, "Manguera": "Tubo", "NivelRed": null, "TipoRed": null, "AcopioMadr": null }, "geometry": { "type": "MultiLineString", "coordinates": [ [ [ -64.744890544042065, -32.193368487983186, 959.093 ], [ -64.744890646602784, -32.193368306245553, 959.091 ] ] ] } },
{ "type": "Feature", "properties": { "FID": null, "Manguera": "Dique", "NivelRed": null, "TipoRed": null, "AcopioMadr": null }, "geometry": { "type": "MultiLineString", "coordinates": [ [ [ -64.743683262516996, -32.193082347212339, 952.06 ], [ -64.743679455516101, -32.193062861804897, 951.945 ], [ -64.743676514251291, -32.193049297058351, 951.769 ], [ -64.743670284712209, -32.193035660452757, 951.758 ], [ -64.743660616730267, -32.193024640859704, 951.726 ], [ -64.743648364785344, -32.193014342126745, 951.77 ], [ -64.743633900859564, -32.193005922201365, 951.746 ], [ -64.743619479513015, -32.192999178683678, 951.836 ], [ -64.743581543583403, -32.192987016189875, 952.168 ] ] ] } },
{ "type": "Feature", "properties": { "FID": null, "Manguera": "3/4''", "NivelRed": 2, "TipoRed": "Distribucion", "AcopioMadr": "Rotonda" }, "geometry": { "type": "MultiLineString", "coordinates": [ [ [ -64.739737561203711, -32.19304291962429, 0.0 ], [ -64.738856643594005, -32.192993023303018, 0.0 ], [ -64.73823605975673, -32.193022954005151, 250.156534869241938 ], [ -64.738465499790109, -32.192335949750188, 0.0 ], [ -64.738468515438555, -32.192202320061298, 154.258379722801124 ], [ -64.738438350719392, -32.192128883864832, 244.023854454249744 ], [ -64.738456716546835, -32.192010008222091, 379.657945597099456 ], [ -64.738538305061866, -32.191961806358229, 463.314404908056929 ], [ -64.738573655518906, -32.191765615202463, 635.726119895395527 ], [ -64.738472748802167, -32.191597145496601, 786.446083163399408 ], [ -64.738237660269235, -32.191539273402938, 952.356 ], [ -64.738212433479433, -32.191524067409723, 953.109 ] ] ] } },
{ "type": "Feature", "properties": { "FID": null, "Manguera": "1/2''", "NivelRed": null, "TipoRed": null, "AcopioMadr": null }, "geometry": { "type": "MultiLineString", "coordinates": [ [ [ -64.743168541127304, -32.192371564135016, 981.448 ], [ -64.743121876531319, -32.192354247414833, 981.888 ], [ -64.743025321280015, -32.192245972331825, 0.0 ], [ -64.742552642983199, -32.192165713124332, 0.0 ], [ -64.74239557208999, -32.192183571175292, 0.0 ], [ -64.741859963834457, -32.192126447259021, 0.0 ] ] ] } },
{ "type": "Feature", "properties": { "FID": null, "Manguera": "1/2''", "NivelRed": null, "TipoRed": null, "AcopioMadr": null }, "geometry": { "type": "MultiLineString", "coordinates": [ [ [ -64.742256738908154, -32.191411816352463, 996.716 ], [ -64.742248498081835, -32.191409459495048, 996.381 ] ] ] } },
{ "type": "Feature", "properties": { "FID": null, "Manguera": "1/2''", "NivelRed": null, "TipoRed": null, "AcopioMadr": null }, "geometry": { "type": "MultiLineString", "coordinates": [ [ [ -64.742559489116204, -32.191386771782611, 1006.593 ], [ -64.742478883494769, -32.191411613111832, 1004.687 ], [ -64.742318992096841, -32.191413167436124, 1000.15 ], [ -64.742256738908154, -32.191411816352463, 996.716 ] ] ] } },
{ "type": "Feature", "properties": { "FID": null, "Manguera": "1/2''", "NivelRed": null, "TipoRed": null, "AcopioMadr": null }, "geometry": { "type": "MultiLineString", "coordinates": [ [ [ -64.742634503985741, -32.191375675890932, 1006.43 ], [ -64.742695717086448, -32.191370856069831, 1006.036 ], [ -64.742735194614866, -32.191374937193288, 1006.071 ] ] ] } },
{ "type": "Feature", "properties": { "FID": null, "Manguera": "1''", "NivelRed": null, "TipoRed": null, "AcopioMadr": null }, "geometry": { "type": "MultiLineString", "coordinates": [ [ [ -64.742735194614866, -32.191374937193288, 1006.071 ], [ -64.743280974945506, -32.191413125199361, 0.0 ], [ -64.743448055413026, -32.191720995081248, 336.682584519336558 ], [ -64.743512522689784, -32.192027510383312, 614.415621074406772 ], [ -64.743308291525267, -32.192311771846185, 981.452 ], [ -64.743215528199514, -32.192368536040881, 981.397 ], [ -64.743170855376832, -32.192371712549665, 981.46 ] ] ] } },
{ "type": "Feature", "properties": { "FID": null, "Manguera": "1''", "NivelRed": null, "TipoRed": null, "AcopioMadr": null }, "geometry": { "type": "MultiLineString", "coordinates": [ [ [ -64.743685495504451, -32.193107696767726, 952.497 ], [ -64.743683714293823, -32.193094359457362, 951.949 ] ] ] } },
{ "type": "Feature", "properties": { "FID": null, "Manguera": "1''", "NivelRed": null, "TipoRed": null, "AcopioMadr": null }, "geometry": { "type": "MultiLineString", "coordinates": [ [ [ -64.749272066543853, -32.196231068179316, 1025.321999999999889 ], [ -64.749270061722257, -32.196162321145273, 1024.903 ], [ -64.749262653817794, -32.196150883043394, 1024.513 ], [ -64.74918815556714, -32.196095785440271, 0.0 ], [ -64.749133483504792, -32.196055560968944, 0.0 ], [ -64.749055998635143, -32.196016191309518, 0.0 ], [ -64.748963793483085, -32.19600290791859, 0.0 ], [ -64.748865727855119, -32.195981617194064, 0.0 ], [ -64.748767801208757, -32.195934441794137, 0.0 ], [ -64.748644118337737, -32.195833700324648, 0.0 ], [ -64.74857208183596, -32.195780774437843, 0.0 ], [ -64.748554687524845, -32.195776897684084, 1021.22 ], [ -64.748480895741181, -32.195743431693458, 1020.478 ], [ -64.748213009142503, -32.195679317262467, 1016.787 ], [ -64.748132367234888, -32.195671876086152, 1015.895 ], [ -64.74789327229459, -32.195585210292634, 1016.777 ], [ -64.747760852320056, -32.195742773605126, 0.0 ], [ -64.747482817060089, -32.19585046966229, 0.0 ], [ -64.747069448375285, -32.196061350367707, 1013.114 ], [ -64.747066483626313, -32.196068225541794, 1013.152 ] ] ] } },
{ "type": "Feature", "properties": { "FID": null, "Manguera": "1''", "NivelRed": null, "TipoRed": null, "AcopioMadr": null }, "geometry": { "type": "MultiLineString", "coordinates": [ [ [ -64.748248445105588, -32.198751702097582, 998.485 ], [ -64.748232287616432, -32.198746281465439, 998.656 ], [ -64.748210123898247, -32.198742837270089, 998.796 ], [ -64.748190556220351, -32.198732090199222, 998.862 ] ] ] } },
{ "type": "Feature", "properties": { "FID": null, "Manguera": "1''", "NivelRed": null, "TipoRed": null, "AcopioMadr": null }, "geometry": { "type": "MultiLineString", "coordinates": [ [ [ -64.748132367234888, -32.195671876086152, 1015.895 ], [ -64.748177342239728, -32.195488714261401, 1018.345 ] ] ] } },
{ "type": "Feature", "properties": { "FID": null, "Manguera": "1''", "NivelRed": null, "TipoRed": null, "AcopioMadr": null }, "geometry": { "type": "MultiLineString", "coordinates": [ [ [ -64.748049204165881, -32.19378097945485, 983.524 ], [ -64.748029712598282, -32.193720922220102, 982.423 ], [ -64.747635177104911, -32.193535208132708, 978.171 ], [ -64.747354914681054, -32.193462229739858, 0.0 ], [ -64.747165107256748, -32.193551128540925, 0.0 ], [ -64.746973351614216, -32.193604465277829, 0.0 ], [ -64.746789873753983, -32.193626412434533, 0.0 ], [ -64.746576306620682, -32.19360024494673, 0.0 ], [ -64.746355596731135, -32.193532116371784, 0.0 ], [ -64.746123931922284, -32.193408982360566, 966.633 ], [ -64.74604529431646, -32.193388115868139, 0.0 ], [ -64.746026988009689, -32.19328568257832, 965.877 ], [ -64.746016100535613, -32.193274670997965, 965.755 ], [ -64.746009330390365, -32.193271608857721, 965.695 ], [ -64.746006323787626, -32.193269630771589, 965.658 ], [ -64.746009218614446, -32.193264090969151, 965.564 ], [ -64.746011512410192, -32.193251508872237, 965.578 ], [ -64.746005345941256, -32.193174019457054, 965.243 ], [ -64.745985493077455, -32.193145487166554, 964.962 ], [ -64.745945423517085, -32.193038280016779, 963.897 ], [ -64.745951304152285, -32.192984219379532, 963.969 ], [ -64.746039041187188, -32.192819789164503, 967.794 ], [ -64.746042515298953, -32.19279905823818, 968.63 ], [ -64.746016439305009, -32.192711159686574, 971.239 ], [ -64.745957491973954, -32.192615357139921, 972.459 ], [ -64.745934549027496, -32.192483308505153, 974.485 ], [ -64.74591167491468, -32.192454240887145, 974.428 ], [ -64.745844280866152, -32.192409144297947, 973.922 ], [ -64.745742671018434, -32.192392893811387, 974.692 ], [ -64.745707099338986, -32.192409595935132, 975.375 ] ] ] } },
{ "type": "Feature", "properties": { "FID": null, "Manguera": "1''", "NivelRed": 0, "TipoRed": "Abastecimiento", "AcopioMadr": "DiqueNogales" }, "geometry": { "type": "MultiLineString", "coordinates": [ [ [ -64.743656921941792, -32.193049395960401, 950.221 ], [ -64.743657075221279, -32.193051873276964, 950.412 ], [ -64.743585362159166, -32.192991543712878, 951.102 ], [ -64.7435681224988, -32.192982684205631, 952.258 ], [ -64.743607271849896, -32.192897182478895, 827.900622578820958 ], [ -64.743642963663959, -32.192719448162478, 590.10748802552223 ], [ -64.74360318787123, -32.192512291140083, 317.309941829708578 ], [ -64.743595408684783, -32.192445932636495, 233.145210335604588 ], [ -64.74352004690968, -32.192422047245998, 153.675931856821819 ], [ -64.743512003785838, -32.192341845335555, 65.155671786250949 ], [ -64.743464469365421, -32.192298528092955, 0.0 ], [ -64.743489088931113, -32.192164919228183, 0.0 ], [ -64.743545319522468, -32.192039520443586, 0.0 ], [ -64.743486783154154, -32.191702459886201, 0.0 ], [ -64.743295177757574, -32.191389389397614, 0.0 ], [ -64.742648383270335, -32.191394048773418, 1005.826 ], [ -64.742590767124611, -32.191376756562157, 1007.136 ] ] ] } },
{ "type": "Feature", "properties": { "FID": null, "Manguera": "1/2''", "NivelRed": null, "TipoRed": null, "AcopioMadr": null }, "geometry": { "type": "MultiLineString", "coordinates": [ [ [ -64.742252834935044, -32.191410589860702, 996.581 ], [ -64.742249081084438, -32.191413346423431, 996.405 ] ] ] } },
{ "type": "Feature", "properties": { "FID": null, "Manguera": "Dique", "NivelRed": null, "TipoRed": null, "AcopioMadr": null }, "geometry": { "type": "MultiLineString", "coordinates": [ [ [ -64.746348258741051, -32.201932686321619, 934.997 ], [ -64.746320132681063, -32.201942661308308, 934.976 ] ] ] } },
{ "type": "Feature", "properties": { "FID": null, "Manguera": "1''", "NivelRed": 1, "TipoRed": "Distribucion", "AcopioMadr": "Rotonda" }, "geometry": { "type": "MultiLineString", "coordinates": [ [ [ -64.748049204165881, -32.19378097945485, 983.524 ], [ -64.748037129885802, -32.193715680489234, 982.452 ], [ -64.747633041652321, -32.193533876219782, 978.234 ], [ -64.747354473955696, -32.193459297860343, 0.0 ], [ -64.747164279181391, -32.193547547137662, 0.0 ], [ -64.746973025039395, -32.193601683625062, 0.0 ], [ -64.746790140194719, -32.193623336770457, 0.0 ], [ -64.746579174083706, -32.193597518804687, 0.0 ], [ -64.746356405980691, -32.193529283894776, 0.0 ], [ -64.746125891538782, -32.193407152158343, 0.0 ], [ -64.746047743848223, -32.193386681999968, 0.0 ], [ -64.746029822620216, -32.193284980747343, 0.0 ], [ -64.746019025918272, -32.193273879141294, 0.0 ], [ -64.746009603058525, -32.193270763875105, 0.0 ], [ -64.746006323787626, -32.193269630771589, 965.658 ], [ -64.746002153506012, -32.193267235982788, 965.576 ], [ -64.745993428660512, -32.193258980510947, 965.538 ], [ -64.745453673014921, -32.193223059638832, 0.0 ], [ -64.744908229360988, -32.193284511017005, 0.0 ], [ -64.74423661558437, -32.193247405263932, 0.0 ], [ -64.743383353973172, -32.19332819464563, 0.0 ], [ -64.742586941559068, -32.193397410282032, 0.0 ], [ -64.741879608776429, -32.193304347103165, 949.665 ], [ -64.741668353220774, -32.193318139941383, 943.647 ], [ -64.741133299712203, -32.193110019186911, 0.0 ], [ -64.740631116124632, -32.193190784929449, 0.0 ], [ -64.739766383699802, -32.193045753988997, 0.0 ], [ -64.739737561203711, -32.19304291962429, 0.0 ], [ -64.739946505924706, -32.192786256376557, 0.0 ], [ -64.739860796784583, -32.192580463201544, 0.0 ], [ -64.739943250432248, -32.192413740861205, 0.0 ], [ -64.740089588388727, -32.192345261043876, 0.0 ], [ -64.740290410361865, -32.192401577701744, 0.0 ], [ -64.740456643068583, -32.192465755287856, 0.0 ], [ -64.7406643205492, -32.192425970766976, 0.0 ], [ -64.740792590012717, -32.192320813444063, 0.0 ], [ -64.740875900234002, -32.192135039044558, 0.0 ], [ -64.740907326234648, -32.191961056658812, 0.0 ], [ -64.740862156553902, -32.191869364955835, 0.0 ], [ -64.740882245918499, -32.191784159777384, 0.0 ], [ -64.74091136916735, -32.19171729293609, 0.0 ], [ -64.740809224739493, -32.191416986417615, 972.292 ] ] ] } },
{ "type": "Feature", "properties": { "FID": null, "Manguera": "1/2''", "NivelRed": 2, "TipoRed": "Distribucion", "AcopioMadr": "RoyAri" }, "geometry": { "type": "MultiLineString", "coordinates": [ [ [ -64.743308291525267, -32.192311771846185, 981.452 ], [ -64.743206968495215, -32.192425085909996, 979.715 ] ] ] } },
{ "type": "Feature", "properties": { "FID": null, "Manguera": "Cano", "NivelRed": 0, "TipoRed": "Abastecimiento", "AcopioMadr": "DiqueNogales" }, "geometry": { "type": "MultiLineString", "coordinates": [ [ [ -64.743660616730267, -32.193024640859704, 951.726 ], [ -64.744135144295313, -32.193030997581189, 954.777 ], [ -64.744911128394222, -32.193255141173609, 0.0 ], [ -64.745463724356966, -32.193231416173134, 0.0 ], [ -64.745988406232954, -32.193270212800819, 0.0 ], [ -64.746034570210966, -32.193289626097261, 965.918 ], [ -64.746049221312575, -32.193384995624804, 0.0 ], [ -64.746129402328748, -32.193405351155924, 0.0 ], [ -64.746359286442285, -32.193526453065765, 0.0 ], [ -64.746581247159384, -32.193595045300277, 0.0 ], [ -64.746790972436443, -32.193619841879624, 0.0 ], [ -64.746972162260377, -32.19360002957675, 0.0 ], [ -64.747162418787923, -32.193543397103703, 0.0 ], [ -64.747329086015981, -32.193466666008348, 0.0 ], [ -64.747599533896917, -32.193942034969169, 0.0 ], [ -64.747858556039915, -32.19420293238997, 0.0 ], [ -64.747915151970005, -32.19426723093958, 0.0 ], [ -64.747952992956556, -32.194287478297042, 0.0 ], [ -64.748178080428389, -32.194476839673719, 0.0 ], [ -64.748168174573436, -32.194535289381754, 999.121 ], [ -64.748167762209505, -32.194544221022348, 999.232 ], [ -64.748164613299323, -32.194707239578882, 1002.809 ], [ -64.748185365115233, -32.194883632112102, 1005.617 ], [ -64.748271792656382, -32.195122224981887, 0.0 ], [ -64.748372860951591, -32.195210115220839, 0.0 ], [ -64.748413206195139, -32.195346190720151, 0.0 ], [ -64.748508758946784, -32.195412888552376, 0.0 ], [ -64.748553877147558, -32.195531298362603, 0.0 ], [ -64.748629019166401, -32.195576415036854, 0.0 ], [ -64.748649755408337, -32.19561499640897, 0.0 ], [ -64.748671334744188, -32.19583048762496, 0.0 ], [ -64.748762968314381, -32.195938611556237, 0.0 ], [ -64.748860382344802, -32.195987113288524, 0.0 ], [ -64.749055653374526, -32.196022145003987, 0.0 ], [ -64.749126833760499, -32.196061316552161, 0.0 ], [ -64.749252112144006, -32.19615114658275, 0.0 ], [ -64.749263326524144, -32.196162761376101, 0.0 ], [ -64.749272066543853, -32.196231068179316, 1025.321999999999889 ], [ -64.749320947826845, -32.196248887940669, 0.0 ] ] ] } },
{ "type": "Feature", "properties": { "FID": null, "Manguera": "1''", "NivelRed": 2, "TipoRed": "Distribucion", "AcopioMadr": "Cisterna/Rotonda" }, "geometry": { "type": "MultiLineString", "coordinates": [ [ [ -64.749320947826845, -32.196248887940669, 0.0 ], [ -64.749343721891847, -32.196296363019925, 1021.326 ], [ -64.749343759818487, -32.196319398617547, 1021.056 ], [ -64.749335813380512, -32.19635074032653, 1020.817 ], [ -64.749328110321116, -32.196375727424048, 1020.95 ], [ -64.74927524910737, -32.196599966505296, 0.0 ], [ -64.749288746997252, -32.196775094384172, 0.0 ], [ -64.749267254584041, -32.197027208572806, 0.0 ], [ -64.74904485175756, -32.197384824364832, 0.0 ], [ -64.748937279477047, -32.197546191996416, 1007.482 ], [ -64.74884617307319, -32.197582080645446, 1008.082 ], [ -64.748843638951939, -32.197626420788517, 1007.727 ], [ -64.748842938703064, -32.197650782945907, 1007.41 ], [ -64.748842293206735, -32.197776097551319, 1005.481 ], [ -64.74884429290988, -32.197822421627457, 1005.572 ], [ -64.74881412030058, -32.198032418705409, 0.0 ], [ -64.748708442081565, -32.198183280083349, 0.0 ], [ -64.748567827448497, -32.19837470740714, 0.0 ], [ -64.748278344005783, -32.198715503741759, 999.228 ], [ -64.748267372964207, -32.198727890303147, 999.053 ], [ -64.748248445105588, -32.198751702097582, 998.485 ], [ -64.748068573571189, -32.198902891876678, 997.367 ], [ -64.748030474248608, -32.198935570089986, 995.943 ], [ -64.748005237710885, -32.198967727824495, 995.556 ], [ -64.747992489392928, -32.198989759110347, 995.62 ], [ -64.747967984525957, -32.19901249391846, 995.369 ], [ -64.747923597629438, -32.199036324089171, 993.82 ], [ -64.747866286521855, -32.199066337656475, 993.476 ], [ -64.747741937267321, -32.199166665894801, 991.386 ], [ -64.747698055106014, -32.199193608579222, 990.563 ], [ -64.74766319620656, -32.19921775774224, 990.172 ], [ -64.746982121476137, -32.199416716870132, 985.09 ] ] ] } },
{ "type": "Feature", "properties": { "FID": null, "Manguera": "1/2''", "NivelRed": 2, "TipoRed": "Distribucion", "AcopioMadr": "Rotonda" }, "geometry": { "type": "MultiLineString", "coordinates": [ [ [ -64.74762928001536, -32.199230924853815, 0.0 ], [ -64.747595341476071, -32.19932970781381, 0.0 ], [ -64.747605000002196, -32.199451999999582, 0.0 ], [ -64.747631869382673, -32.199545853724345, 985.792 ] ] ] } },
{ "type": "Feature", "properties": { "FID": null, "Manguera": "1''", "NivelRed": 1, "TipoRed": "Abastecimiento", "AcopioMadr": "Rotonda" }, "geometry": { "type": "MultiLineString", "coordinates": [ [ [ -64.749272066543853, -32.196231068179316, 1025.321999999999889 ], [ -64.749276438664978, -32.196163185754223, 0.0 ], [ -64.749259767613609, -32.196142992080325, 0.0 ], [ -64.74913917312621, -32.196053270340698, 0.0 ], [ -64.749061060381266, -32.196013502357538, 0.0 ], [ -64.748963793483085, -32.19600290791859, 0.0 ], [ -64.748868191680415, -32.195976360365528, 0.0 ], [ -64.748770817384084, -32.195929935141663, 0.0 ], [ -64.748682145407841, -32.195827655233344, 0.0 ], [ -64.748649755408337, -32.19561499640897, 0.0 ], [ -64.748629019166401, -32.195576415036854, 0.0 ], [ -64.7485513126027, -32.195532532871361, 0.0 ], [ -64.748499235196462, -32.195417197820575, 0.0 ], [ -64.748406722469227, -32.195348203655129, 0.0 ], [ -64.74836179927874, -32.195213124142022, 0.0 ], [ -64.748261854866286, -32.195124500634563, 0.0 ], [ -64.748159488243857, -32.194880823922524, 0.0 ], [ -64.748178944630169, -32.194706082443851, 0.0 ], [ -64.748049204165881, -32.19378097945485, 983.524 ] ] ] } },
{ "type": "Feature", "properties": { "FID": null, "Manguera": "1''", "NivelRed": null, "TipoRed": null, "AcopioMadr": null }, "geometry": { "type": "MultiLineString", "coordinates": [ [ [ -64.748049204165881, -32.19378097945485, 983.524 ], [ -64.748004592430348, -32.193795138450078, 983.945 ], [ -64.747659268878508, -32.193909674458077, 984.645 ], [ -64.747462095777607, -32.193962394179763, 984.61 ], [ -64.747312327103003, -32.194083269339394, 985.924 ], [ -64.74725300454358, -32.194177649291952, 986.273 ], [ -64.747179613873087, -32.194316528760041, 987.84 ] ] ] } }
]
}
