{
"type": "FeatureCollection",
"name": "puntos",
"crs": { "type": "name", "properties": { "name": "urn:ogc:def:crs:OGC:1.3:CRS84" } },
"xy_coordinate_resolution": 1e-15,
"features": [
{ "type": "Feature", "properties": { "FID": 23, "Descripcio": "TanqCasa", "Fecha": "20260731", "ID foto": "23-20260731", "NivelRed": null, "LoteNro": null, "Propietari": null, "TipoRed": null, "Litros": null, "Barrio": null, "Nombre_Ref": null, "Disponibil": null, "Acople": null, "Observacio": null, "Campana_Fe": null, "layer": "20260731-nogalesaltobajo_relev", "path": "C:/Users/julia/Documents/00_AgrimensuraUme/Cooperativa de Agua UMEPAY/shp/20260731-nogalesaltobajo_relev.shp" }, "geometry": { "type": "Point", "coordinates": [ -64.748184552558527, -32.198729765924497, 998.962 ] } },
{ "type": "Feature", "properties": { "FID": 27, "Descripcio": "T", "Fecha": "20260731", "ID foto": null, "NivelRed": null, "LoteNro": null, "Propietari": null, "TipoRed": null, "Litros": null, "Barrio": null, "Nombre_Ref": null, "Disponibil": null, "Acople": null, "Observacio": null, "Campana_Fe": null, "layer": "20260731-nogalesaltobajo_relev", "path": "C:/Users/julia/Documents/00_AgrimensuraUme/Cooperativa de Agua UMEPAY/shp/20260731-nogalesaltobajo_relev.shp" }, "geometry": { "type": "Point", "coordinates": [ -64.748248445105588, -32.198751702097582, 998.485 ] } },
{ "type": "Feature", "properties": { "FID": 52, "Descripcio": "TanqCasa", "Fecha": "20260731", "ID foto": "52-20260731", "NivelRed": null, "LoteNro": null, "Propietari": null, "TipoRed": null, "Litros": null, "Barrio": null, "Nombre_Ref": null, "Disponibil": null, "Acople": null, "Observacio": null, "Campana_Fe": null, "layer": "20260731-nogalesaltobajo_relev", "path": "C:/Users/julia/Documents/00_AgrimensuraUme/Cooperativa de Agua UMEPAY/shp/20260731-nogalesaltobajo_relev.shp" }, "geometry": { "type": "Point", "coordinates": [ -64.747631869382673, -32.199545853724345, 985.792 ] } },
{ "type": "Feature", "properties": { "FID": 63, "Descripcio": "TanqCasa", "Fecha": "20260731", "ID foto": "63-20260731", "NivelRed": null, "LoteNro": null, "Propietari": null, "TipoRed": null, "Litros": null, "Barrio": null, "Nombre_Ref": null, "Disponibil": null, "Acople": null, "Observacio": null, "Campana_Fe": null, "layer": "20260731-nogalesaltobajo_relev", "path": "C:/Users/julia/Documents/00_AgrimensuraUme/Cooperativa de Agua UMEPAY/shp/20260731-nogalesaltobajo_relev.shp" }, "geometry": { "type": "Point", "coordinates": [ -64.746926212391458, -32.199401945729711, 984.548 ] } },
{ "type": "Feature", "properties": { "FID": 64, "Descripcio": "TanqCasa", "Fecha": "20260731", "ID foto": null, "NivelRed": null, "LoteNro": null, "Propietari": null, "TipoRed": null, "Litros": null, "Barrio": null, "Nombre_Ref": null, "Disponibil": null, "Acople": null, "Observacio": null, "Campana_Fe": null, "layer": "20260731-nogalesaltobajo_relev", "path": "C:/Users/julia/Documents/00_AgrimensuraUme/Cooperativa de Agua UMEPAY/shp/20260731-nogalesaltobajo_relev.shp" }, "geometry": { "type": "Point", "coordinates": [ -64.746982017018254, -32.199416799458511, 985.097 ] } },
{ "type": "Feature", "properties": { "FID": 65, "Descripcio": "TanqCasa", "Fecha": "20260731", "ID foto": "65-20260731", "NivelRed": null, "LoteNro": null, "Propietari": null, "TipoRed": null, "Litros": null, "Barrio": null, "Nombre_Ref": null, "Disponibil": null, "Acople": null, "Observacio": null, "Campana_Fe": null, "layer": "20260731-nogalesaltobajo_relev", "path": "C:/Users/julia/Documents/00_AgrimensuraUme/Cooperativa de Agua UMEPAY/shp/20260731-nogalesaltobajo_relev.shp" }, "geometry": { "type": "Point", "coordinates": [ -64.746982121476137, -32.199416716870132, 985.09 ] } },
{ "type": "Feature", "properties": { "FID": 90, "Descripcio": "T", "Fecha": "20260731", "ID foto": null, "NivelRed": null, "LoteNro": null, "Propietari": null, "TipoRed": null, "Litros": null, "Barrio": null, "Nombre_Ref": null, "Disponibil": null, "Acople": null, "Observacio": null, "Campana_Fe": null, "layer": "20260731-nogalesaltobajo_relev", "path": "C:/Users/julia/Documents/00_AgrimensuraUme/Cooperativa de Agua UMEPAY/shp/20260731-nogalesaltobajo_relev.shp" }, "geometry": { "type": "Point", "coordinates": [ -64.748132367234888, -32.195671876086152, 1015.895 ] } },
{ "type": "Feature", "properties": { "FID": 91, "Descripcio": "TanqCasa", "Fecha": "20260731", "ID foto": "91-20260731", "NivelRed": null, "LoteNro": null, "Propietari": null, "TipoRed": null, "Litros": null, "Barrio": null, "Nombre_Ref": null, "Disponibil": null, "Acople": null, "Observacio": null, "Campana_Fe": null, "layer": "20260731-nogalesaltobajo_relev", "path": "C:/Users/julia/Documents/00_AgrimensuraUme/Cooperativa de Agua UMEPAY/shp/20260731-nogalesaltobajo_relev.shp" }, "geometry": { "type": "Point", "coordinates": [ -64.748177342239728, -32.195488714261401, 1018.345 ] } },
{ "type": "Feature", "properties": { "FID": 92, "Descripcio": "TanqCasa", "Fecha": "20260731", "ID foto": "92-20260731", "NivelRed": null, "LoteNro": null, "Propietari": null, "TipoRed": null, "Litros": null, "Barrio": null, "Nombre_Ref": null, "Disponibil": null, "Acople": null, "Observacio": null, "Campana_Fe": null, "layer": "20260731-nogalesaltobajo_relev", "path": "C:/Users/julia/Documents/00_AgrimensuraUme/Cooperativa de Agua UMEPAY/shp/20260731-nogalesaltobajo_relev.shp" }, "geometry": { "type": "Point", "coordinates": [ -64.74789327229459, -32.195585210292634, 1016.777 ] } },
{ "type": "Feature", "properties": { "FID": 122, "Descripcio": "TanqCasa", "Fecha": "20260731", "ID foto": "122-20260731", "NivelRed": null, "LoteNro": null, "Propietari": null, "TipoRed": null, "Litros": null, "Barrio": null, "Nombre_Ref": null, "Disponibil": null, "Acople": null, "Observacio": null, "Campana_Fe": null, "layer": "20260731-nogalesaltobajo_relev", "path": "C:/Users/julia/Documents/00_AgrimensuraUme/Cooperativa de Agua UMEPAY/shp/20260731-nogalesaltobajo_relev.shp" }, "geometry": { "type": "Point", "coordinates": [ -64.747066483626313, -32.196068225541794, 1013.152 ] } },
{ "type": "Feature", "properties": { "FID": 123, "Descripcio": "TanqCasa", "Fecha": "20260731", "ID foto": "123-20260731", "NivelRed": null, "LoteNro": null, "Propietari": null, "TipoRed": null, "Litros": null, "Barrio": null, "Nombre_Ref": null, "Disponibil": null, "Acople": null, "Observacio": null, "Campana_Fe": null, "layer": "20260731-nogalesaltobajo_relev", "path": "C:/Users/julia/Documents/00_AgrimensuraUme/Cooperativa de Agua UMEPAY/shp/20260731-nogalesaltobajo_relev.shp" }, "geometry": { "type": "Point", "coordinates": [ -64.747069448375285, -32.196061350367707, 1013.114 ] } },
{ "type": "Feature", "properties": { "FID": 124, "Descripcio": "mojon", "Fecha": "20260731", "ID foto": null, "NivelRed": null, "LoteNro": null, "Propietari": null, "TipoRed": null, "Litros": null, "Barrio": null, "Nombre_Ref": null, "Disponibil": null, "Acople": null, "Observacio": null, "Campana_Fe": null, "layer": "20260731-nogalesaltobajo_relev", "path": "C:/Users/julia/Documents/00_AgrimensuraUme/Cooperativa de Agua UMEPAY/shp/20260731-nogalesaltobajo_relev.shp" }, "geometry": { "type": "Point", "coordinates": [ -64.748370834407282, -32.195299387279078, 1011.931 ] } },
{ "type": "Feature", "properties": { "FID": 141, "Descripcio": "Valvula", "Fecha": "20260731", "ID foto": "141-20260731", "NivelRed": null, "LoteNro": null, "Propietari": null, "TipoRed": null, "Litros": null, "Barrio": null, "Nombre_Ref": null, "Disponibil": null, "Acople": null, "Observacio": null, "Campana_Fe": null, "layer": "20260731-nogalesaltobajo_relev", "path": "C:/Users/julia/Documents/00_AgrimensuraUme/Cooperativa de Agua UMEPAY/shp/20260731-nogalesaltobajo_relev.shp" }, "geometry": { "type": "Point", "coordinates": [ -64.748168174573436, -32.194535289381754, 999.121 ] } },
{ "type": "Feature", "properties": { "FID": 142, "Descripcio": "caño", "Fecha": "20260731", "ID foto": null, "NivelRed": null, "LoteNro": null, "Propietari": null, "TipoRed": null, "Litros": null, "Barrio": null, "Nombre_Ref": null, "Disponibil": null, "Acople": null, "Observacio": null, "Campana_Fe": null, "layer": "20260731-nogalesaltobajo_relev", "path": "C:/Users/julia/Documents/00_AgrimensuraUme/Cooperativa de Agua UMEPAY/shp/20260731-nogalesaltobajo_relev.shp" }, "geometry": { "type": "Point", "coordinates": [ -64.748167762209505, -32.194544221022348, 999.232 ] } },
{ "type": "Feature", "properties": { "FID": 149, "Descripcio": "Acopio", "Fecha": "20260731", "ID foto": "149-20260731", "NivelRed": null, "LoteNro": null, "Propietari": null, "TipoRed": null, "Litros": null, "Barrio": null, "Nombre_Ref": null, "Disponibil": null, "Acople": null, "Observacio": null, "Campana_Fe": null, "layer": "20260731-nogalesaltobajo_relev", "path": "C:/Users/julia/Documents/00_AgrimensuraUme/Cooperativa de Agua UMEPAY/shp/20260731-nogalesaltobajo_relev.shp" }, "geometry": { "type": "Point", "coordinates": [ -64.748049204165881, -32.19378097945485, 983.524 ] } },
{ "type": "Feature", "properties": { "FID": 152, "Descripcio": "TanqCasa", "Fecha": "20260731", "ID foto": "152-20260731", "NivelRed": null, "LoteNro": null, "Propietari": null, "TipoRed": null, "Litros": null, "Barrio": null, "Nombre_Ref": null, "Disponibil": null, "Acople": null, "Observacio": null, "Campana_Fe": null, "layer": "20260731-nogalesaltobajo_relev", "path": "C:/Users/julia/Documents/00_AgrimensuraUme/Cooperativa de Agua UMEPAY/shp/20260731-nogalesaltobajo_relev.shp" }, "geometry": { "type": "Point", "coordinates": [ -64.747128178390255, -32.194404181841122, 988.904 ] } },
{ "type": "Feature", "properties": { "FID": 160, "Descripcio": "Valvula", "Fecha": "20260731", "ID foto": null, "NivelRed": null, "LoteNro": null, "Propietari": null, "TipoRed": null, "Litros": null, "Barrio": null, "Nombre_Ref": null, "Disponibil": null, "Acople": null, "Observacio": null, "Campana_Fe": null, "layer": "20260731-nogalesaltobajo_relev", "path": "C:/Users/julia/Documents/00_AgrimensuraUme/Cooperativa de Agua UMEPAY/shp/20260731-nogalesaltobajo_relev.shp" }, "geometry": { "type": "Point", "coordinates": [ -64.747633041652321, -32.193533876219782, 978.234 ] } },
{ "type": "Feature", "properties": { "FID": 174, "Descripcio": "caño", "Fecha": "20260731", "ID foto": null, "NivelRed": null, "LoteNro": null, "Propietari": null, "TipoRed": null, "Litros": null, "Barrio": null, "Nombre_Ref": null, "Disponibil": null, "Acople": null, "Observacio": null, "Campana_Fe": null, "layer": "20260731-nogalesaltobajo_relev", "path": "C:/Users/julia/Documents/00_AgrimensuraUme/Cooperativa de Agua UMEPAY/shp/20260731-nogalesaltobajo_relev.shp" }, "geometry": { "type": "Point", "coordinates": [ -64.746034570210966, -32.193289626097261, 965.918 ] } },
{ "type": "Feature", "properties": { "FID": 175, "Descripcio": "T", "Fecha": "20260731", "ID foto": null, "NivelRed": null, "LoteNro": null, "Propietari": null, "TipoRed": null, "Litros": null, "Barrio": null, "Nombre_Ref": null, "Disponibil": null, "Acople": null, "Observacio": null, "Campana_Fe": null, "layer": "20260731-nogalesaltobajo_relev", "path": "C:/Users/julia/Documents/00_AgrimensuraUme/Cooperativa de Agua UMEPAY/shp/20260731-nogalesaltobajo_relev.shp" }, "geometry": { "type": "Point", "coordinates": [ -64.746006323787626, -32.193269630771589, 965.658 ] } },
{ "type": "Feature", "properties": { "FID": 187, "Descripcio": "Valvula", "Fecha": "20260731", "ID foto": null, "NivelRed": null, "LoteNro": null, "Propietari": null, "TipoRed": null, "Litros": null, "Barrio": null, "Nombre_Ref": null, "Disponibil": null, "Acople": null, "Observacio": null, "Campana_Fe": null, "layer": "20260731-nogalesaltobajo_relev", "path": "C:/Users/julia/Documents/00_AgrimensuraUme/Cooperativa de Agua UMEPAY/shp/20260731-nogalesaltobajo_relev.shp" }, "geometry": { "type": "Point", "coordinates": [ -64.746039041187188, -32.192819789164503, 967.794 ] } },
{ "type": "Feature", "properties": { "FID": 191, "Descripcio": "Valvula", "Fecha": "20260731", "ID foto": null, "NivelRed": null, "LoteNro": null, "Propietari": null, "TipoRed": null, "Litros": null, "Barrio": null, "Nombre_Ref": null, "Disponibil": null, "Acople": null, "Observacio": null, "Campana_Fe": null, "layer": "20260731-nogalesaltobajo_relev", "path": "C:/Users/julia/Documents/00_AgrimensuraUme/Cooperativa de Agua UMEPAY/shp/20260731-nogalesaltobajo_relev.shp" }, "geometry": { "type": "Point", "coordinates": [ -64.74591167491468, -32.192454240887145, 974.428 ] } },
{ "type": "Feature", "properties": { "FID": 194, "Descripcio": "TanqCasa", "Fecha": "20260731", "ID foto": "194-20260731", "NivelRed": null, "LoteNro": null, "Propietari": null, "TipoRed": null, "Litros": null, "Barrio": null, "Nombre_Ref": null, "Disponibil": null, "Acople": null, "Observacio": null, "Campana_Fe": null, "layer": "20260731-nogalesaltobajo_relev", "path": "C:/Users/julia/Documents/00_AgrimensuraUme/Cooperativa de Agua UMEPAY/shp/20260731-nogalesaltobajo_relev.shp" }, "geometry": { "type": "Point", "coordinates": [ -64.745707099338986, -32.192409595935132, 975.375 ] } },
{ "type": "Feature", "properties": { "FID": 195, "Descripcio": "TanqCasa", "Fecha": "20260731", "ID foto": "195-20260731", "NivelRed": null, "LoteNro": null, "Propietari": null, "TipoRed": null, "Litros": null, "Barrio": null, "Nombre_Ref": null, "Disponibil": null, "Acople": null, "Observacio": null, "Campana_Fe": null, "layer": "20260731-nogalesaltobajo_relev", "path": "C:/Users/julia/Documents/00_AgrimensuraUme/Cooperativa de Agua UMEPAY/shp/20260731-nogalesaltobajo_relev.shp" }, "geometry": { "type": "Point", "coordinates": [ -64.745723696997672, -32.192443132083646, 975.82 ] } },
{ "type": "Feature", "properties": { "FID": 196, "Descripcio": "TanqCasa", "Fecha": "20260731", "ID foto": "196-20260731", "NivelRed": null, "LoteNro": null, "Propietari": null, "TipoRed": null, "Litros": null, "Barrio": null, "Nombre_Ref": null, "Disponibil": null, "Acople": null, "Observacio": null, "Campana_Fe": null, "layer": "20260731-nogalesaltobajo_relev", "path": "C:/Users/julia/Documents/00_AgrimensuraUme/Cooperativa de Agua UMEPAY/shp/20260731-nogalesaltobajo_relev.shp" }, "geometry": { "type": "Point", "coordinates": [ -64.745724362471677, -32.192452995532626, 976.579 ] } },
{ "type": "Feature", "properties": { "FID": 197, "Descripcio": "TanqCasa", "Fecha": "20260731", "ID foto": "197-20260731", "NivelRed": null, "LoteNro": null, "Propietari": null, "TipoRed": null, "Litros": null, "Barrio": null, "Nombre_Ref": null, "Disponibil": null, "Acople": null, "Observacio": null, "Campana_Fe": null, "layer": "20260731-nogalesaltobajo_relev", "path": "C:/Users/julia/Documents/00_AgrimensuraUme/Cooperativa de Agua UMEPAY/shp/20260731-nogalesaltobajo_relev.shp" }, "geometry": { "type": "Point", "coordinates": [ -64.745689454177068, -32.192472790032973, 975.915 ] } },
{ "type": "Feature", "properties": { "FID": 198, "Descripcio": "TanqCasa", "Fecha": "20260731", "ID foto": "198-20260731", "NivelRed": null, "LoteNro": null, "Propietari": null, "TipoRed": null, "Litros": null, "Barrio": null, "Nombre_Ref": null, "Disponibil": null, "Acople": null, "Observacio": null, "Campana_Fe": null, "layer": "20260731-nogalesaltobajo_relev", "path": "C:/Users/julia/Documents/00_AgrimensuraUme/Cooperativa de Agua UMEPAY/shp/20260731-nogalesaltobajo_relev.shp" }, "geometry": { "type": "Point", "coordinates": [ -64.74567689631742, -32.192482015595914, 975.718 ] } },
{ "type": "Feature", "properties": { "FID": 199, "Descripcio": "TanqCasa", "Fecha": "20260731", "ID foto": "199-20260731", "NivelRed": null, "LoteNro": null, "Propietari": null, "TipoRed": null, "Litros": null, "Barrio": null, "Nombre_Ref": null, "Disponibil": null, "Acople": null, "Observacio": null, "Campana_Fe": null, "layer": "20260731-nogalesaltobajo_relev", "path": "C:/Users/julia/Documents/00_AgrimensuraUme/Cooperativa de Agua UMEPAY/shp/20260731-nogalesaltobajo_relev.shp" }, "geometry": { "type": "Point", "coordinates": [ -64.745667021797047, -32.192460188698249, 975.635 ] } },
{ "type": "Feature", "properties": { "FID": 208, "Descripcio": "tubo", "Fecha": "20260731", "ID foto": null, "NivelRed": null, "LoteNro": null, "Propietari": null, "TipoRed": null, "Litros": null, "Barrio": null, "Nombre_Ref": null, "Disponibil": null, "Acople": null, "Observacio": null, "Campana_Fe": null, "layer": "20260731-nogalesaltobajo_relev", "path": "C:/Users/julia/Documents/00_AgrimensuraUme/Cooperativa de Agua UMEPAY/shp/20260731-nogalesaltobajo_relev.shp" }, "geometry": { "type": "Point", "coordinates": [ -64.744890544042065, -32.193368487983186, 959.093 ] } },
{ "type": "Feature", "properties": { "FID": 209, "Descripcio": "tubo", "Fecha": "20260731", "ID foto": null, "NivelRed": null, "LoteNro": null, "Propietari": null, "TipoRed": null, "Litros": null, "Barrio": null, "Nombre_Ref": null, "Disponibil": null, "Acople": null, "Observacio": null, "Campana_Fe": null, "layer": "20260731-nogalesaltobajo_relev", "path": "C:/Users/julia/Documents/00_AgrimensuraUme/Cooperativa de Agua UMEPAY/shp/20260731-nogalesaltobajo_relev.shp" }, "geometry": { "type": "Point", "coordinates": [ -64.744890646602784, -32.193368306245553, 959.091 ] } },
{ "type": "Feature", "properties": { "FID": 210, "Descripcio": "Bomba", "Fecha": "20260731", "ID foto": null, "NivelRed": null, "LoteNro": null, "Propietari": null, "TipoRed": null, "Litros": null, "Barrio": null, "Nombre_Ref": null, "Disponibil": null, "Acople": null, "Observacio": null, "Campana_Fe": null, "layer": "20260731-nogalesaltobajo_relev", "path": "C:/Users/julia/Documents/00_AgrimensuraUme/Cooperativa de Agua UMEPAY/shp/20260731-nogalesaltobajo_relev.shp" }, "geometry": { "type": "Point", "coordinates": [ -64.744135144295313, -32.193030997581189, 954.777 ] } },
{ "type": "Feature", "properties": { "FID": 217, "Descripcio": "Dique", "Fecha": "20260731", "ID foto": null, "NivelRed": null, "LoteNro": null, "Propietari": null, "TipoRed": null, "Litros": null, "Barrio": null, "Nombre_Ref": null, "Disponibil": null, "Acople": null, "Observacio": null, "Campana_Fe": null, "layer": "20260731-nogalesaltobajo_relev", "path": "C:/Users/julia/Documents/00_AgrimensuraUme/Cooperativa de Agua UMEPAY/shp/20260731-nogalesaltobajo_relev.shp" }, "geometry": { "type": "Point", "coordinates": [ -64.743660616730267, -32.193024640859704, 951.726 ] } },
{ "type": "Feature", "properties": { "FID": 227, "Descripcio": "Valvula", "Fecha": "20260731", "ID foto": "227-20260731", "NivelRed": null, "LoteNro": null, "Propietari": null, "TipoRed": null, "Litros": null, "Barrio": null, "Nombre_Ref": null, "Disponibil": null, "Acople": null, "Observacio": null, "Campana_Fe": null, "layer": "20260731-nogalesaltobajo_relev", "path": "C:/Users/julia/Documents/00_AgrimensuraUme/Cooperativa de Agua UMEPAY/shp/20260731-nogalesaltobajo_relev.shp" }, "geometry": { "type": "Point", "coordinates": [ -64.743661448659751, -32.193050469560234, 950.411 ] } },
{ "type": "Feature", "properties": { "FID": 228, "Descripcio": "caño", "Fecha": "20260731", "ID foto": null, "NivelRed": null, "LoteNro": null, "Propietari": null, "TipoRed": null, "Litros": null, "Barrio": null, "Nombre_Ref": null, "Disponibil": null, "Acople": null, "Observacio": null, "Campana_Fe": null, "layer": "20260731-nogalesaltobajo_relev", "path": "C:/Users/julia/Documents/00_AgrimensuraUme/Cooperativa de Agua UMEPAY/shp/20260731-nogalesaltobajo_relev.shp" }, "geometry": { "type": "Point", "coordinates": [ -64.743634358306053, -32.193062149377162, 950.29 ] } },
{ "type": "Feature", "properties": { "FID": 229, "Descripcio": "caño", "Fecha": "20260731", "ID foto": null, "NivelRed": null, "LoteNro": null, "Propietari": null, "TipoRed": null, "Litros": null, "Barrio": null, "Nombre_Ref": null, "Disponibil": null, "Acople": null, "Observacio": null, "Campana_Fe": null, "layer": "20260731-nogalesaltobajo_relev", "path": "C:/Users/julia/Documents/00_AgrimensuraUme/Cooperativa de Agua UMEPAY/shp/20260731-nogalesaltobajo_relev.shp" }, "geometry": { "type": "Point", "coordinates": [ -64.743620897378761, -32.193077409957631, 950.103 ] } },
{ "type": "Feature", "properties": { "FID": 233, "Descripcio": "Valvula", "Fecha": "20260731", "ID foto": "233-20260731", "NivelRed": null, "LoteNro": null, "Propietari": null, "TipoRed": null, "Litros": null, "Barrio": null, "Nombre_Ref": null, "Disponibil": null, "Acople": null, "Observacio": null, "Campana_Fe": null, "layer": "20260731-nogalesaltobajo_relev", "path": "C:/Users/julia/Documents/00_AgrimensuraUme/Cooperativa de Agua UMEPAY/shp/20260731-nogalesaltobajo_relev.shp" }, "geometry": { "type": "Point", "coordinates": [ -64.743595498800872, -32.193117196701287, 949.607 ] } },
{ "type": "Feature", "properties": { "FID": 234, "Descripcio": "caño", "Fecha": "20260731", "ID foto": null, "NivelRed": null, "LoteNro": null, "Propietari": null, "TipoRed": null, "Litros": null, "Barrio": null, "Nombre_Ref": null, "Disponibil": null, "Acople": null, "Observacio": null, "Campana_Fe": null, "layer": "20260731-nogalesaltobajo_relev", "path": "C:/Users/julia/Documents/00_AgrimensuraUme/Cooperativa de Agua UMEPAY/shp/20260731-nogalesaltobajo_relev.shp" }, "geometry": { "type": "Point", "coordinates": [ -64.743593107584289, -32.193118573079069, 950.325 ] } },
{ "type": "Feature", "properties": { "FID": 235, "Descripcio": "caño", "Fecha": "20260731", "ID foto": null, "NivelRed": null, "LoteNro": null, "Propietari": null, "TipoRed": null, "Litros": null, "Barrio": null, "Nombre_Ref": null, "Disponibil": null, "Acople": null, "Observacio": null, "Campana_Fe": null, "layer": "20260731-nogalesaltobajo_relev", "path": "C:/Users/julia/Documents/00_AgrimensuraUme/Cooperativa de Agua UMEPAY/shp/20260731-nogalesaltobajo_relev.shp" }, "geometry": { "type": "Point", "coordinates": [ -64.743501088351366, -32.193173244507037, 950.144 ] } },
{ "type": "Feature", "properties": { "FID": 236, "Descripcio": "caño", "Fecha": "20260731", "ID foto": null, "NivelRed": null, "LoteNro": null, "Propietari": null, "TipoRed": null, "Litros": null, "Barrio": null, "Nombre_Ref": null, "Disponibil": null, "Acople": null, "Observacio": null, "Campana_Fe": null, "layer": "20260731-nogalesaltobajo_relev", "path": "C:/Users/julia/Documents/00_AgrimensuraUme/Cooperativa de Agua UMEPAY/shp/20260731-nogalesaltobajo_relev.shp" }, "geometry": { "type": "Point", "coordinates": [ -64.743446591294656, -32.193198925571409, 949.729 ] } },
{ "type": "Feature", "properties": { "FID": 241, "Descripcio": "vado", "Fecha": "20260731", "ID foto": null, "NivelRed": null, "LoteNro": null, "Propietari": null, "TipoRed": null, "Litros": null, "Barrio": null, "Nombre_Ref": null, "Disponibil": null, "Acople": null, "Observacio": null, "Campana_Fe": null, "layer": "20260731-nogalesaltobajo_relev", "path": "C:/Users/julia/Documents/00_AgrimensuraUme/Cooperativa de Agua UMEPAY/shp/20260731-nogalesaltobajo_relev.shp" }, "geometry": { "type": "Point", "coordinates": [ -64.742631845240552, -32.193494544386013, 947.912 ] } },
{ "type": "Feature", "properties": { "FID": 242, "Descripcio": "vado", "Fecha": "20260731", "ID foto": null, "NivelRed": null, "LoteNro": null, "Propietari": null, "TipoRed": null, "Litros": null, "Barrio": null, "Nombre_Ref": null, "Disponibil": null, "Acople": null, "Observacio": null, "Campana_Fe": null, "layer": "20260731-nogalesaltobajo_relev", "path": "C:/Users/julia/Documents/00_AgrimensuraUme/Cooperativa de Agua UMEPAY/shp/20260731-nogalesaltobajo_relev.shp" }, "geometry": { "type": "Point", "coordinates": [ -64.7426276094955, -32.193525978840739, 947.97 ] } },
{ "type": "Feature", "properties": { "FID": 245, "Descripcio": "TanqCasa", "Fecha": "20260731", "ID foto": "245-20260731", "NivelRed": null, "LoteNro": null, "Propietari": null, "TipoRed": null, "Litros": null, "Barrio": null, "Nombre_Ref": null, "Disponibil": null, "Acople": null, "Observacio": null, "Campana_Fe": null, "layer": "20260731-nogalesaltobajo_relev", "path": "C:/Users/julia/Documents/00_AgrimensuraUme/Cooperativa de Agua UMEPAY/shp/20260731-nogalesaltobajo_relev.shp" }, "geometry": { "type": "Point", "coordinates": [ -64.742634503985741, -32.191375675890932, 1006.43 ] } },
{ "type": "Feature", "properties": { "FID": 246, "Descripcio": "TanqCasa", "Fecha": "20260731", "ID foto": "246-20260731", "NivelRed": null, "LoteNro": null, "Propietari": null, "TipoRed": null, "Litros": null, "Barrio": null, "Nombre_Ref": null, "Disponibil": null, "Acople": null, "Observacio": null, "Campana_Fe": null, "layer": "20260731-nogalesaltobajo_relev", "path": "C:/Users/julia/Documents/00_AgrimensuraUme/Cooperativa de Agua UMEPAY/shp/20260731-nogalesaltobajo_relev.shp" }, "geometry": { "type": "Point", "coordinates": [ -64.742618228814038, -32.191377901787995, 1006.565 ] } },
{ "type": "Feature", "properties": { "FID": 247, "Descripcio": "TanqCasa", "Fecha": "20260731", "ID foto": "247-20260731", "NivelRed": null, "LoteNro": null, "Propietari": null, "TipoRed": null, "Litros": null, "Barrio": null, "Nombre_Ref": null, "Disponibil": null, "Acople": null, "Observacio": null, "Campana_Fe": null, "layer": "20260731-nogalesaltobajo_relev", "path": "C:/Users/julia/Documents/00_AgrimensuraUme/Cooperativa de Agua UMEPAY/shp/20260731-nogalesaltobajo_relev.shp" }, "geometry": { "type": "Point", "coordinates": [ -64.742574898146913, -32.191371367253829, 1007.972 ] } },
{ "type": "Feature", "properties": { "FID": 248, "Descripcio": "TanqCasa", "Fecha": "20260731", "ID foto": "248-20260731", "NivelRed": null, "LoteNro": null, "Propietari": null, "TipoRed": null, "Litros": null, "Barrio": null, "Nombre_Ref": null, "Disponibil": null, "Acople": null, "Observacio": null, "Campana_Fe": null, "layer": "20260731-nogalesaltobajo_relev", "path": "C:/Users/julia/Documents/00_AgrimensuraUme/Cooperativa de Agua UMEPAY/shp/20260731-nogalesaltobajo_relev.shp" }, "geometry": { "type": "Point", "coordinates": [ -64.742564108143711, -32.19137211103039, 1007.971 ] } },
{ "type": "Feature", "properties": { "FID": 257, "Descripcio": "TanqCasa", "Fecha": "20260731", "ID foto": "257-20260731", "NivelRed": null, "LoteNro": null, "Propietari": null, "TipoRed": null, "Litros": null, "Barrio": null, "Nombre_Ref": null, "Disponibil": null, "Acople": null, "Observacio": null, "Campana_Fe": null, "layer": "20260731-nogalesaltobajo_relev", "path": "C:/Users/julia/Documents/00_AgrimensuraUme/Cooperativa de Agua UMEPAY/shp/20260731-nogalesaltobajo_relev.shp" }, "geometry": { "type": "Point", "coordinates": [ -64.742249081084438, -32.191413346423431, 996.405 ] } },
{ "type": "Feature", "properties": { "FID": 260, "Descripcio": "T", "Fecha": "20260731", "ID foto": null, "NivelRed": null, "LoteNro": null, "Propietari": null, "TipoRed": null, "Litros": null, "Barrio": null, "Nombre_Ref": null, "Disponibil": null, "Acople": null, "Observacio": null, "Campana_Fe": null, "layer": "20260731-nogalesaltobajo_relev", "path": "C:/Users/julia/Documents/00_AgrimensuraUme/Cooperativa de Agua UMEPAY/shp/20260731-nogalesaltobajo_relev.shp" }, "geometry": { "type": "Point", "coordinates": [ -64.742252834935044, -32.191410589860702, 996.581 ] } },
{ "type": "Feature", "properties": { "FID": 265, "Descripcio": "TanqCasa", "Fecha": "20260731", "ID foto": null, "NivelRed": null, "LoteNro": null, "Propietari": null, "TipoRed": null, "Litros": null, "Barrio": null, "Nombre_Ref": null, "Disponibil": null, "Acople": null, "Observacio": null, "Campana_Fe": null, "layer": "20260731-nogalesaltobajo_relev", "path": "C:/Users/julia/Documents/00_AgrimensuraUme/Cooperativa de Agua UMEPAY/shp/20260731-nogalesaltobajo_relev.shp" }, "geometry": { "type": "Point", "coordinates": [ -64.74080855890837, -32.191432133648981, 972.406 ] } },
{ "type": "Feature", "properties": { "FID": 266, "Descripcio": "TanqCasa", "Fecha": "20260731", "ID foto": "266-20260731", "NivelRed": null, "LoteNro": null, "Propietari": null, "TipoRed": null, "Litros": null, "Barrio": null, "Nombre_Ref": null, "Disponibil": null, "Acople": null, "Observacio": null, "Campana_Fe": null, "layer": "20260731-nogalesaltobajo_relev", "path": "C:/Users/julia/Documents/00_AgrimensuraUme/Cooperativa de Agua UMEPAY/shp/20260731-nogalesaltobajo_relev.shp" }, "geometry": { "type": "Point", "coordinates": [ -64.740809245461946, -32.191431438971073, 972.403 ] } },
{ "type": "Feature", "properties": { "FID": 267, "Descripcio": "TanqCasa", "Fecha": "20260731", "ID foto": "267-20260731", "NivelRed": null, "LoteNro": null, "Propietari": null, "TipoRed": null, "Litros": null, "Barrio": null, "Nombre_Ref": null, "Disponibil": null, "Acople": null, "Observacio": null, "Campana_Fe": null, "layer": "20260731-nogalesaltobajo_relev", "path": "C:/Users/julia/Documents/00_AgrimensuraUme/Cooperativa de Agua UMEPAY/shp/20260731-nogalesaltobajo_relev.shp" }, "geometry": { "type": "Point", "coordinates": [ -64.740809224739493, -32.191416986417615, 972.292 ] } },
{ "type": "Feature", "properties": { "FID": 309, "Descripcio": "TanqCasa", "Fecha": "20260731", "ID foto": "309-20260731", "NivelRed": null, "LoteNro": null, "Propietari": null, "TipoRed": null, "Litros": null, "Barrio": null, "Nombre_Ref": null, "Disponibil": null, "Acople": null, "Observacio": null, "Campana_Fe": null, "layer": "20260731-nogalesaltobajo_relev", "path": "C:/Users/julia/Documents/00_AgrimensuraUme/Cooperativa de Agua UMEPAY/shp/20260731-nogalesaltobajo_relev.shp" }, "geometry": { "type": "Point", "coordinates": [ -64.738212433479433, -32.191524067409723, 953.109 ] } },
{ "type": "Feature", "properties": { "FID": 311, "Descripcio": "TanqCasa", "Fecha": "20260731", "ID foto": "311-20260731", "NivelRed": null, "LoteNro": null, "Propietari": null, "TipoRed": null, "Litros": null, "Barrio": null, "Nombre_Ref": null, "Disponibil": null, "Acople": null, "Observacio": null, "Campana_Fe": null, "layer": "20260731-nogalesaltobajo_relev", "path": "C:/Users/julia/Documents/00_AgrimensuraUme/Cooperativa de Agua UMEPAY/shp/20260731-nogalesaltobajo_relev.shp" }, "geometry": { "type": "Point", "coordinates": [ -64.743206968495215, -32.192425085909996, 979.715 ] } },
{ "type": "Feature", "properties": { "FID": 312, "Descripcio": "T", "Fecha": "20260731", "ID foto": null, "NivelRed": null, "LoteNro": null, "Propietari": null, "TipoRed": null, "Litros": null, "Barrio": null, "Nombre_Ref": null, "Disponibil": null, "Acople": null, "Observacio": null, "Campana_Fe": null, "layer": "20260731-nogalesaltobajo_relev", "path": "C:/Users/julia/Documents/00_AgrimensuraUme/Cooperativa de Agua UMEPAY/shp/20260731-nogalesaltobajo_relev.shp" }, "geometry": { "type": "Point", "coordinates": [ -64.743308291525267, -32.192311771846185, 981.452 ] } },
{ "type": "Feature", "properties": { "FID": 1, "Descripcio": "T", "Fecha": null, "ID foto": null, "NivelRed": 1, "LoteNro": null, "Propietari": "Cooperativa de Agua", "TipoRed": "Distribucion", "Litros": null, "Barrio": "Nogales Alto", "Nombre_Ref": null, "Disponibil": null, "Acople": null, "Observacio": null, "Campana_Fe": null, "layer": "Puntos_2", "path": "C:/Users/julia/Documents/00_AgrimensuraUme/Cooperativa de Agua UMEPAY/shp/Puntos_2.shp|subset=\"Descripcio\" NOT ILIKE 'Mang%'" }, "geometry": { "type": "Point", "coordinates": [ -64.753851592361144, -32.194843129827561, 1063.599 ] } },
{ "type": "Feature", "properties": { "FID": 2, "Descripcio": "TanqCasa", "Fecha": null, "ID foto": null, "NivelRed": 2, "LoteNro": 14, "Propietari": "Claudia Dorda Bavali", "TipoRed": "Distribucion", "Litros": 1100, "Barrio": "Nogales Alto", "Nombre_Ref": null, "Disponibil": null, "Acople": null, "Observacio": null, "Campana_Fe": null, "layer": "Puntos_2", "path": "C:/Users/julia/Documents/00_AgrimensuraUme/Cooperativa de Agua UMEPAY/shp/Puntos_2.shp|subset=\"Descripcio\" NOT ILIKE 'Mang%'" }, "geometry": { "type": "Point", "coordinates": [ -64.753897363948354, -32.194826446214705, 1062.412 ] } },
{ "type": "Feature", "properties": { "FID": 3, "Descripcio": "TanqAcopio", "Fecha": null, "ID foto": null, "NivelRed": 1, "LoteNro": null, "Propietari": "Cooperativa de Agua", "TipoRed": "Distribucion", "Litros": 2750, "Barrio": "Castanos", "Nombre_Ref": null, "Disponibil": null, "Acople": null, "Observacio": null, "Campana_Fe": null, "layer": "Puntos_2", "path": "C:/Users/julia/Documents/00_AgrimensuraUme/Cooperativa de Agua UMEPAY/shp/Puntos_2.shp|subset=\"Descripcio\" NOT ILIKE 'Mang%'" }, "geometry": { "type": "Point", "coordinates": [ -64.75426583620029, -32.194811731758605, 1058.73 ] } },
{ "type": "Feature", "properties": { "FID": 4, "Descripcio": "TanqCasa", "Fecha": null, "ID foto": null, "NivelRed": 2, "LoteNro": 1, "Propietari": "Consorcio(Riego)", "TipoRed": "Distribucion", "Litros": 1100, "Barrio": "Castanos", "Nombre_Ref": null, "Disponibil": null, "Acople": null, "Observacio": null, "Campana_Fe": null, "layer": "Puntos_2", "path": "C:/Users/julia/Documents/00_AgrimensuraUme/Cooperativa de Agua UMEPAY/shp/Puntos_2.shp|subset=\"Descripcio\" NOT ILIKE 'Mang%'" }, "geometry": { "type": "Point", "coordinates": [ -64.75430182958705, -32.194792731305817, 1058.356 ] } },
{ "type": "Feature", "properties": { "FID": 5, "Descripcio": "TanqCasa", "Fecha": null, "ID foto": null, "NivelRed": 2, "LoteNro": 2, "Propietari": "Leo", "TipoRed": "Distribucion", "Litros": 1100, "Barrio": "Castanos", "Nombre_Ref": null, "Disponibil": null, "Acople": null, "Observacio": null, "Campana_Fe": null, "layer": "Puntos_2", "path": "C:/Users/julia/Documents/00_AgrimensuraUme/Cooperativa de Agua UMEPAY/shp/Puntos_2.shp|subset=\"Descripcio\" NOT ILIKE 'Mang%'" }, "geometry": { "type": "Point", "coordinates": [ -64.75427509563437, -32.194768235899765, 1057.375 ] } },
{ "type": "Feature", "properties": { "FID": 6, "Descripcio": "TanqCasa", "Fecha": null, "ID foto": null, "NivelRed": 2, "LoteNro": 1, "Propietari": "Mara Ticach", "TipoRed": "Distribucion", "Litros": 1100, "Barrio": "Castanos", "Nombre_Ref": null, "Disponibil": null, "Acople": null, "Observacio": null, "Campana_Fe": null, "layer": "Puntos_2", "path": "C:/Users/julia/Documents/00_AgrimensuraUme/Cooperativa de Agua UMEPAY/shp/Puntos_2.shp|subset=\"Descripcio\" NOT ILIKE 'Mang%'" }, "geometry": { "type": "Point", "coordinates": [ -64.754266112713296, -32.194771994028429, 1057.475 ] } },
{ "type": "Feature", "properties": { "FID": 7, "Descripcio": "TanqCasa", "Fecha": null, "ID foto": null, "NivelRed": 2, "LoteNro": 1, "Propietari": "Mara Ticach", "TipoRed": "Distribucion", "Litros": 1100, "Barrio": "Castanos", "Nombre_Ref": null, "Disponibil": null, "Acople": null, "Observacio": null, "Campana_Fe": null, "layer": "Puntos_2", "path": "C:/Users/julia/Documents/00_AgrimensuraUme/Cooperativa de Agua UMEPAY/shp/Puntos_2.shp|subset=\"Descripcio\" NOT ILIKE 'Mang%'" }, "geometry": { "type": "Point", "coordinates": [ -64.754248898776865, -32.194763992181741, 1057.25 ] } },
{ "type": "Feature", "properties": { "FID": 8, "Descripcio": "TanqAcopio", "Fecha": null, "ID foto": null, "NivelRed": 1, "LoteNro": null, "Propietari": "Cooperativa de Agua", "TipoRed": "Distribucion", "Litros": 2750, "Barrio": "Castanos", "Nombre_Ref": null, "Disponibil": null, "Acople": null, "Observacio": null, "Campana_Fe": null, "layer": "Puntos_2", "path": "C:/Users/julia/Documents/00_AgrimensuraUme/Cooperativa de Agua UMEPAY/shp/Puntos_2.shp|subset=\"Descripcio\" NOT ILIKE 'Mang%'" }, "geometry": { "type": "Point", "coordinates": [ -64.754071813776505, -32.193479637118756, 1051.411 ] } },
{ "type": "Feature", "properties": { "FID": 9, "Descripcio": "TanqCasa", "Fecha": null, "ID foto": null, "NivelRed": 2, "LoteNro": 4, "Propietari": "Leon", "TipoRed": "Distribucion", "Litros": 1100, "Barrio": "Castanos", "Nombre_Ref": null, "Disponibil": null, "Acople": null, "Observacio": null, "Campana_Fe": null, "layer": "Puntos_2", "path": "C:/Users/julia/Documents/00_AgrimensuraUme/Cooperativa de Agua UMEPAY/shp/Puntos_2.shp|subset=\"Descripcio\" NOT ILIKE 'Mang%'" }, "geometry": { "type": "Point", "coordinates": [ -64.754071083883289, -32.19343828143051, 1049.532 ] } },
{ "type": "Feature", "properties": { "FID": 10, "Descripcio": "TanqCasa", "Fecha": null, "ID foto": null, "NivelRed": 2, "LoteNro": 3, "Propietari": "Cecilia Sonzini", "TipoRed": "Distribucion", "Litros": 1100, "Barrio": "Castanos", "Nombre_Ref": null, "Disponibil": null, "Acople": null, "Observacio": null, "Campana_Fe": null, "layer": "Puntos_2", "path": "C:/Users/julia/Documents/00_AgrimensuraUme/Cooperativa de Agua UMEPAY/shp/Puntos_2.shp|subset=\"Descripcio\" NOT ILIKE 'Mang%'" }, "geometry": { "type": "Point", "coordinates": [ -64.754074425022182, -32.193419003758386, 1049.387 ] } },
{ "type": "Feature", "properties": { "FID": 11, "Descripcio": "TanqCasa", "Fecha": null, "ID foto": null, "NivelRed": 2, "LoteNro": 3, "Propietari": "Cecilia Sonzini", "TipoRed": "Distribucion", "Litros": 1100, "Barrio": "Castanos", "Nombre_Ref": null, "Disponibil": null, "Acople": null, "Observacio": null, "Campana_Fe": null, "layer": "Puntos_2", "path": "C:/Users/julia/Documents/00_AgrimensuraUme/Cooperativa de Agua UMEPAY/shp/Puntos_2.shp|subset=\"Descripcio\" NOT ILIKE 'Mang%'" }, "geometry": { "type": "Point", "coordinates": [ -64.754051795929726, -32.193416666982287, 1049.535 ] } },
{ "type": "Feature", "properties": { "FID": 12, "Descripcio": "TanqCasa", "Fecha": null, "ID foto": null, "NivelRed": 2, "LoteNro": 13, "Propietari": "Johy", "TipoRed": "Distribucion", "Litros": 1100, "Barrio": "Nogaltes Alto", "Nombre_Ref": null, "Disponibil": null, "Acople": null, "Observacio": null, "Campana_Fe": null, "layer": "Puntos_2", "path": "C:/Users/julia/Documents/00_AgrimensuraUme/Cooperativa de Agua UMEPAY/shp/Puntos_2.shp|subset=\"Descripcio\" NOT ILIKE 'Mang%'" }, "geometry": { "type": "Point", "coordinates": [ -64.753764571199696, -32.195952801763205, 1060.984 ] } },
{ "type": "Feature", "properties": { "FID": 13, "Descripcio": "TanqCasa", "Fecha": null, "ID foto": null, "NivelRed": 2, "LoteNro": 33, "Propietari": "Tristan", "TipoRed": "Distribucion", "Litros": 1100, "Barrio": "Nogales Alto", "Nombre_Ref": null, "Disponibil": null, "Acople": null, "Observacio": null, "Campana_Fe": null, "layer": "Puntos_2", "path": "C:/Users/julia/Documents/00_AgrimensuraUme/Cooperativa de Agua UMEPAY/shp/Puntos_2.shp|subset=\"Descripcio\" NOT ILIKE 'Mang%'" }, "geometry": { "type": "Point", "coordinates": [ -64.753690587290976, -32.196627347697252, 1054.833 ] } },
{ "type": "Feature", "properties": { "FID": 14, "Descripcio": "TanqCasa", "Fecha": null, "ID foto": null, "NivelRed": 2, "LoteNro": 34, "Propietari": null, "TipoRed": "Distribucion", "Litros": 1100, "Barrio": "Nogaltes Alto", "Nombre_Ref": null, "Disponibil": null, "Acople": null, "Observacio": null, "Campana_Fe": null, "layer": "Puntos_2", "path": "C:/Users/julia/Documents/00_AgrimensuraUme/Cooperativa de Agua UMEPAY/shp/Puntos_2.shp|subset=\"Descripcio\" NOT ILIKE 'Mang%'" }, "geometry": { "type": "Point", "coordinates": [ -64.753604932481437, -32.197171682850019, 1051.784000000000106 ] } },
{ "type": "Feature", "properties": { "FID": 15, "Descripcio": "TanqCasa", "Fecha": null, "ID foto": null, "NivelRed": 2, "LoteNro": 7, "Propietari": "Francisco Ruiz Barlett", "TipoRed": "Distribucion", "Litros": 1100, "Barrio": "Castanos", "Nombre_Ref": null, "Disponibil": null, "Acople": null, "Observacio": null, "Campana_Fe": null, "layer": "Puntos_2", "path": "C:/Users/julia/Documents/00_AgrimensuraUme/Cooperativa de Agua UMEPAY/shp/Puntos_2.shp|subset=\"Descripcio\" NOT ILIKE 'Mang%'" }, "geometry": { "type": "Point", "coordinates": [ -64.753732687725574, -32.199175826912288, 1042.73 ] } },
{ "type": "Feature", "properties": { "FID": 16, "Descripcio": "TanqCasa", "Fecha": null, "ID foto": null, "NivelRed": 2, "LoteNro": 19, "Propietari": null, "TipoRed": "Distribucion", "Litros": 1100, "Barrio": "Nogales Alto", "Nombre_Ref": null, "Disponibil": null, "Acople": null, "Observacio": null, "Campana_Fe": null, "layer": "Puntos_2", "path": "C:/Users/julia/Documents/00_AgrimensuraUme/Cooperativa de Agua UMEPAY/shp/Puntos_2.shp|subset=\"Descripcio\" NOT ILIKE 'Mang%'" }, "geometry": { "type": "Point", "coordinates": [ -64.751403049048932, -32.194953268681083, 1038.98 ] } },
{ "type": "Feature", "properties": { "FID": 17, "Descripcio": "TanqCasa", "Fecha": null, "ID foto": null, "NivelRed": 2, "LoteNro": 15, "Propietari": "Magali Riachi", "TipoRed": "Distribucion", "Litros": 1100, "Barrio": "Nogales Alto", "Nombre_Ref": null, "Disponibil": null, "Acople": null, "Observacio": null, "Campana_Fe": null, "layer": "Puntos_2", "path": "C:/Users/julia/Documents/00_AgrimensuraUme/Cooperativa de Agua UMEPAY/shp/Puntos_2.shp|subset=\"Descripcio\" NOT ILIKE 'Mang%'" }, "geometry": { "type": "Point", "coordinates": [ -64.753213868414505, -32.194774562947231, 1061.792999999999893 ] } },
{ "type": "Feature", "properties": { "FID": 18, "Descripcio": "TanqCasa", "Fecha": null, "ID foto": null, "NivelRed": 2, "LoteNro": 16, "Propietari": "Escuela", "TipoRed": "Distribucion", "Litros": 1100, "Barrio": "Nogales Alto", "Nombre_Ref": null, "Disponibil": null, "Acople": null, "Observacio": null, "Campana_Fe": null, "layer": "Puntos_2", "path": "C:/Users/julia/Documents/00_AgrimensuraUme/Cooperativa de Agua UMEPAY/shp/Puntos_2.shp|subset=\"Descripcio\" NOT ILIKE 'Mang%'" }, "geometry": { "type": "Point", "coordinates": [ -64.752850521643794, -32.192984587643963, 1037.021 ] } },
{ "type": "Feature", "properties": { "FID": 19, "Descripcio": "TanqCasa", "Fecha": null, "ID foto": null, "NivelRed": 2, "LoteNro": 32, "Propietari": "Siembra Dicha", "TipoRed": "Distribucion", "Litros": 1100, "Barrio": "Nogales Alto", "Nombre_Ref": null, "Disponibil": null, "Acople": null, "Observacio": null, "Campana_Fe": null, "layer": "Puntos_2", "path": "C:/Users/julia/Documents/00_AgrimensuraUme/Cooperativa de Agua UMEPAY/shp/Puntos_2.shp|subset=\"Descripcio\" NOT ILIKE 'Mang%'" }, "geometry": { "type": "Point", "coordinates": [ -64.752879620675969, -32.192213416509048, 1048.553000000000111 ] } },
{ "type": "Feature", "properties": { "FID": 20, "Descripcio": "TanqCasa", "Fecha": null, "ID foto": null, "NivelRed": 2, "LoteNro": 32, "Propietari": "Siembra Dicha", "TipoRed": "Distribucion", "Litros": 1100, "Barrio": "Nogales Alto", "Nombre_Ref": null, "Disponibil": null, "Acople": null, "Observacio": null, "Campana_Fe": null, "layer": "Puntos_2", "path": "C:/Users/julia/Documents/00_AgrimensuraUme/Cooperativa de Agua UMEPAY/shp/Puntos_2.shp|subset=\"Descripcio\" NOT ILIKE 'Mang%'" }, "geometry": { "type": "Point", "coordinates": [ -64.752891000332426, -32.192223519051502, 1048.358 ] } },
{ "type": "Feature", "properties": { "FID": 21, "Descripcio": "TanqCasa", "Fecha": null, "ID foto": null, "NivelRed": 2, "LoteNro": 32, "Propietari": "Siembra Dicha", "TipoRed": "Distribucion", "Litros": 1100, "Barrio": "Nogales Alto", "Nombre_Ref": null, "Disponibil": null, "Acople": null, "Observacio": null, "Campana_Fe": null, "layer": "Puntos_2", "path": "C:/Users/julia/Documents/00_AgrimensuraUme/Cooperativa de Agua UMEPAY/shp/Puntos_2.shp|subset=\"Descripcio\" NOT ILIKE 'Mang%'" }, "geometry": { "type": "Point", "coordinates": [ -64.75290926830948, -32.192224591142057, 1048.557 ] } },
{ "type": "Feature", "properties": { "FID": 22, "Descripcio": "TanqAcopio", "Fecha": null, "ID foto": null, "NivelRed": 1, "LoteNro": null, "Propietari": "Cooperativa de Agua", "TipoRed": "Distribucion", "Litros": null, "Barrio": "Cosecha/Despensa", "Nombre_Ref": null, "Disponibil": null, "Acople": null, "Observacio": null, "Campana_Fe": null, "layer": "Puntos_2", "path": "C:/Users/julia/Documents/00_AgrimensuraUme/Cooperativa de Agua UMEPAY/shp/Puntos_2.shp|subset=\"Descripcio\" NOT ILIKE 'Mang%'" }, "geometry": { "type": "Point", "coordinates": [ -64.752947034286052, -32.190482627055225, 1045.965 ] } },
{ "type": "Feature", "properties": { "FID": 23, "Descripcio": "TanqCasa", "Fecha": null, "ID foto": null, "NivelRed": 2, "LoteNro": 5, "Propietari": "Cosecha", "TipoRed": "Distribucion", "Litros": 1100, "Barrio": "Castanos", "Nombre_Ref": null, "Disponibil": null, "Acople": null, "Observacio": null, "Campana_Fe": null, "layer": "Puntos_2", "path": "C:/Users/julia/Documents/00_AgrimensuraUme/Cooperativa de Agua UMEPAY/shp/Puntos_2.shp|subset=\"Descripcio\" NOT ILIKE 'Mang%'" }, "geometry": { "type": "Point", "coordinates": [ -64.753378009554169, -32.190885152281339, 1033.179 ] } },
{ "type": "Feature", "properties": { "FID": 25, "Descripcio": "Estacion Brigada", "Fecha": null, "ID foto": null, "NivelRed": null, "LoteNro": null, "Propietari": "Brigada Umepay", "TipoRed": null, "Litros": null, "Barrio": null, "Nombre_Ref": "Galpon", "Disponibil": null, "Acople": null, "Observacio": "Material de brigada. Kit de ataque rapido, mochilas de agua", "Campana_Fe": null, "layer": "Puntos_2", "path": "C:/Users/julia/Documents/00_AgrimensuraUme/Cooperativa de Agua UMEPAY/shp/Puntos_2.shp|subset=\"Descripcio\" NOT ILIKE 'Mang%'" }, "geometry": { "type": "Point", "coordinates": [ -64.744284835336416, -32.193173878547761, 0.0 ] } },
{ "type": "Feature", "properties": { "FID": 0, "Descripcio": "Acopio", "Fecha": null, "ID foto": null, "NivelRed": 0, "LoteNro": null, "Propietari": "Cooperativa de Agua", "TipoRed": "0", "Litros": 11000, "Barrio": "Nogales Alto", "Nombre_Ref": "Rotonda", "Disponibil": "Anual", "Acople": "No", "Observacio": "12 tanque de 3000l", "Campana_Fe": null, "layer": "Puntos_2", "path": "C:/Users/julia/Documents/00_AgrimensuraUme/Cooperativa de Agua UMEPAY/shp/Puntos_2.shp|subset=\"Descripcio\" NOT ILIKE 'Mang%'" }, "geometry": { "type": "Point", "coordinates": [ -64.749320947826845, -32.196248887940669, 0.0 ] } },
{ "type": "Feature", "properties": { "FID": 27, "Descripcio": "Acopio", "Fecha": null, "ID foto": null, "NivelRed": 0, "LoteNro": 0, "Propietari": "Cooperativa de Agua", "TipoRed": "0", "Litros": 5500, "Barrio": "Espinillos", "Nombre_Ref": "Acopio Espinillos", "Disponibil": "Anual", "Acople": "No", "Observacio": null, "Campana_Fe": null, "layer": "Puntos_2", "path": "C:/Users/julia/Documents/00_AgrimensuraUme/Cooperativa de Agua UMEPAY/shp/Puntos_2.shp|subset=\"Descripcio\" NOT ILIKE 'Mang%'" }, "geometry": { "type": "Point", "coordinates": [ -64.741754776319368, -32.19468741999227, 0.0 ] } },
{ "type": "Feature", "properties": { "FID": 28, "Descripcio": "Acopio", "Fecha": null, "ID foto": null, "NivelRed": 0, "LoteNro": 0, "Propietari": "Cooperativa de Agua", "TipoRed": "0", "Litros": 7700, "Barrio": "Aldea", "Nombre_Ref": "Acopio Aldea", "Disponibil": "Anual", "Acople": "No", "Observacio": "7 tanques de 1100 litros", "Campana_Fe": null, "layer": "Puntos_2", "path": "C:/Users/julia/Documents/00_AgrimensuraUme/Cooperativa de Agua UMEPAY/shp/Puntos_2.shp|subset=\"Descripcio\" NOT ILIKE 'Mang%'" }, "geometry": { "type": "Point", "coordinates": [ -64.738804597378845, -32.206294461906268, 0.0 ] } },
{ "type": "Feature", "properties": { "FID": 29, "Descripcio": "Acopio", "Fecha": null, "ID foto": null, "NivelRed": 0, "LoteNro": 14, "Propietari": "Cooperativa de Agua", "TipoRed": "Distribucion", "Litros": 7700, "Barrio": "Nogales Alto", "Nombre_Ref": "Acopio Bavali", "Disponibil": "Anual", "Acople": "No", "Observacio": "7 tanques de 1100 litros", "Campana_Fe": null, "layer": "Puntos_2", "path": "C:/Users/julia/Documents/00_AgrimensuraUme/Cooperativa de Agua UMEPAY/shp/Puntos_2.shp|subset=\"Descripcio\" NOT ILIKE 'Mang%'" }, "geometry": { "type": "Point", "coordinates": [ -64.753684926803587, -32.194787890027847, 0.0 ] } },
{ "type": "Feature", "properties": { "FID": 30, "Descripcio": "T", "Fecha": null, "ID foto": null, "NivelRed": 2, "LoteNro": null, "Propietari": "Cooperativa de Agua", "TipoRed": "Distribucion", "Litros": null, "Barrio": "Nogales Alto", "Nombre_Ref": null, "Disponibil": null, "Acople": null, "Observacio": null, "Campana_Fe": null, "layer": "Puntos_2", "path": "C:/Users/julia/Documents/00_AgrimensuraUme/Cooperativa de Agua UMEPAY/shp/Puntos_2.shp|subset=\"Descripcio\" NOT ILIKE 'Mang%'" }, "geometry": { "type": "Point", "coordinates": [ -64.753254977700706, -32.19401888637411, 1048.422 ] } },
{ "type": "Feature", "properties": { "FID": 31, "Descripcio": "Cisterna", "Fecha": null, "ID foto": null, "NivelRed": 0, "LoteNro": 0, "Propietari": "Cooperativa de Agua", "TipoRed": "0", "Litros": 25000, "Barrio": "Nogales Alto", "Nombre_Ref": null, "Disponibil": null, "Acople": null, "Observacio": null, "Campana_Fe": null, "layer": "Puntos_2", "path": "C:/Users/julia/Documents/00_AgrimensuraUme/Cooperativa de Agua UMEPAY/shp/Puntos_2.shp|subset=\"Descripcio\" NOT ILIKE 'Mang%'" }, "geometry": { "type": "Point", "coordinates": [ -64.751755886192242, -32.199501787876002, 0.0 ] } },
{ "type": "Feature", "properties": { "FID": 1017, "Descripcio": "T", "Fecha": null, "ID foto": null, "NivelRed": null, "LoteNro": null, "Propietari": "Cooperativa de Agua", "TipoRed": "Distribucion", "Litros": null, "Barrio": "Nogales Alto", "Nombre_Ref": null, "Disponibil": null, "Acople": null, "Observacio": null, "Campana_Fe": null, "layer": "Puntos_2", "path": "C:/Users/julia/Documents/00_AgrimensuraUme/Cooperativa de Agua UMEPAY/shp/Puntos_2.shp|subset=\"Descripcio\" NOT ILIKE 'Mang%'" }, "geometry": { "type": "Point", "coordinates": [ -64.753254977700706, -32.19401888637411, 1048.422 ] } },
{ "type": "Feature", "properties": { "FID": 214, "Descripcio": "TanqCasa", "Fecha": null, "ID foto": null, "NivelRed": 2, "LoteNro": 23, "Propietari": null, "TipoRed": "Distribucion", "Litros": 1100, "Barrio": "Nogales Alto", "Nombre_Ref": null, "Disponibil": null, "Acople": null, "Observacio": null, "Campana_Fe": null, "layer": "Puntos_2", "path": "C:/Users/julia/Documents/00_AgrimensuraUme/Cooperativa de Agua UMEPAY/shp/Puntos_2.shp|subset=\"Descripcio\" NOT ILIKE 'Mang%'" }, "geometry": { "type": "Point", "coordinates": [ -64.749028581257477, -32.196227070812235, 1021.356 ] } },
{ "type": "Feature", "properties": { "FID": 247, "Descripcio": "TanqCasa", "Fecha": null, "ID foto": null, "NivelRed": 2, "LoteNro": 23, "Propietari": null, "TipoRed": "Distribucion", "Litros": 1100, "Barrio": "Nogales Alto", "Nombre_Ref": null, "Disponibil": null, "Acople": null, "Observacio": null, "Campana_Fe": null, "layer": "Puntos_2", "path": "C:/Users/julia/Documents/00_AgrimensuraUme/Cooperativa de Agua UMEPAY/shp/Puntos_2.shp|subset=\"Descripcio\" NOT ILIKE 'Mang%'" }, "geometry": { "type": "Point", "coordinates": [ -64.74903961467632, -32.196209652344486, 1021.277 ] } },
{ "type": "Feature", "properties": { "FID": 253, "Descripcio": "TanqCasa", "Fecha": null, "ID foto": null, "NivelRed": 2, "LoteNro": 31, "Propietari": null, "TipoRed": "Distribucion", "Litros": 1100, "Barrio": "Nogales Alto", "Nombre_Ref": null, "Disponibil": null, "Acople": null, "Observacio": null, "Campana_Fe": null, "layer": "Puntos_2", "path": "C:/Users/julia/Documents/00_AgrimensuraUme/Cooperativa de Agua UMEPAY/shp/Puntos_2.shp|subset=\"Descripcio\" NOT ILIKE 'Mang%'" }, "geometry": { "type": "Point", "coordinates": [ -64.748819510956238, -32.196176903340529, 1018.194 ] } },
{ "type": "Feature", "properties": { "FID": 755, "Descripcio": "T", "Fecha": null, "ID foto": null, "NivelRed": null, "LoteNro": null, "Propietari": "Cooperativa de agua", "TipoRed": "Distribucion", "Litros": null, "Barrio": null, "Nombre_Ref": null, "Disponibil": null, "Acople": null, "Observacio": null, "Campana_Fe": null, "layer": "Puntos_2", "path": "C:/Users/julia/Documents/00_AgrimensuraUme/Cooperativa de Agua UMEPAY/shp/Puntos_2.shp|subset=\"Descripcio\" NOT ILIKE 'Mang%'" }, "geometry": { "type": "Point", "coordinates": [ -64.749335813380512, -32.19635074032653, 1020.817 ] } },
{ "type": "Feature", "properties": { "FID": 793, "Descripcio": "TanqCasa", "Fecha": null, "ID foto": null, "NivelRed": 2, "LoteNro": 25, "Propietari": "Ceci y Gus", "TipoRed": "Distribucion", "Litros": null, "Barrio": "Nogales Alto", "Nombre_Ref": null, "Disponibil": null, "Acople": null, "Observacio": null, "Campana_Fe": null, "layer": "Puntos_2", "path": "C:/Users/julia/Documents/00_AgrimensuraUme/Cooperativa de Agua UMEPAY/shp/Puntos_2.shp|subset=\"Descripcio\" NOT ILIKE 'Mang%'" }, "geometry": { "type": "Point", "coordinates": [ -64.748835106546949, -32.197575056923547, 1008.172 ] } },
{ "type": "Feature", "properties": { "FID": 794, "Descripcio": "TanqCasa", "Fecha": null, "ID foto": null, "NivelRed": 2, "LoteNro": 25, "Propietari": "Ceci y Gus", "TipoRed": "Distribucion", "Litros": null, "Barrio": "Nogales Alto", "Nombre_Ref": null, "Disponibil": null, "Acople": null, "Observacio": null, "Campana_Fe": null, "layer": "Puntos_2", "path": "C:/Users/julia/Documents/00_AgrimensuraUme/Cooperativa de Agua UMEPAY/shp/Puntos_2.shp|subset=\"Descripcio\" NOT ILIKE 'Mang%'" }, "geometry": { "type": "Point", "coordinates": [ -64.748818116522088, -32.197585967009395, 1008.214 ] } },
{ "type": "Feature", "properties": { "FID": 796, "Descripcio": "T", "Fecha": null, "ID foto": null, "NivelRed": null, "LoteNro": null, "Propietari": "Cooperativa de agua", "TipoRed": "Distribucion", "Litros": null, "Barrio": null, "Nombre_Ref": null, "Disponibil": null, "Acople": null, "Observacio": null, "Campana_Fe": null, "layer": "Puntos_2", "path": "C:/Users/julia/Documents/00_AgrimensuraUme/Cooperativa de Agua UMEPAY/shp/Puntos_2.shp|subset=\"Descripcio\" NOT ILIKE 'Mang%'" }, "geometry": { "type": "Point", "coordinates": [ -64.74884617307319, -32.197582080645446, 1008.082 ] } },
{ "type": "Feature", "properties": { "FID": 843, "Descripcio": "TanqCasa", "Fecha": null, "ID foto": null, "NivelRed": 2, "LoteNro": 12, "Propietari": "Paula Slata", "TipoRed": "Distribucion", "Litros": 1100, "Barrio": "Nogales Alto", "Nombre_Ref": null, "Disponibil": null, "Acople": null, "Observacio": null, "Campana_Fe": null, "layer": "Puntos_2", "path": "C:/Users/julia/Documents/00_AgrimensuraUme/Cooperativa de Agua UMEPAY/shp/Puntos_2.shp|subset=\"Descripcio\" NOT ILIKE 'Mang%'" }, "geometry": { "type": "Point", "coordinates": [ -64.751297153107501, -32.197451877258736, 1020.929 ] } },
{ "type": "Feature", "properties": { "FID": 876, "Descripcio": "TanqCasa", "Fecha": null, "ID foto": null, "NivelRed": 2, "LoteNro": 6, "Propietari": null, "TipoRed": "Distribucion", "Litros": 1100, "Barrio": "Nogales Alto", "Nombre_Ref": null, "Disponibil": null, "Acople": null, "Observacio": null, "Campana_Fe": null, "layer": "Puntos_2", "path": "C:/Users/julia/Documents/00_AgrimensuraUme/Cooperativa de Agua UMEPAY/shp/Puntos_2.shp|subset=\"Descripcio\" NOT ILIKE 'Mang%'" }, "geometry": { "type": "Point", "coordinates": [ -64.750791677211723, -32.199165110357512, 1006.557 ] } },
{ "type": "Feature", "properties": { "FID": 883, "Descripcio": "TanqCasa", "Fecha": null, "ID foto": null, "NivelRed": 2, "LoteNro": 5, "Propietari": "Maga", "TipoRed": "Distribucion", "Litros": 1100, "Barrio": "Nogales Alto", "Nombre_Ref": null, "Disponibil": null, "Acople": null, "Observacio": null, "Campana_Fe": null, "layer": "Puntos_2", "path": "C:/Users/julia/Documents/00_AgrimensuraUme/Cooperativa de Agua UMEPAY/shp/Puntos_2.shp|subset=\"Descripcio\" NOT ILIKE 'Mang%'" }, "geometry": { "type": "Point", "coordinates": [ -64.751663986470916, -32.199528771827566, 1024.267 ] } },
{ "type": "Feature", "properties": { "FID": 976, "Descripcio": "paneles", "Fecha": null, "ID foto": null, "NivelRed": null, "LoteNro": null, "Propietari": "Cooperativa de Agua", "TipoRed": null, "Litros": null, "Barrio": null, "Nombre_Ref": null, "Disponibil": null, "Acople": null, "Observacio": null, "Campana_Fe": null, "layer": "Puntos_2", "path": "C:/Users/julia/Documents/00_AgrimensuraUme/Cooperativa de Agua UMEPAY/shp/Puntos_2.shp|subset=\"Descripcio\" NOT ILIKE 'Mang%'" }, "geometry": { "type": "Point", "coordinates": [ -64.746431744122887, -32.202088298104862, 936.582 ] } },
{ "type": "Feature", "properties": { "FID": 977, "Descripcio": "paneles", "Fecha": null, "ID foto": null, "NivelRed": null, "LoteNro": null, "Propietari": "Cooperativa de Agua", "TipoRed": null, "Litros": null, "Barrio": null, "Nombre_Ref": null, "Disponibil": null, "Acople": null, "Observacio": null, "Campana_Fe": null, "layer": "Puntos_2", "path": "C:/Users/julia/Documents/00_AgrimensuraUme/Cooperativa de Agua UMEPAY/shp/Puntos_2.shp|subset=\"Descripcio\" NOT ILIKE 'Mang%'" }, "geometry": { "type": "Point", "coordinates": [ -64.746554804800525, -32.202082838189121, 939.001 ] } },
{ "type": "Feature", "properties": { "FID": 980, "Descripcio": "Dique", "Fecha": null, "ID foto": null, "NivelRed": 0, "LoteNro": null, "Propietari": null, "TipoRed": "0", "Litros": null, "Barrio": null, "Nombre_Ref": null, "Disponibil": null, "Acople": null, "Observacio": null, "Campana_Fe": null, "layer": "Puntos_2", "path": "C:/Users/julia/Documents/00_AgrimensuraUme/Cooperativa de Agua UMEPAY/shp/Puntos_2.shp|subset=\"Descripcio\" NOT ILIKE 'Mang%'" }, "geometry": { "type": "Point", "coordinates": [ -64.746333491551724, -32.201937732123305, 934.976 ] } },
{ "type": "Feature", "properties": { "FID": 981, "Descripcio": "Bomba", "Fecha": null, "ID foto": null, "NivelRed": 0, "LoteNro": 0, "Propietari": "Cooperativa de Agua", "TipoRed": "0", "Litros": null, "Barrio": null, "Nombre_Ref": null, "Disponibil": null, "Acople": null, "Observacio": null, "Campana_Fe": null, "layer": "Puntos_2", "path": "C:/Users/julia/Documents/00_AgrimensuraUme/Cooperativa de Agua UMEPAY/shp/Puntos_2.shp|subset=\"Descripcio\" NOT ILIKE 'Mang%'" }, "geometry": { "type": "Point", "coordinates": [ -64.746335557116794, -32.201940771231747, 934.973 ] } },
{ "type": "Feature", "properties": { "FID": 982, "Descripcio": "Generador", "Fecha": null, "ID foto": null, "NivelRed": null, "LoteNro": null, "Propietari": "Cooperativa de Agua", "TipoRed": null, "Litros": null, "Barrio": null, "Nombre_Ref": null, "Disponibil": null, "Acople": null, "Observacio": null, "Campana_Fe": null, "layer": "Puntos_2", "path": "C:/Users/julia/Documents/00_AgrimensuraUme/Cooperativa de Agua UMEPAY/shp/Puntos_2.shp|subset=\"Descripcio\" NOT ILIKE 'Mang%'" }, "geometry": { "type": "Point", "coordinates": [ -64.746466121039006, -32.202125970256965, 937.318 ] } },
{ "type": "Feature", "properties": { "FID": 983, "Descripcio": "TanqCasa", "Fecha": null, "ID foto": null, "NivelRed": 2, "LoteNro": 10, "Propietari": "Valeria Baigori", "TipoRed": "Distribucion", "Litros": 1100, "Barrio": "Nogales Alto", "Nombre_Ref": null, "Disponibil": null, "Acople": null, "Observacio": null, "Campana_Fe": null, "layer": "Puntos_2", "path": "C:/Users/julia/Documents/00_AgrimensuraUme/Cooperativa de Agua UMEPAY/shp/Puntos_2.shp|subset=\"Descripcio\" NOT ILIKE 'Mang%'" }, "geometry": { "type": "Point", "coordinates": [ -64.747688610058447, -32.201464478275163, 972.09 ] } },
{ "type": "Feature", "properties": { "FID": 984, "Descripcio": "TanqCasa", "Fecha": null, "ID foto": null, "NivelRed": 2, "LoteNro": 9, "Propietari": "Georgina Sigismondi", "TipoRed": "Distribucion", "Litros": 1100, "Barrio": "Nogales Alto", "Nombre_Ref": null, "Disponibil": null, "Acople": null, "Observacio": null, "Campana_Fe": null, "layer": "Puntos_2", "path": "C:/Users/julia/Documents/00_AgrimensuraUme/Cooperativa de Agua UMEPAY/shp/Puntos_2.shp|subset=\"Descripcio\" NOT ILIKE 'Mang%'" }, "geometry": { "type": "Point", "coordinates": [ -64.748500871921621, -32.201327246036868, 986.468 ] } },
{ "type": "Feature", "properties": { "FID": 994, "Descripcio": "TanqCasa", "Fecha": null, "ID foto": null, "NivelRed": 2, "LoteNro": 8, "Propietari": "Lucas Riachi", "TipoRed": "Distribucion", "Litros": 1100, "Barrio": "Nogales Alto", "Nombre_Ref": null, "Disponibil": null, "Acople": null, "Observacio": null, "Campana_Fe": null, "layer": "Puntos_2", "path": "C:/Users/julia/Documents/00_AgrimensuraUme/Cooperativa de Agua UMEPAY/shp/Puntos_2.shp|subset=\"Descripcio\" NOT ILIKE 'Mang%'" }, "geometry": { "type": "Point", "coordinates": [ -64.74904609550039, -32.201297559974542, 996.999 ] } },
{ "type": "Feature", "properties": { "FID": 996, "Descripcio": "TanqCasa", "Fecha": null, "ID foto": null, "NivelRed": 2, "LoteNro": 2, "Propietari": null, "TipoRed": "Distribucion", "Litros": 1100, "Barrio": "Nogales Alto", "Nombre_Ref": null, "Disponibil": null, "Acople": null, "Observacio": null, "Campana_Fe": null, "layer": "Puntos_2", "path": "C:/Users/julia/Documents/00_AgrimensuraUme/Cooperativa de Agua UMEPAY/shp/Puntos_2.shp|subset=\"Descripcio\" NOT ILIKE 'Mang%'" }, "geometry": { "type": "Point", "coordinates": [ -64.74906082443502, -32.201304217427662, 997.092 ] } },
{ "type": "Feature", "properties": { "FID": 1021, "Descripcio": "TanqCasa", "Fecha": null, "ID foto": null, "NivelRed": 2, "LoteNro": 1, "Propietari": null, "TipoRed": "Distribucion", "Litros": 1100, "Barrio": "Nogales Alto", "Nombre_Ref": null, "Disponibil": null, "Acople": null, "Observacio": null, "Campana_Fe": null, "layer": "Puntos_2", "path": "C:/Users/julia/Documents/00_AgrimensuraUme/Cooperativa de Agua UMEPAY/shp/Puntos_2.shp|subset=\"Descripcio\" NOT ILIKE 'Mang%'" }, "geometry": { "type": "Point", "coordinates": [ -64.750922742002615, -32.200470465458807, 1018.05 ] } },
{ "type": "Feature", "properties": { "FID": 1025, "Descripcio": "T", "Fecha": null, "ID foto": null, "NivelRed": null, "LoteNro": null, "Propietari": "Cooperativa de Agua", "TipoRed": null, "Litros": null, "Barrio": null, "Nombre_Ref": null, "Disponibil": null, "Acople": null, "Observacio": null, "Campana_Fe": null, "layer": "Puntos_2", "path": "C:/Users/julia/Documents/00_AgrimensuraUme/Cooperativa de Agua UMEPAY/shp/Puntos_2.shp|subset=\"Descripcio\" NOT ILIKE 'Mang%'" }, "geometry": { "type": "Point", "coordinates": [ -64.75072933669486, -32.200356818555349, 1015.776 ] } },
{ "type": "Feature", "properties": { "FID": 1028, "Descripcio": "TanqCasa", "Fecha": null, "ID foto": null, "NivelRed": 2, "LoteNro": 7, "Propietari": "Juampi y Rochi", "TipoRed": "Distribucion", "Litros": 1100, "Barrio": "Nogales Alto", "Nombre_Ref": null, "Disponibil": null, "Acople": null, "Observacio": null, "Campana_Fe": null, "layer": "Puntos_2", "path": "C:/Users/julia/Documents/00_AgrimensuraUme/Cooperativa de Agua UMEPAY/shp/Puntos_2.shp|subset=\"Descripcio\" NOT ILIKE 'Mang%'" }, "geometry": { "type": "Point", "coordinates": [ -64.750840770633118, -32.200295886282063, 1017.61 ] } },
{ "type": "Feature", "properties": { "FID": 1079, "Descripcio": "TanqCasa", "Fecha": null, "ID foto": null, "NivelRed": 2, "LoteNro": 4, "Propietari": "Mario Paixao", "TipoRed": "Distribucion", "Litros": 1100, "Barrio": "Nogales Alto", "Nombre_Ref": null, "Disponibil": null, "Acople": null, "Observacio": null, "Campana_Fe": null, "layer": "Puntos_2", "path": "C:/Users/julia/Documents/00_AgrimensuraUme/Cooperativa de Agua UMEPAY/shp/Puntos_2.shp|subset=\"Descripcio\" NOT ILIKE 'Mang%'" }, "geometry": { "type": "Point", "coordinates": [ -64.753453422969145, -32.198815036253514, 1040.727 ] } },
{ "type": "Feature", "properties": { "FID": 1082, "Descripcio": "TanqCasa", "Fecha": null, "ID foto": null, "NivelRed": 2, "LoteNro": 11, "Propietari": null, "TipoRed": "Distribucion", "Litros": 1100, "Barrio": "Nogales Alto", "Nombre_Ref": null, "Disponibil": null, "Acople": null, "Observacio": null, "Campana_Fe": null, "layer": "Puntos_2", "path": "C:/Users/julia/Documents/00_AgrimensuraUme/Cooperativa de Agua UMEPAY/shp/Puntos_2.shp|subset=\"Descripcio\" NOT ILIKE 'Mang%'" }, "geometry": { "type": "Point", "coordinates": [ -64.753595257678498, -32.198010421084504, 1042.403 ] } }
]
}
